<?xml version="1.0" encoding="UTF-8"?>
<gpx version="1.1" creator="TurboSanta Route Planner">
  <trk>
    <name>TurboSanta Route (10m density)</name>
    <trkseg>
      <trkpt lat="57.3653440" lon="-2.0597590">
        <name>Castle Road</name>
      </trkpt>
      <trkpt lat="57.3653400" lon="-2.0598320">
        <name>Castle Road</name>
      </trkpt>
      <trkpt lat="57.3654250" lon="-2.0598495">
        <name>Balmoral Avenue</name>
      </trkpt>
      <trkpt lat="57.3655100" lon="-2.0598670">
        <name>Balmoral Avenue</name>
      </trkpt>
      <trkpt lat="57.3655545" lon="-2.0598815">
        <name>Balmoral Avenue</name>
      </trkpt>
      <trkpt lat="57.3655990" lon="-2.0598960">
        <name>Balmoral Avenue</name>
      </trkpt>
      <trkpt lat="57.3656740" lon="-2.0599240">
        <name>Balmoral Avenue</name>
      </trkpt>
      <trkpt lat="57.3656910" lon="-2.0599300">
        <name>Balmoral Avenue</name>
      </trkpt>
      <trkpt lat="57.3657365" lon="-2.0599585">
        <name>Balmoral Avenue</name>
      </trkpt>
      <trkpt lat="57.3657820" lon="-2.0599870">
        <name>Balmoral Avenue</name>
      </trkpt>
      <trkpt lat="57.3658430" lon="-2.0600780">
        <name>Balmoral Avenue</name>
      </trkpt>
      <trkpt lat="57.3658935" lon="-2.0600040">
        <name>Balmoral Avenue</name>
      </trkpt>
      <trkpt lat="57.3659440" lon="-2.0599300">
        <name>Balmoral Avenue</name>
      </trkpt>
      <trkpt lat="57.3659580" lon="-2.0599070">
        <name>Balmoral Avenue</name>
      </trkpt>
      <trkpt lat="57.3659920" lon="-2.0598520">
        <name>Balmoral Avenue</name>
      </trkpt>
      <trkpt lat="57.3660260" lon="-2.0597670">
        <name>Balmoral Avenue</name>
      </trkpt>
      <trkpt lat="57.3660610" lon="-2.0596200">
        <name>Dunottar Road</name>
      </trkpt>
      <trkpt lat="57.3661010" lon="-2.0595390">
        <name>Dunottar Road</name>
      </trkpt>
      <trkpt lat="57.3661600" lon="-2.0594670">
        <name>Dunottar Road</name>
      </trkpt>
      <trkpt lat="57.3661850" lon="-2.0594600">
        <name>Dunottar Road</name>
      </trkpt>
      <trkpt lat="57.3662410" lon="-2.0594440">
        <name>Dunottar Road</name>
      </trkpt>
      <trkpt lat="57.3663250" lon="-2.0594380">
        <name>Dunottar Road</name>
      </trkpt>
      <trkpt lat="57.3663720" lon="-2.0594255">
        <name>Dunottar Road</name>
      </trkpt>
      <trkpt lat="57.3664190" lon="-2.0594130">
        <name>Dunottar Road</name>
      </trkpt>
      <trkpt lat="57.3664530" lon="-2.0593830">
        <name>Dunottar Road</name>
      </trkpt>
      <trkpt lat="57.3664880" lon="-2.0593520">
        <name>Dunottar Road</name>
      </trkpt>
      <trkpt lat="57.3665150" lon="-2.0594260">
        <name>Dunottar Road</name>
      </trkpt>
      <trkpt lat="57.3665420" lon="-2.0595000">
        <name>Dunottar Road</name>
      </trkpt>
      <trkpt lat="57.3665910" lon="-2.0596380">
        <name>Dunottar Road</name>
      </trkpt>
      <trkpt lat="57.3666210" lon="-2.0597030">
        <name>Dunottar Road</name>
      </trkpt>
      <trkpt lat="57.3666510" lon="-2.0597680">
        <name>Dunottar Road</name>
      </trkpt>
      <trkpt lat="57.3666770" lon="-2.0598170">
        <name>Dunottar Road</name>
      </trkpt>
      <trkpt lat="57.3666230" lon="-2.0599170">
        <name>Dunottar Road</name>
      </trkpt>
      <trkpt lat="57.3665690" lon="-2.0600170">
        <name>Dunottar Road</name>
      </trkpt>
      <trkpt lat="57.3665150" lon="-2.0601170">
        <name>Dunottar Road</name>
      </trkpt>
      <trkpt lat="57.3665690" lon="-2.0600170">
        <name>Dunottar Road</name>
      </trkpt>
      <trkpt lat="57.3666230" lon="-2.0599170">
        <name>Dunottar Road</name>
      </trkpt>
      <trkpt lat="57.3666770" lon="-2.0598170">
        <name>Dunottar Road</name>
      </trkpt>
      <trkpt lat="57.3666510" lon="-2.0597680">
        <name>Dunottar Road</name>
      </trkpt>
      <trkpt lat="57.3666210" lon="-2.0597030">
        <name>Dunottar Road</name>
      </trkpt>
      <trkpt lat="57.3665910" lon="-2.0596380">
        <name>Dunottar Road</name>
      </trkpt>
      <trkpt lat="57.3665560" lon="-2.0595410">
        <name>Dunottar Road</name>
      </trkpt>
      <trkpt lat="57.3665420" lon="-2.0595000">
        <name>Dunottar Road</name>
      </trkpt>
      <trkpt lat="57.3665150" lon="-2.0594260">
        <name>Dunottar Road</name>
      </trkpt>
      <trkpt lat="57.3664880" lon="-2.0593520">
        <name>Dunottar Road</name>
      </trkpt>
      <trkpt lat="57.3665360" lon="-2.0592650">
        <name>Dunottar Road</name>
      </trkpt>
      <trkpt lat="57.3665730" lon="-2.0591945">
        <name>Dunottar Road</name>
      </trkpt>
      <trkpt lat="57.3666100" lon="-2.0591240">
        <name>Dunottar Road</name>
      </trkpt>
      <trkpt lat="57.3666617" lon="-2.0590260">
        <name>Dunottar Road</name>
      </trkpt>
      <trkpt lat="57.3667135" lon="-2.0589280">
        <name>Dunottar Road</name>
      </trkpt>
      <trkpt lat="57.3667653" lon="-2.0588300">
        <name>Dunottar Road</name>
      </trkpt>
      <trkpt lat="57.3668170" lon="-2.0587320">
        <name>Dunottar Road</name>
      </trkpt>
      <trkpt lat="57.3668605" lon="-2.0586470">
        <name>Dunottar Road</name>
      </trkpt>
      <trkpt lat="57.3669040" lon="-2.0585620">
        <name>Dunottar Road</name>
      </trkpt>
      <trkpt lat="57.3669280" lon="-2.0585150">
        <name>Dunottar Road</name>
      </trkpt>
      <trkpt lat="57.3669820" lon="-2.0584177">
        <name>Dunottar Road</name>
      </trkpt>
      <trkpt lat="57.3670360" lon="-2.0583203">
        <name>Dunottar Road</name>
      </trkpt>
      <trkpt lat="57.3670900" lon="-2.0582230">
        <name>Dunottar Road</name>
      </trkpt>
      <trkpt lat="57.3670360" lon="-2.0583203">
        <name>Dunottar Road</name>
      </trkpt>
      <trkpt lat="57.3669820" lon="-2.0584177">
        <name>Dunottar Road</name>
      </trkpt>
      <trkpt lat="57.3669280" lon="-2.0585150">
        <name>Dunottar Road</name>
      </trkpt>
      <trkpt lat="57.3668725" lon="-2.0586235">
        <name>Dunottar Road</name>
      </trkpt>
      <trkpt lat="57.3668170" lon="-2.0587320">
        <name>Dunottar Road</name>
      </trkpt>
      <trkpt lat="57.3667650" lon="-2.0588310">
        <name>Dunottar Road</name>
      </trkpt>
      <trkpt lat="57.3667120" lon="-2.0589313">
        <name>Dunottar Road</name>
      </trkpt>
      <trkpt lat="57.3666590" lon="-2.0590315">
        <name>Dunottar Road</name>
      </trkpt>
      <trkpt lat="57.3666060" lon="-2.0591318">
        <name>Dunottar Road</name>
      </trkpt>
      <trkpt lat="57.3665530" lon="-2.0592320">
        <name>Dunottar Road</name>
      </trkpt>
      <trkpt lat="57.3665360" lon="-2.0592650">
        <name>Dunottar Road</name>
      </trkpt>
      <trkpt lat="57.3664880" lon="-2.0593520">
        <name>Dunottar Road</name>
      </trkpt>
      <trkpt lat="57.3664190" lon="-2.0594130">
        <name>Dunottar Road</name>
      </trkpt>
      <trkpt lat="57.3663720" lon="-2.0594255">
        <name>Dunottar Road</name>
      </trkpt>
      <trkpt lat="57.3663250" lon="-2.0594380">
        <name>Dunottar Road</name>
      </trkpt>
      <trkpt lat="57.3662720" lon="-2.0594420">
        <name>Dunottar Road</name>
      </trkpt>
      <trkpt lat="57.3662410" lon="-2.0594440">
        <name>Dunottar Road</name>
      </trkpt>
      <trkpt lat="57.3661600" lon="-2.0594670">
        <name>Dunottar Road</name>
      </trkpt>
      <trkpt lat="57.3661010" lon="-2.0595390">
        <name>Dunottar Road</name>
      </trkpt>
      <trkpt lat="57.3660610" lon="-2.0596200">
        <name>Dunottar Road</name>
      </trkpt>
      <trkpt lat="57.3660420" lon="-2.0597000">
        <name>Dunottar Road</name>
      </trkpt>
      <trkpt lat="57.3660260" lon="-2.0597670">
        <name>Dunottar Road</name>
      </trkpt>
      <trkpt lat="57.3659920" lon="-2.0598520">
        <name>Dunottar Road</name>
      </trkpt>
      <trkpt lat="57.3659440" lon="-2.0599300">
        <name>Dunottar Road</name>
      </trkpt>
      <trkpt lat="57.3658935" lon="-2.0600040">
        <name>Dunottar Road</name>
      </trkpt>
      <trkpt lat="57.3658430" lon="-2.0600780">
        <name>Dunottar Road</name>
      </trkpt>
      <trkpt lat="57.3658960" lon="-2.0601970">
        <name>Dunottar Road</name>
      </trkpt>
      <trkpt lat="57.3659130" lon="-2.0602350">
        <name>Dunottar Road</name>
      </trkpt>
      <trkpt lat="57.3659380" lon="-2.0603000">
        <name>Dunottar Road</name>
      </trkpt>
      <trkpt lat="57.3659640" lon="-2.0603705">
        <name>Dunottar Road</name>
      </trkpt>
      <trkpt lat="57.3659900" lon="-2.0604410">
        <name>Dunottar Road</name>
      </trkpt>
      <trkpt lat="57.3660450" lon="-2.0605490">
        <name>Dunottar Road</name>
      </trkpt>
      <trkpt lat="57.3660610" lon="-2.0605720">
        <name>Dunottar Road</name>
      </trkpt>
      <trkpt lat="57.3661010" lon="-2.0606290">
        <name>Dunottar Road</name>
      </trkpt>
      <trkpt lat="57.3661410" lon="-2.0606860">
        <name>Dunottar Road</name>
      </trkpt>
      <trkpt lat="57.3662010" lon="-2.0607320">
        <name>Dunottar Road</name>
      </trkpt>
      <trkpt lat="57.3661880" lon="-2.0608010">
        <name>Dunottar Road</name>
      </trkpt>
      <trkpt lat="57.3661670" lon="-2.0609040">
        <name>Dunottar Road</name>
      </trkpt>
      <trkpt lat="57.3661460" lon="-2.0610070">
        <name>Dunottar Road</name>
      </trkpt>
      <trkpt lat="57.3661330" lon="-2.0611310">
        <name>Dunottar Road</name>
      </trkpt>
      <trkpt lat="57.3661290" lon="-2.0612190">
        <name>Dunottar Road</name>
      </trkpt>
      <trkpt lat="57.3661270" lon="-2.0612570">
        <name>Dunottar Road</name>
      </trkpt>
      <trkpt lat="57.3661265" lon="-2.0613440">
        <name>Dunottar Road</name>
      </trkpt>
      <trkpt lat="57.3661260" lon="-2.0614310">
        <name>Dunottar Road</name>
      </trkpt>
      <trkpt lat="57.3660860" lon="-2.0614340">
        <name>Dunottar Road</name>
      </trkpt>
      <trkpt lat="57.3660470" lon="-2.0614550">
        <name>Dunottar Road</name>
      </trkpt>
      <trkpt lat="57.3660100" lon="-2.0614800">
        <name>Dunottar Road</name>
      </trkpt>
      <trkpt lat="57.3659590" lon="-2.0615700">
        <name>Dunottar Road</name>
      </trkpt>
      <trkpt lat="57.3659080" lon="-2.0616600">
        <name>Dunottar Road</name>
      </trkpt>
      <trkpt lat="57.3658850" lon="-2.0617500">
        <name>Dunottar Road</name>
      </trkpt>
      <trkpt lat="57.3658740" lon="-2.0618380">
        <name>Dunottar Road</name>
      </trkpt>
      <trkpt lat="57.3658850" lon="-2.0617500">
        <name>Dunottar Road</name>
      </trkpt>
      <trkpt lat="57.3659080" lon="-2.0616600">
        <name>Dunottar Road</name>
      </trkpt>
      <trkpt lat="57.3659590" lon="-2.0615700">
        <name>Dunottar Road</name>
      </trkpt>
      <trkpt lat="57.3660100" lon="-2.0614800">
        <name>Dunottar Road</name>
      </trkpt>
      <trkpt lat="57.3660470" lon="-2.0614550">
        <name>Dunottar Road</name>
      </trkpt>
      <trkpt lat="57.3660860" lon="-2.0614340">
        <name>Dunottar Road</name>
      </trkpt>
      <trkpt lat="57.3661260" lon="-2.0614310">
        <name>Dunottar Road</name>
      </trkpt>
      <trkpt lat="57.3661300" lon="-2.0615210">
        <name>Dunottar Road</name>
      </trkpt>
      <trkpt lat="57.3661340" lon="-2.0616110">
        <name>Dunottar Road</name>
      </trkpt>
      <trkpt lat="57.3661590" lon="-2.0617100">
        <name>Dunottar Road</name>
      </trkpt>
      <trkpt lat="57.3661670" lon="-2.0617410">
        <name>Dunottar Road</name>
      </trkpt>
      <trkpt lat="57.3662100" lon="-2.0618440">
        <name>Dunottar Road</name>
      </trkpt>
      <trkpt lat="57.3662510" lon="-2.0619225">
        <name>Dunottar Road</name>
      </trkpt>
      <trkpt lat="57.3662920" lon="-2.0620010">
        <name>Dunottar Road</name>
      </trkpt>
      <trkpt lat="57.3663275" lon="-2.0620660">
        <name>Dunottar Road</name>
      </trkpt>
      <trkpt lat="57.3663630" lon="-2.0621310">
        <name>Dunottar Road</name>
      </trkpt>
      <trkpt lat="57.3664190" lon="-2.0622330">
        <name>Dunottar Road</name>
      </trkpt>
      <trkpt lat="57.3664480" lon="-2.0622900">
        <name>Dunottar Road</name>
      </trkpt>
      <trkpt lat="57.3664055" lon="-2.0623690">
        <name>Dunottar Road</name>
      </trkpt>
      <trkpt lat="57.3663630" lon="-2.0624480">
        <name>Dunottar Road</name>
      </trkpt>
      <trkpt lat="57.3663370" lon="-2.0625160">
        <name>Dunottar Road</name>
      </trkpt>
      <trkpt lat="57.3663210" lon="-2.0626010">
        <name>Dunottar Road</name>
      </trkpt>
      <trkpt lat="57.3663210" lon="-2.0626990">
        <name>Dunottar Road</name>
      </trkpt>
      <trkpt lat="57.3663340" lon="-2.0627770">
        <name>Dunottar Road</name>
      </trkpt>
      <trkpt lat="57.3663570" lon="-2.0628470">
        <name>Dunottar Road</name>
      </trkpt>
      <trkpt lat="57.3663925" lon="-2.0629190">
        <name>Dunottar Road</name>
      </trkpt>
      <trkpt lat="57.3664280" lon="-2.0629910">
        <name>Dunottar Road</name>
      </trkpt>
      <trkpt lat="57.3664620" lon="-2.0630600">
        <name>Dunottar Road</name>
      </trkpt>
      <trkpt lat="57.3664970" lon="-2.0630000">
        <name>Dunottar Road</name>
      </trkpt>
      <trkpt lat="57.3664620" lon="-2.0630600">
        <name>Dunottar Road</name>
      </trkpt>
      <trkpt lat="57.3664280" lon="-2.0629910">
        <name>Dunottar Road</name>
      </trkpt>
      <trkpt lat="57.3663925" lon="-2.0629190">
        <name>Balmoral Avenue</name>
      </trkpt>
      <trkpt lat="57.3663570" lon="-2.0628470">
        <name>Balmoral Avenue</name>
      </trkpt>
      <trkpt lat="57.3663340" lon="-2.0627770">
        <name>Balmoral Avenue</name>
      </trkpt>
      <trkpt lat="57.3663210" lon="-2.0626990">
        <name>Balmoral Avenue</name>
      </trkpt>
      <trkpt lat="57.3663210" lon="-2.0626010">
        <name>Balmoral Avenue</name>
      </trkpt>
      <trkpt lat="57.3663370" lon="-2.0625160">
        <name>Balmoral Avenue</name>
      </trkpt>
      <trkpt lat="57.3663630" lon="-2.0624480">
        <name>Balmoral Avenue</name>
      </trkpt>
      <trkpt lat="57.3663985" lon="-2.0623820">
        <name>Balmoral Avenue</name>
      </trkpt>
      <trkpt lat="57.3664340" lon="-2.0623160">
        <name>Balmoral Avenue</name>
      </trkpt>
      <trkpt lat="57.3664480" lon="-2.0622900">
        <name>Balmoral Avenue</name>
      </trkpt>
      <trkpt lat="57.3665000" lon="-2.0622025">
        <name>Balmoral Avenue</name>
      </trkpt>
      <trkpt lat="57.3665520" lon="-2.0621150">
        <name>Balmoral Avenue</name>
      </trkpt>
      <trkpt lat="57.3665780" lon="-2.0620840">
        <name>Balmoral Avenue</name>
      </trkpt>
      <trkpt lat="57.3666090" lon="-2.0620670">
        <name>Balmoral Avenue</name>
      </trkpt>
      <trkpt lat="57.3666850" lon="-2.0620440">
        <name>Balmoral Avenue</name>
      </trkpt>
      <trkpt lat="57.3667140" lon="-2.0620320">
        <name>Balmoral Avenue</name>
      </trkpt>
      <trkpt lat="57.3667390" lon="-2.0620140">
        <name>Balmoral Avenue</name>
      </trkpt>
      <trkpt lat="57.3667820" lon="-2.0619760">
        <name>Balmoral Avenue</name>
      </trkpt>
      <trkpt lat="57.3667970" lon="-2.0619500">
        <name>Balvenie Wynd</name>
      </trkpt>
      <trkpt lat="57.3668220" lon="-2.0619040">
        <name>Balvenie Wynd</name>
      </trkpt>
      <trkpt lat="57.3668500" lon="-2.0618380">
        <name>Balvenie Wynd</name>
      </trkpt>
      <trkpt lat="57.3668690" lon="-2.0617640">
        <name>Balvenie Wynd</name>
      </trkpt>
      <trkpt lat="57.3668830" lon="-2.0616840">
        <name>Balvenie Wynd</name>
      </trkpt>
      <trkpt lat="57.3668880" lon="-2.0616020">
        <name>Balvenie Wynd</name>
      </trkpt>
      <trkpt lat="57.3668885" lon="-2.0615030">
        <name>Balvenie Wynd</name>
      </trkpt>
      <trkpt lat="57.3668890" lon="-2.0614040">
        <name>Balvenie Wynd</name>
      </trkpt>
      <trkpt lat="57.3668690" lon="-2.0614040">
        <name>Balvenie Wynd</name>
      </trkpt>
      <trkpt lat="57.3668890" lon="-2.0614040">
        <name>Balvenie Wynd</name>
      </trkpt>
      <trkpt lat="57.3668885" lon="-2.0615030">
        <name>Balvenie Wynd</name>
      </trkpt>
      <trkpt lat="57.3668880" lon="-2.0616020">
        <name>Balvenie Wynd</name>
      </trkpt>
      <trkpt lat="57.3668830" lon="-2.0616840">
        <name>Dunvegan Place</name>
      </trkpt>
      <trkpt lat="57.3668690" lon="-2.0617640">
        <name>Dunvegan Place</name>
      </trkpt>
      <trkpt lat="57.3668500" lon="-2.0618380">
        <name>Dunvegan Place</name>
      </trkpt>
      <trkpt lat="57.3668220" lon="-2.0619040">
        <name>Dunvegan Place</name>
      </trkpt>
      <trkpt lat="57.3667820" lon="-2.0619760">
        <name>Dunvegan Place</name>
      </trkpt>
      <trkpt lat="57.3667390" lon="-2.0620140">
        <name>Dunvegan Place</name>
      </trkpt>
      <trkpt lat="57.3667140" lon="-2.0620320">
        <name>Dunvegan Place</name>
      </trkpt>
      <trkpt lat="57.3666850" lon="-2.0620440">
        <name>Dunvegan Place</name>
      </trkpt>
      <trkpt lat="57.3666090" lon="-2.0620670">
        <name>Dunvegan Place</name>
      </trkpt>
      <trkpt lat="57.3665780" lon="-2.0620840">
        <name>Dunvegan Place</name>
      </trkpt>
      <trkpt lat="57.3665520" lon="-2.0621150">
        <name>Dunvegan Place</name>
      </trkpt>
      <trkpt lat="57.3665000" lon="-2.0622025">
        <name>Dunvegan Place</name>
      </trkpt>
      <trkpt lat="57.3664480" lon="-2.0622900">
        <name>Dunvegan Place</name>
      </trkpt>
      <trkpt lat="57.3664190" lon="-2.0622330">
        <name>Dunvegan Place</name>
      </trkpt>
      <trkpt lat="57.3663555" lon="-2.0621170">
        <name>Dunvegan Place</name>
      </trkpt>
      <trkpt lat="57.3662920" lon="-2.0620010">
        <name>Dunvegan Place</name>
      </trkpt>
      <trkpt lat="57.3662680" lon="-2.0619540">
        <name>Dunvegan Place</name>
      </trkpt>
      <trkpt lat="57.3662100" lon="-2.0618440">
        <name>Dunvegan Place</name>
      </trkpt>
      <trkpt lat="57.3661670" lon="-2.0617410">
        <name>Balvenie Wynd</name>
      </trkpt>
      <trkpt lat="57.3661340" lon="-2.0616110">
        <name>Balvenie Wynd</name>
      </trkpt>
      <trkpt lat="57.3661300" lon="-2.0615210">
        <name>Balvenie Wynd</name>
      </trkpt>
      <trkpt lat="57.3661260" lon="-2.0614310">
        <name>Balvenie Wynd</name>
      </trkpt>
      <trkpt lat="57.3661265" lon="-2.0613440">
        <name>Balvenie Wynd</name>
      </trkpt>
      <trkpt lat="57.3661270" lon="-2.0612570">
        <name>Balvenie Wynd</name>
      </trkpt>
      <trkpt lat="57.3661330" lon="-2.0611310">
        <name>Balvenie Wynd</name>
      </trkpt>
      <trkpt lat="57.3661460" lon="-2.0610070">
        <name>Balvenie Wynd</name>
      </trkpt>
      <trkpt lat="57.3661620" lon="-2.0609290">
        <name>Balvenie Wynd</name>
      </trkpt>
      <trkpt lat="57.3661880" lon="-2.0608010">
        <name>Balvenie Wynd</name>
      </trkpt>
      <trkpt lat="57.3662010" lon="-2.0607320">
        <name>Balvenie Wynd</name>
      </trkpt>
      <trkpt lat="57.3662635" lon="-2.0607610">
        <name>Balvenie Wynd</name>
      </trkpt>
      <trkpt lat="57.3663260" lon="-2.0607900">
        <name>Balvenie Wynd</name>
      </trkpt>
      <trkpt lat="57.3663600" lon="-2.0607910">
        <name>Balvenie Wynd</name>
      </trkpt>
      <trkpt lat="57.3664320" lon="-2.0607930">
        <name>Balvenie Wynd</name>
      </trkpt>
      <trkpt lat="57.3664775" lon="-2.0607735">
        <name>Balvenie Wynd</name>
      </trkpt>
      <trkpt lat="57.3665230" lon="-2.0607540">
        <name>Balvenie Wynd</name>
      </trkpt>
      <trkpt lat="57.3665685" lon="-2.0607200">
        <name>Balvenie Wynd</name>
      </trkpt>
      <trkpt lat="57.3666140" lon="-2.0606860">
        <name>Balvenie Wynd</name>
      </trkpt>
      <trkpt lat="57.3666350" lon="-2.0606570">
        <name>Balvenie Wynd</name>
      </trkpt>
      <trkpt lat="57.3666910" lon="-2.0605780">
        <name>Dunvegan Place</name>
      </trkpt>
      <trkpt lat="57.3667450" lon="-2.0604990">
        <name>Dunvegan Place</name>
      </trkpt>
      <trkpt lat="57.3667670" lon="-2.0604620">
        <name>Dunvegan Place</name>
      </trkpt>
      <trkpt lat="57.3668320" lon="-2.0603950">
        <name>Dunvegan Place</name>
      </trkpt>
      <trkpt lat="57.3668760" lon="-2.0603560">
        <name>Dunvegan Place</name>
      </trkpt>
      <trkpt lat="57.3668900" lon="-2.0603490">
        <name>Dunvegan Place</name>
      </trkpt>
      <trkpt lat="57.3669240" lon="-2.0603330">
        <name>Dunvegan Place</name>
      </trkpt>
      <trkpt lat="57.3669780" lon="-2.0603180">
        <name>Dunvegan Place</name>
      </trkpt>
      <trkpt lat="57.3670320" lon="-2.0603140">
        <name>Dunvegan Place</name>
      </trkpt>
      <trkpt lat="57.3670875" lon="-2.0603360">
        <name>Dunvegan Place</name>
      </trkpt>
      <trkpt lat="57.3671430" lon="-2.0603580">
        <name>Dunvegan Place</name>
      </trkpt>
      <trkpt lat="57.3671820" lon="-2.0603940">
        <name>Dunvegan Place</name>
      </trkpt>
      <trkpt lat="57.3672300" lon="-2.0604370">
        <name>Dunvegan Place</name>
      </trkpt>
      <trkpt lat="57.3672885" lon="-2.0605365">
        <name>Dunvegan Place</name>
      </trkpt>
      <trkpt lat="57.3673470" lon="-2.0606360">
        <name>Dunvegan Place</name>
      </trkpt>
      <trkpt lat="57.3673890" lon="-2.0607060">
        <name>Dunvegan Place</name>
      </trkpt>
      <trkpt lat="57.3674200" lon="-2.0606580">
        <name>Dunvegan Place</name>
      </trkpt>
      <trkpt lat="57.3674530" lon="-2.0605890">
        <name>Dunvegan Place</name>
      </trkpt>
      <trkpt lat="57.3674930" lon="-2.0605140">
        <name>Dunvegan Place</name>
      </trkpt>
      <trkpt lat="57.3675480" lon="-2.0604120">
        <name>Dunvegan Place</name>
      </trkpt>
      <trkpt lat="57.3675830" lon="-2.0602940">
        <name>Dunvegan Place</name>
      </trkpt>
      <trkpt lat="57.3675920" lon="-2.0602610">
        <name>Dunvegan Place</name>
      </trkpt>
      <trkpt lat="57.3676090" lon="-2.0601490">
        <name>Dunvegan Place</name>
      </trkpt>
      <trkpt lat="57.3676095" lon="-2.0600175">
        <name>Dunvegan Place</name>
      </trkpt>
      <trkpt lat="57.3676100" lon="-2.0598860">
        <name>Dunvegan Place</name>
      </trkpt>
      <trkpt lat="57.3676105" lon="-2.0597545">
        <name>Dunvegan Place</name>
      </trkpt>
      <trkpt lat="57.3676110" lon="-2.0596230">
        <name>Dunvegan Place</name>
      </trkpt>
      <trkpt lat="57.3676080" lon="-2.0595700">
        <name>Dunvegan Place</name>
      </trkpt>
      <trkpt lat="57.3676040" lon="-2.0595150">
        <name>Dunvegan Place</name>
      </trkpt>
      <trkpt lat="57.3675840" lon="-2.0594120">
        <name>Dunvegan Place</name>
      </trkpt>
      <trkpt lat="57.3675390" lon="-2.0592920">
        <name>Dunvegan Place</name>
      </trkpt>
      <trkpt lat="57.3675010" lon="-2.0592120">
        <name>Dunvegan Place</name>
      </trkpt>
      <trkpt lat="57.3674580" lon="-2.0591190">
        <name>Dunvegan Place</name>
      </trkpt>
      <trkpt lat="57.3674280" lon="-2.0591820">
        <name>Dunvegan Place</name>
      </trkpt>
      <trkpt lat="57.3673950" lon="-2.0592420">
        <name>Dunvegan Place</name>
      </trkpt>
      <trkpt lat="57.3673540" lon="-2.0593260">
        <name>Dunvegan Place</name>
      </trkpt>
      <trkpt lat="57.3673150" lon="-2.0593980">
        <name>Dunvegan Place</name>
      </trkpt>
      <trkpt lat="57.3672900" lon="-2.0594910">
        <name>Dunvegan Place</name>
      </trkpt>
      <trkpt lat="57.3672840" lon="-2.0596280">
        <name>Dunvegan Place</name>
      </trkpt>
      <trkpt lat="57.3672840" lon="-2.0597445">
        <name>Dunvegan Place</name>
      </trkpt>
      <trkpt lat="57.3672840" lon="-2.0598610">
        <name>Dunvegan Place</name>
      </trkpt>
      <trkpt lat="57.3672840" lon="-2.0597445">
        <name>Dunvegan Place</name>
      </trkpt>
      <trkpt lat="57.3672840" lon="-2.0596280">
        <name>Dunvegan Place</name>
      </trkpt>
      <trkpt lat="57.3672900" lon="-2.0594910">
        <name>Dunvegan Place</name>
      </trkpt>
      <trkpt lat="57.3673150" lon="-2.0593980">
        <name>Dunvegan Place</name>
      </trkpt>
      <trkpt lat="57.3673540" lon="-2.0593260">
        <name>Dunvegan Place</name>
      </trkpt>
      <trkpt lat="57.3673950" lon="-2.0592420">
        <name>Dunvegan Place</name>
      </trkpt>
      <trkpt lat="57.3674280" lon="-2.0591820">
        <name>Dunvegan Place</name>
      </trkpt>
      <trkpt lat="57.3674580" lon="-2.0591190">
        <name>Dunvegan Place</name>
      </trkpt>
      <trkpt lat="57.3675087" lon="-2.0590265">
        <name>Dunvegan Place</name>
      </trkpt>
      <trkpt lat="57.3675595" lon="-2.0589340">
        <name>Dunvegan Place</name>
      </trkpt>
      <trkpt lat="57.3676102" lon="-2.0588415">
        <name>Dunvegan Place</name>
      </trkpt>
      <trkpt lat="57.3676610" lon="-2.0587490">
        <name>Dunvegan Place</name>
      </trkpt>
      <trkpt lat="57.3676920" lon="-2.0586760">
        <name>Dunvegan Place</name>
      </trkpt>
      <trkpt lat="57.3677080" lon="-2.0585730">
        <name>Dunvegan Place</name>
      </trkpt>
      <trkpt lat="57.3677185" lon="-2.0584495">
        <name>Dunvegan Place</name>
      </trkpt>
      <trkpt lat="57.3677290" lon="-2.0583260">
        <name>Dunvegan Place</name>
      </trkpt>
      <trkpt lat="57.3677185" lon="-2.0584495">
        <name>Dunvegan Place</name>
      </trkpt>
      <trkpt lat="57.3677080" lon="-2.0585730">
        <name>Dunvegan Place</name>
      </trkpt>
      <trkpt lat="57.3676920" lon="-2.0586760">
        <name>Dunvegan Place</name>
      </trkpt>
      <trkpt lat="57.3676610" lon="-2.0587490">
        <name>Dunvegan Place</name>
      </trkpt>
      <trkpt lat="57.3676090" lon="-2.0588435">
        <name>Dunvegan Place</name>
      </trkpt>
      <trkpt lat="57.3675570" lon="-2.0589380">
        <name>Dunvegan Place</name>
      </trkpt>
      <trkpt lat="57.3675075" lon="-2.0590285">
        <name>Dunvegan Place</name>
      </trkpt>
      <trkpt lat="57.3674580" lon="-2.0591190">
        <name>Dunvegan Place</name>
      </trkpt>
      <trkpt lat="57.3674985" lon="-2.0592055">
        <name>Dunvegan Place</name>
      </trkpt>
      <trkpt lat="57.3675390" lon="-2.0592920">
        <name>Dunvegan Place</name>
      </trkpt>
      <trkpt lat="57.3675840" lon="-2.0594120">
        <name>Dunvegan Place</name>
      </trkpt>
      <trkpt lat="57.3676040" lon="-2.0595150">
        <name>Dunvegan Place</name>
      </trkpt>
      <trkpt lat="57.3676110" lon="-2.0596230">
        <name>Dunvegan Place</name>
      </trkpt>
      <trkpt lat="57.3676107" lon="-2.0597490">
        <name>Dunvegan Place</name>
      </trkpt>
      <trkpt lat="57.3676103" lon="-2.0598750">
        <name>Dunvegan Place</name>
      </trkpt>
      <trkpt lat="57.3676100" lon="-2.0600010">
        <name>Dunvegan Place</name>
      </trkpt>
      <trkpt lat="57.3676090" lon="-2.0601490">
        <name>Dunvegan Place</name>
      </trkpt>
      <trkpt lat="57.3675920" lon="-2.0602610">
        <name>Dunvegan Place</name>
      </trkpt>
      <trkpt lat="57.3675700" lon="-2.0603365">
        <name>Dunvegan Place</name>
      </trkpt>
      <trkpt lat="57.3675480" lon="-2.0604120">
        <name>Dunvegan Place</name>
      </trkpt>
      <trkpt lat="57.3674930" lon="-2.0605140">
        <name>Dunvegan Place</name>
      </trkpt>
      <trkpt lat="57.3674530" lon="-2.0605890">
        <name>Dunvegan Place</name>
      </trkpt>
      <trkpt lat="57.3674200" lon="-2.0606580">
        <name>Dunvegan Place</name>
      </trkpt>
      <trkpt lat="57.3673890" lon="-2.0607060">
        <name>Dunvegan Place</name>
      </trkpt>
      <trkpt lat="57.3674440" lon="-2.0608155">
        <name>Dunvegan Place</name>
      </trkpt>
      <trkpt lat="57.3674990" lon="-2.0609250">
        <name>Dunvegan Place</name>
      </trkpt>
      <trkpt lat="57.3675460" lon="-2.0610170">
        <name>Dunvegan Place</name>
      </trkpt>
      <trkpt lat="57.3676050" lon="-2.0611235">
        <name>Dunvegan Place</name>
      </trkpt>
      <trkpt lat="57.3676640" lon="-2.0612300">
        <name>Dunvegan Place</name>
      </trkpt>
      <trkpt lat="57.3676060" lon="-2.0613430">
        <name>Dunvegan Place</name>
      </trkpt>
      <trkpt lat="57.3675660" lon="-2.0614335">
        <name>Dunvegan Place</name>
      </trkpt>
      <trkpt lat="57.3675260" lon="-2.0615240">
        <name>Dunvegan Place</name>
      </trkpt>
      <trkpt lat="57.3675130" lon="-2.0615590">
        <name>Dunvegan Place</name>
      </trkpt>
      <trkpt lat="57.3674850" lon="-2.0616330">
        <name>Dunvegan Place</name>
      </trkpt>
      <trkpt lat="57.3674645" lon="-2.0617230">
        <name>Dunvegan Place</name>
      </trkpt>
      <trkpt lat="57.3674440" lon="-2.0618130">
        <name>Dunvegan Place</name>
      </trkpt>
      <trkpt lat="57.3674132" lon="-2.0619502">
        <name>Balvenie Wynd</name>
      </trkpt>
      <trkpt lat="57.3673825" lon="-2.0620875">
        <name>Balvenie Wynd</name>
      </trkpt>
      <trkpt lat="57.3673517" lon="-2.0622247">
        <name>Balvenie Wynd</name>
      </trkpt>
      <trkpt lat="57.3673210" lon="-2.0623620">
        <name>Balvenie Wynd</name>
      </trkpt>
      <trkpt lat="57.3673090" lon="-2.0624840">
        <name>Balvenie Wynd</name>
      </trkpt>
      <trkpt lat="57.3673070" lon="-2.0626240">
        <name>Balvenie Wynd</name>
      </trkpt>
      <trkpt lat="57.3673050" lon="-2.0627640">
        <name>Balvenie Wynd</name>
      </trkpt>
      <trkpt lat="57.3673030" lon="-2.0629040">
        <name>Balvenie Wynd</name>
      </trkpt>
      <trkpt lat="57.3672910" lon="-2.0629040">
        <name>Balvenie Wynd</name>
      </trkpt>
      <trkpt lat="57.3673030" lon="-2.0629040">
        <name>Balvenie Wynd</name>
      </trkpt>
      <trkpt lat="57.3673050" lon="-2.0627640">
        <name>Balvenie Wynd</name>
      </trkpt>
      <trkpt lat="57.3673070" lon="-2.0626240">
        <name>Balvenie Wynd</name>
      </trkpt>
      <trkpt lat="57.3673090" lon="-2.0624840">
        <name>Balvenie Wynd</name>
      </trkpt>
      <trkpt lat="57.3673210" lon="-2.0623620">
        <name>Balvenie Wynd</name>
      </trkpt>
      <trkpt lat="57.3673517" lon="-2.0622247">
        <name>Balvenie Wynd</name>
      </trkpt>
      <trkpt lat="57.3673825" lon="-2.0620875">
        <name>Balvenie Wynd</name>
      </trkpt>
      <trkpt lat="57.3674132" lon="-2.0619502">
        <name>Balvenie Wynd</name>
      </trkpt>
      <trkpt lat="57.3674440" lon="-2.0618130">
        <name>Balvenie Wynd</name>
      </trkpt>
      <trkpt lat="57.3674645" lon="-2.0617230">
        <name>Balvenie Wynd</name>
      </trkpt>
      <trkpt lat="57.3674850" lon="-2.0616330">
        <name>Balvenie Wynd</name>
      </trkpt>
      <trkpt lat="57.3675260" lon="-2.0615240">
        <name>Balvenie Wynd</name>
      </trkpt>
      <trkpt lat="57.3675660" lon="-2.0614335">
        <name>Balvenie Wynd</name>
      </trkpt>
      <trkpt lat="57.3676060" lon="-2.0613430">
        <name>Balvenie Wynd</name>
      </trkpt>
      <trkpt lat="57.3676640" lon="-2.0612300">
        <name>Balvenie Wynd</name>
      </trkpt>
      <trkpt lat="57.3677050" lon="-2.0613095">
        <name>Balvenie Wynd</name>
      </trkpt>
      <trkpt lat="57.3677460" lon="-2.0613890">
        <name>Balvenie Wynd</name>
      </trkpt>
      <trkpt lat="57.3678065" lon="-2.0614980">
        <name>Balvenie Wynd</name>
      </trkpt>
      <trkpt lat="57.3678670" lon="-2.0616070">
        <name>Balvenie Wynd</name>
      </trkpt>
      <trkpt lat="57.3679090" lon="-2.0616785">
        <name>Balvenie Wynd</name>
      </trkpt>
      <trkpt lat="57.3679510" lon="-2.0617500">
        <name>Balvenie Wynd</name>
      </trkpt>
      <trkpt lat="57.3679710" lon="-2.0617860">
        <name>Balvenie Wynd</name>
      </trkpt>
      <trkpt lat="57.3680120" lon="-2.0618580">
        <name>Balvenie Wynd</name>
      </trkpt>
      <trkpt lat="57.3680790" lon="-2.0619310">
        <name>Balvenie Wynd</name>
      </trkpt>
      <trkpt lat="57.3681410" lon="-2.0619770">
        <name>Balvenie Wynd</name>
      </trkpt>
      <trkpt lat="57.3682120" lon="-2.0620030">
        <name>Balvenie Wynd</name>
      </trkpt>
      <trkpt lat="57.3682907" lon="-2.0620037">
        <name>Balmoral Avenue</name>
      </trkpt>
      <trkpt lat="57.3683693" lon="-2.0620043">
        <name>Balmoral Avenue</name>
      </trkpt>
      <trkpt lat="57.3684480" lon="-2.0620050">
        <name>Balmoral Avenue</name>
      </trkpt>
      <trkpt lat="57.3684890" lon="-2.0620030">
        <name>Balmoral Avenue</name>
      </trkpt>
      <trkpt lat="57.3685240" lon="-2.0620020">
        <name>Balmoral Avenue</name>
      </trkpt>
      <trkpt lat="57.3685265" lon="-2.0620930">
        <name>Balmoral Avenue</name>
      </trkpt>
      <trkpt lat="57.3685290" lon="-2.0621840">
        <name>Balmoral Avenue</name>
      </trkpt>
      <trkpt lat="57.3685327" lon="-2.0623310">
        <name>Balmoral Avenue</name>
      </trkpt>
      <trkpt lat="57.3685363" lon="-2.0624780">
        <name>Balmoral Avenue</name>
      </trkpt>
      <trkpt lat="57.3685400" lon="-2.0626250">
        <name>Balmoral Avenue</name>
      </trkpt>
      <trkpt lat="57.3685000" lon="-2.0626300">
        <name>Balmoral Avenue</name>
      </trkpt>
      <trkpt lat="57.3684880" lon="-2.0626310">
        <name>Balmoral Avenue</name>
      </trkpt>
      <trkpt lat="57.3684460" lon="-2.0626270">
        <name>Balmoral Avenue</name>
      </trkpt>
      <trkpt lat="57.3683855" lon="-2.0626105">
        <name>Balmoral Avenue</name>
      </trkpt>
      <trkpt lat="57.3683250" lon="-2.0625940">
        <name>Balmoral Avenue</name>
      </trkpt>
      <trkpt lat="57.3682730" lon="-2.0625880">
        <name>Balmoral Avenue</name>
      </trkpt>
      <trkpt lat="57.3682090" lon="-2.0626200">
        <name>Balmoral Avenue</name>
      </trkpt>
      <trkpt lat="57.3681620" lon="-2.0626820">
        <name>Balmoral Avenue</name>
      </trkpt>
      <trkpt lat="57.3681410" lon="-2.0627270">
        <name>Balmoral Avenue</name>
      </trkpt>
      <trkpt lat="57.3681230" lon="-2.0627760">
        <name>Balmoral Avenue</name>
      </trkpt>
      <trkpt lat="57.3681050" lon="-2.0628590">
        <name>Balmoral Avenue</name>
      </trkpt>
      <trkpt lat="57.3680910" lon="-2.0629520">
        <name>Balmoral Avenue</name>
      </trkpt>
      <trkpt lat="57.3680830" lon="-2.0630540">
        <name>Balmoral Avenue</name>
      </trkpt>
      <trkpt lat="57.3680750" lon="-2.0631560">
        <name>Balmoral Avenue</name>
      </trkpt>
      <trkpt lat="57.3680830" lon="-2.0630540">
        <name>Balmoral Avenue</name>
      </trkpt>
      <trkpt lat="57.3680910" lon="-2.0629520">
        <name>Balmoral Avenue</name>
      </trkpt>
      <trkpt lat="57.3681050" lon="-2.0628590">
        <name>Balmoral Avenue</name>
      </trkpt>
      <trkpt lat="57.3681230" lon="-2.0627760">
        <name>Balmoral Avenue</name>
      </trkpt>
      <trkpt lat="57.3681410" lon="-2.0627270">
        <name>Balmoral Avenue</name>
      </trkpt>
      <trkpt lat="57.3681620" lon="-2.0626820">
        <name>Balmoral Avenue</name>
      </trkpt>
      <trkpt lat="57.3682090" lon="-2.0626200">
        <name>Balmoral Avenue</name>
      </trkpt>
      <trkpt lat="57.3682730" lon="-2.0625880">
        <name>Balmoral Avenue</name>
      </trkpt>
      <trkpt lat="57.3683250" lon="-2.0625940">
        <name>Balmoral Avenue</name>
      </trkpt>
      <trkpt lat="57.3683855" lon="-2.0626105">
        <name>Balmoral Avenue</name>
      </trkpt>
      <trkpt lat="57.3684460" lon="-2.0626270">
        <name>Balmoral Avenue</name>
      </trkpt>
      <trkpt lat="57.3684880" lon="-2.0626310">
        <name>Balmoral Avenue</name>
      </trkpt>
      <trkpt lat="57.3685400" lon="-2.0626250">
        <name>Balmoral Avenue</name>
      </trkpt>
      <trkpt lat="57.3685420" lon="-2.0627837">
        <name>Balmoral Avenue</name>
      </trkpt>
      <trkpt lat="57.3685440" lon="-2.0629423">
        <name>Balmoral Avenue</name>
      </trkpt>
      <trkpt lat="57.3685460" lon="-2.0631010">
        <name>Balmoral Avenue</name>
      </trkpt>
      <trkpt lat="57.3685460" lon="-2.0631380">
        <name>Balmoral Avenue</name>
      </trkpt>
      <trkpt lat="57.3685494" lon="-2.0632904">
        <name>Balmoral Avenue</name>
      </trkpt>
      <trkpt lat="57.3685529" lon="-2.0634429">
        <name>Balmoral Avenue</name>
      </trkpt>
      <trkpt lat="57.3685563" lon="-2.0635953">
        <name>Balmoral Avenue</name>
      </trkpt>
      <trkpt lat="57.3685597" lon="-2.0637477">
        <name>Balmoral Avenue</name>
      </trkpt>
      <trkpt lat="57.3685631" lon="-2.0639001">
        <name>Balmoral Avenue</name>
      </trkpt>
      <trkpt lat="57.3685666" lon="-2.0640526">
        <name>Balmoral Avenue</name>
      </trkpt>
      <trkpt lat="57.3685700" lon="-2.0642050">
        <name>Balmoral Avenue</name>
      </trkpt>
      <trkpt lat="57.3685725" lon="-2.0643220">
        <name>Balmoral Avenue</name>
      </trkpt>
      <trkpt lat="57.3685750" lon="-2.0644390">
        <name>Balmoral Avenue</name>
      </trkpt>
      <trkpt lat="57.3685780" lon="-2.0645940">
        <name>Balmoral Avenue</name>
      </trkpt>
      <trkpt lat="57.3685270" lon="-2.0645900">
        <name>Balmoral Avenue</name>
      </trkpt>
      <trkpt lat="57.3684543" lon="-2.0645747">
        <name>Balmoral Avenue</name>
      </trkpt>
      <trkpt lat="57.3683817" lon="-2.0645593">
        <name>Balmoral Avenue</name>
      </trkpt>
      <trkpt lat="57.3683090" lon="-2.0645440">
        <name>Balmoral Avenue</name>
      </trkpt>
      <trkpt lat="57.3682460" lon="-2.0645205">
        <name>Balmoral Avenue</name>
      </trkpt>
      <trkpt lat="57.3681830" lon="-2.0644970">
        <name>Balmoral Avenue</name>
      </trkpt>
      <trkpt lat="57.3681290" lon="-2.0644640">
        <name>Craigston Avenue</name>
      </trkpt>
      <trkpt lat="57.3680750" lon="-2.0643630">
        <name>Craigston Avenue</name>
      </trkpt>
      <trkpt lat="57.3681290" lon="-2.0644640">
        <name>Craigston Avenue</name>
      </trkpt>
      <trkpt lat="57.3681830" lon="-2.0644970">
        <name>Craigston Avenue</name>
      </trkpt>
      <trkpt lat="57.3682460" lon="-2.0645205">
        <name>Craigston Avenue</name>
      </trkpt>
      <trkpt lat="57.3683090" lon="-2.0645440">
        <name>Craigston Avenue</name>
      </trkpt>
      <trkpt lat="57.3683817" lon="-2.0645593">
        <name>Craigston Avenue</name>
      </trkpt>
      <trkpt lat="57.3684543" lon="-2.0645747">
        <name>Craigston Avenue</name>
      </trkpt>
      <trkpt lat="57.3685270" lon="-2.0645900">
        <name>Craigston Avenue</name>
      </trkpt>
      <trkpt lat="57.3685780" lon="-2.0645940">
        <name>Craigston Avenue</name>
      </trkpt>
      <trkpt lat="57.3685800" lon="-2.0647492">
        <name>Craigston Avenue</name>
      </trkpt>
      <trkpt lat="57.3685820" lon="-2.0649044">
        <name>Craigston Avenue</name>
      </trkpt>
      <trkpt lat="57.3685840" lon="-2.0650596">
        <name>Craigston Avenue</name>
      </trkpt>
      <trkpt lat="57.3685860" lon="-2.0652148">
        <name>Craigston Avenue</name>
      </trkpt>
      <trkpt lat="57.3685880" lon="-2.0653700">
        <name>Craigston Avenue</name>
      </trkpt>
      <trkpt lat="57.3685860" lon="-2.0653950">
        <name>Craigston Avenue</name>
      </trkpt>
      <trkpt lat="57.3685880" lon="-2.0653700">
        <name>Craigston Avenue</name>
      </trkpt>
      <trkpt lat="57.3685860" lon="-2.0652148">
        <name>Craigston Avenue</name>
      </trkpt>
      <trkpt lat="57.3685840" lon="-2.0650596">
        <name>Craigston Avenue</name>
      </trkpt>
      <trkpt lat="57.3685820" lon="-2.0649044">
        <name>Craigston Avenue</name>
      </trkpt>
      <trkpt lat="57.3685800" lon="-2.0647492">
        <name>Craigston Avenue</name>
      </trkpt>
      <trkpt lat="57.3685780" lon="-2.0645940">
        <name>Craigston Avenue</name>
      </trkpt>
      <trkpt lat="57.3685750" lon="-2.0644390">
        <name>Craigston Avenue</name>
      </trkpt>
      <trkpt lat="57.3685720" lon="-2.0643000">
        <name>Craigston Avenue</name>
      </trkpt>
      <trkpt lat="57.3685690" lon="-2.0641610">
        <name>Craigston Avenue</name>
      </trkpt>
      <trkpt lat="57.3685660" lon="-2.0640220">
        <name>Craigston Avenue</name>
      </trkpt>
      <trkpt lat="57.3685630" lon="-2.0638830">
        <name>Craigston Avenue</name>
      </trkpt>
      <trkpt lat="57.3685600" lon="-2.0637440">
        <name>Craigston Avenue</name>
      </trkpt>
      <trkpt lat="57.3685565" lon="-2.0635925">
        <name>Craigston Avenue</name>
      </trkpt>
      <trkpt lat="57.3685530" lon="-2.0634410">
        <name>Craigston Avenue</name>
      </trkpt>
      <trkpt lat="57.3685495" lon="-2.0632895">
        <name>Craigston Avenue</name>
      </trkpt>
      <trkpt lat="57.3685460" lon="-2.0631380">
        <name>Craigston Avenue</name>
      </trkpt>
      <trkpt lat="57.3686170" lon="-2.0631370">
        <name>Craigston Avenue</name>
      </trkpt>
      <trkpt lat="57.3686640" lon="-2.0631440">
        <name>Craigston Avenue</name>
      </trkpt>
      <trkpt lat="57.3687110" lon="-2.0631670">
        <name>Craigston Avenue</name>
      </trkpt>
      <trkpt lat="57.3687800" lon="-2.0632150">
        <name>Craigston Avenue</name>
      </trkpt>
      <trkpt lat="57.3688590" lon="-2.0632690">
        <name>Craigston Avenue</name>
      </trkpt>
      <trkpt lat="57.3689230" lon="-2.0632770">
        <name>Craigston Avenue</name>
      </trkpt>
      <trkpt lat="57.3689670" lon="-2.0632950">
        <name>Craigston Avenue</name>
      </trkpt>
      <trkpt lat="57.3690540" lon="-2.0632580">
        <name>Craigston Avenue</name>
      </trkpt>
      <trkpt lat="57.3691020" lon="-2.0632600">
        <name>Craigston Avenue</name>
      </trkpt>
      <trkpt lat="57.3690540" lon="-2.0632580">
        <name>Craigston Avenue</name>
      </trkpt>
      <trkpt lat="57.3689670" lon="-2.0632950">
        <name>Craigston Avenue</name>
      </trkpt>
      <trkpt lat="57.3689810" lon="-2.0634250">
        <name>Craigston Avenue</name>
      </trkpt>
      <trkpt lat="57.3689920" lon="-2.0635560">
        <name>Craigston Avenue</name>
      </trkpt>
      <trkpt lat="57.3689930" lon="-2.0635730">
        <name>Craigston Avenue</name>
      </trkpt>
      <trkpt lat="57.3689950" lon="-2.0636370">
        <name>Craigston Avenue</name>
      </trkpt>
      <trkpt lat="57.3689870" lon="-2.0637707">
        <name>Craigston Avenue</name>
      </trkpt>
      <trkpt lat="57.3689790" lon="-2.0639045">
        <name>Craigston Avenue</name>
      </trkpt>
      <trkpt lat="57.3689710" lon="-2.0640383">
        <name>Craigston Avenue</name>
      </trkpt>
      <trkpt lat="57.3689630" lon="-2.0641720">
        <name>Craigston Avenue</name>
      </trkpt>
      <trkpt lat="57.3689570" lon="-2.0642570">
        <name>Craigston Avenue</name>
      </trkpt>
      <trkpt lat="57.3689460" lon="-2.0643995">
        <name>Craigston Avenue</name>
      </trkpt>
      <trkpt lat="57.3689350" lon="-2.0645420">
        <name>Craigston Avenue</name>
      </trkpt>
      <trkpt lat="57.3689300" lon="-2.0646900">
        <name>Craigston Avenue</name>
      </trkpt>
      <trkpt lat="57.3689370" lon="-2.0647330">
        <name>Craigston Avenue</name>
      </trkpt>
      <trkpt lat="57.3689490" lon="-2.0647730">
        <name>Craigston Avenue</name>
      </trkpt>
      <trkpt lat="57.3689800" lon="-2.0648190">
        <name>Craigston Avenue</name>
      </trkpt>
      <trkpt lat="57.3690350" lon="-2.0648510">
        <name>Craigston Avenue</name>
      </trkpt>
      <trkpt lat="57.3689800" lon="-2.0648190">
        <name>Craigston Avenue</name>
      </trkpt>
      <trkpt lat="57.3689490" lon="-2.0647730">
        <name>Craigston Avenue</name>
      </trkpt>
      <trkpt lat="57.3689370" lon="-2.0647330">
        <name>Craigston Avenue</name>
      </trkpt>
      <trkpt lat="57.3689300" lon="-2.0646900">
        <name>Craigston Avenue</name>
      </trkpt>
      <trkpt lat="57.3689350" lon="-2.0645420">
        <name>Craigston Avenue</name>
      </trkpt>
      <trkpt lat="57.3689443" lon="-2.0644187">
        <name>Craigston Avenue</name>
      </trkpt>
      <trkpt lat="57.3689537" lon="-2.0642953">
        <name>Craigston Avenue</name>
      </trkpt>
      <trkpt lat="57.3689630" lon="-2.0641720">
        <name>Craigston Avenue</name>
      </trkpt>
      <trkpt lat="57.3689680" lon="-2.0640900">
        <name>Craigston Avenue</name>
      </trkpt>
      <trkpt lat="57.3689770" lon="-2.0639390">
        <name>Craigston Avenue</name>
      </trkpt>
      <trkpt lat="57.3689860" lon="-2.0637880">
        <name>Craigston Avenue</name>
      </trkpt>
      <trkpt lat="57.3689950" lon="-2.0636370">
        <name>Craigston Avenue</name>
      </trkpt>
      <trkpt lat="57.3689920" lon="-2.0635560">
        <name>Craigston Avenue</name>
      </trkpt>
      <trkpt lat="57.3689810" lon="-2.0634250">
        <name>Craigston Avenue</name>
      </trkpt>
      <trkpt lat="57.3689670" lon="-2.0632950">
        <name>Craigston Avenue</name>
      </trkpt>
      <trkpt lat="57.3689230" lon="-2.0632770">
        <name>Craigston Avenue</name>
      </trkpt>
      <trkpt lat="57.3689060" lon="-2.0632750">
        <name>Craigston Avenue</name>
      </trkpt>
      <trkpt lat="57.3688590" lon="-2.0632690">
        <name>Craigston Avenue</name>
      </trkpt>
      <trkpt lat="57.3687850" lon="-2.0632180">
        <name>Craigston Avenue</name>
      </trkpt>
      <trkpt lat="57.3687110" lon="-2.0631670">
        <name>Craigston Avenue</name>
      </trkpt>
      <trkpt lat="57.3686640" lon="-2.0631440">
        <name>Craigston Avenue</name>
      </trkpt>
      <trkpt lat="57.3686390" lon="-2.0631400">
        <name>Craigston Avenue</name>
      </trkpt>
      <trkpt lat="57.3686170" lon="-2.0631370">
        <name>Craigston Avenue</name>
      </trkpt>
      <trkpt lat="57.3685460" lon="-2.0631380">
        <name>Craigston Avenue</name>
      </trkpt>
      <trkpt lat="57.3685445" lon="-2.0630015">
        <name>Craigston Avenue</name>
      </trkpt>
      <trkpt lat="57.3685430" lon="-2.0628650">
        <name>Craigston Avenue</name>
      </trkpt>
      <trkpt lat="57.3685415" lon="-2.0627450">
        <name>Craigston Avenue</name>
      </trkpt>
      <trkpt lat="57.3685400" lon="-2.0626250">
        <name>Craigston Avenue</name>
      </trkpt>
      <trkpt lat="57.3685370" lon="-2.0624980">
        <name>Craigston Avenue</name>
      </trkpt>
      <trkpt lat="57.3685340" lon="-2.0623710">
        <name>Craigston Avenue</name>
      </trkpt>
      <trkpt lat="57.3685315" lon="-2.0622775">
        <name>Craigston Avenue</name>
      </trkpt>
      <trkpt lat="57.3685290" lon="-2.0621840">
        <name>Craigston Avenue</name>
      </trkpt>
      <trkpt lat="57.3685265" lon="-2.0620930">
        <name>Craigston Avenue</name>
      </trkpt>
      <trkpt lat="57.3685240" lon="-2.0620020">
        <name>Craigston Avenue</name>
      </trkpt>
      <trkpt lat="57.3685820" lon="-2.0619620">
        <name>Craigston Avenue</name>
      </trkpt>
      <trkpt lat="57.3686510" lon="-2.0619020">
        <name>Craigston Avenue</name>
      </trkpt>
      <trkpt lat="57.3687040" lon="-2.0617920">
        <name>Craigston Avenue</name>
      </trkpt>
      <trkpt lat="57.3687240" lon="-2.0617270">
        <name>Craigston Avenue</name>
      </trkpt>
      <trkpt lat="57.3687480" lon="-2.0616450">
        <name>Craigston Avenue</name>
      </trkpt>
      <trkpt lat="57.3687610" lon="-2.0614800">
        <name>Craigston Avenue</name>
      </trkpt>
      <trkpt lat="57.3688470" lon="-2.0614980">
        <name>Craigston Avenue</name>
      </trkpt>
      <trkpt lat="57.3688940" lon="-2.0615100">
        <name>Craigston Avenue</name>
      </trkpt>
      <trkpt lat="57.3689405" lon="-2.0615090">
        <name>Craigston Avenue</name>
      </trkpt>
      <trkpt lat="57.3689870" lon="-2.0615080">
        <name>Craigston Avenue</name>
      </trkpt>
      <trkpt lat="57.3690680" lon="-2.0614560">
        <name>Craigston Avenue</name>
      </trkpt>
      <trkpt lat="57.3691510" lon="-2.0613920">
        <name>Craigston Avenue</name>
      </trkpt>
      <trkpt lat="57.3692250" lon="-2.0613550">
        <name>Craigston Avenue</name>
      </trkpt>
      <trkpt lat="57.3692410" lon="-2.0613470">
        <name>Balmoral Avenue</name>
      </trkpt>
      <trkpt lat="57.3692455" lon="-2.0614725">
        <name>Balmoral Avenue</name>
      </trkpt>
      <trkpt lat="57.3692500" lon="-2.0615980">
        <name>Balmoral Avenue</name>
      </trkpt>
      <trkpt lat="57.3692420" lon="-2.0617045">
        <name>Balmoral Avenue</name>
      </trkpt>
      <trkpt lat="57.3692340" lon="-2.0618110">
        <name>Balmoral Avenue</name>
      </trkpt>
      <trkpt lat="57.3692280" lon="-2.0619105">
        <name>Balmoral Avenue</name>
      </trkpt>
      <trkpt lat="57.3692220" lon="-2.0620100">
        <name>Balmoral Avenue</name>
      </trkpt>
      <trkpt lat="57.3692010" lon="-2.0620680">
        <name>Balmoral Avenue</name>
      </trkpt>
      <trkpt lat="57.3691760" lon="-2.0621230">
        <name>Balmoral Avenue</name>
      </trkpt>
      <trkpt lat="57.3691530" lon="-2.0621600">
        <name>Balmoral Avenue</name>
      </trkpt>
      <trkpt lat="57.3691240" lon="-2.0621930">
        <name>Kildrummy Road</name>
      </trkpt>
      <trkpt lat="57.3690470" lon="-2.0622340">
        <name>Kildrummy Road</name>
      </trkpt>
      <trkpt lat="57.3689660" lon="-2.0622200">
        <name>Kildrummy Road</name>
      </trkpt>
      <trkpt lat="57.3689340" lon="-2.0622120">
        <name>Kildrummy Road</name>
      </trkpt>
      <trkpt lat="57.3688750" lon="-2.0621960">
        <name>Kildrummy Road</name>
      </trkpt>
      <trkpt lat="57.3689340" lon="-2.0622120">
        <name>Kildrummy Road</name>
      </trkpt>
      <trkpt lat="57.3689660" lon="-2.0622200">
        <name>Kildrummy Road</name>
      </trkpt>
      <trkpt lat="57.3690470" lon="-2.0622340">
        <name>Kildrummy Road</name>
      </trkpt>
      <trkpt lat="57.3691240" lon="-2.0621930">
        <name>Kildrummy Road</name>
      </trkpt>
      <trkpt lat="57.3691530" lon="-2.0621600">
        <name>Kildrummy Road</name>
      </trkpt>
      <trkpt lat="57.3691760" lon="-2.0621230">
        <name>Kildrummy Road</name>
      </trkpt>
      <trkpt lat="57.3692010" lon="-2.0620680">
        <name>Kildrummy Road</name>
      </trkpt>
      <trkpt lat="57.3692220" lon="-2.0620100">
        <name>Kildrummy Road</name>
      </trkpt>
      <trkpt lat="57.3692280" lon="-2.0619105">
        <name>Kildrummy Road</name>
      </trkpt>
      <trkpt lat="57.3692340" lon="-2.0618110">
        <name>Kildrummy Road</name>
      </trkpt>
      <trkpt lat="57.3692420" lon="-2.0617045">
        <name>Kildrummy Road</name>
      </trkpt>
      <trkpt lat="57.3692500" lon="-2.0615980">
        <name>Kildrummy Road</name>
      </trkpt>
      <trkpt lat="57.3692455" lon="-2.0614725">
        <name>Kildrummy Road</name>
      </trkpt>
      <trkpt lat="57.3692410" lon="-2.0613470">
        <name>Kildrummy Road</name>
      </trkpt>
      <trkpt lat="57.3692850" lon="-2.0613510">
        <name>Kildrummy Road</name>
      </trkpt>
      <trkpt lat="57.3693210" lon="-2.0613590">
        <name>Kildrummy Road</name>
      </trkpt>
      <trkpt lat="57.3693560" lon="-2.0613660">
        <name>Kildrummy Road</name>
      </trkpt>
      <trkpt lat="57.3694210" lon="-2.0613780">
        <name>Kildrummy Road</name>
      </trkpt>
      <trkpt lat="57.3694715" lon="-2.0613930">
        <name>Kildrummy Road</name>
      </trkpt>
      <trkpt lat="57.3695220" lon="-2.0614080">
        <name>Kildrummy Road</name>
      </trkpt>
      <trkpt lat="57.3695420" lon="-2.0614140">
        <name>Kildrummy Road</name>
      </trkpt>
      <trkpt lat="57.3696040" lon="-2.0614300">
        <name>Kildrummy Road</name>
      </trkpt>
      <trkpt lat="57.3696545" lon="-2.0614360">
        <name>Kildrummy Road</name>
      </trkpt>
      <trkpt lat="57.3697050" lon="-2.0614420">
        <name>Kildrummy Road</name>
      </trkpt>
      <trkpt lat="57.3697470" lon="-2.0614380">
        <name>Kildrummy Road</name>
      </trkpt>
      <trkpt lat="57.3697940" lon="-2.0614160">
        <name>Kildrummy Road</name>
      </trkpt>
      <trkpt lat="57.3698260" lon="-2.0615600">
        <name>Balmoral Avenue</name>
      </trkpt>
      <trkpt lat="57.3698485" lon="-2.0616400">
        <name>Balmoral Avenue</name>
      </trkpt>
      <trkpt lat="57.3698710" lon="-2.0617200">
        <name>Balmoral Avenue</name>
      </trkpt>
      <trkpt lat="57.3698890" lon="-2.0618050">
        <name>Balmoral Avenue</name>
      </trkpt>
      <trkpt lat="57.3699070" lon="-2.0618900">
        <name>Balmoral Avenue</name>
      </trkpt>
      <trkpt lat="57.3699080" lon="-2.0619420">
        <name>Balmoral Avenue</name>
      </trkpt>
      <trkpt lat="57.3699090" lon="-2.0620000">
        <name>Balmoral Avenue</name>
      </trkpt>
      <trkpt lat="57.3699050" lon="-2.0621160">
        <name>Balmoral Avenue</name>
      </trkpt>
      <trkpt lat="57.3698970" lon="-2.0622285">
        <name>Balmoral Avenue</name>
      </trkpt>
      <trkpt lat="57.3698890" lon="-2.0623410">
        <name>Balmoral Avenue</name>
      </trkpt>
      <trkpt lat="57.3698760" lon="-2.0624240">
        <name>Balmoral Avenue</name>
      </trkpt>
      <trkpt lat="57.3698580" lon="-2.0624970">
        <name>Balmoral Avenue</name>
      </trkpt>
      <trkpt lat="57.3698310" lon="-2.0625440">
        <name>Balmoral Avenue</name>
      </trkpt>
      <trkpt lat="57.3698030" lon="-2.0625810">
        <name>Balmoral Avenue</name>
      </trkpt>
      <trkpt lat="57.3697750" lon="-2.0626050">
        <name>Balmoral Avenue</name>
      </trkpt>
      <trkpt lat="57.3697460" lon="-2.0626190">
        <name>Balmoral Avenue</name>
      </trkpt>
      <trkpt lat="57.3696740" lon="-2.0626390">
        <name>Balmoral Avenue</name>
      </trkpt>
      <trkpt lat="57.3696090" lon="-2.0626930">
        <name>Balmoral Avenue</name>
      </trkpt>
      <trkpt lat="57.3695870" lon="-2.0626390">
        <name>Balmoral Avenue</name>
      </trkpt>
      <trkpt lat="57.3696090" lon="-2.0626930">
        <name>Balmoral Avenue</name>
      </trkpt>
      <trkpt lat="57.3695660" lon="-2.0627770">
        <name>Balmoral Avenue</name>
      </trkpt>
      <trkpt lat="57.3695430" lon="-2.0628560">
        <name>Arnage Avenue</name>
      </trkpt>
      <trkpt lat="57.3695315" lon="-2.0629785">
        <name>Arnage Avenue</name>
      </trkpt>
      <trkpt lat="57.3695200" lon="-2.0631010">
        <name>Arnage Avenue</name>
      </trkpt>
      <trkpt lat="57.3695170" lon="-2.0632590">
        <name>Arnage Avenue</name>
      </trkpt>
      <trkpt lat="57.3695180" lon="-2.0634180">
        <name>Drum Wynd</name>
      </trkpt>
      <trkpt lat="57.3695260" lon="-2.0635740">
        <name>Drum Wynd</name>
      </trkpt>
      <trkpt lat="57.3695220" lon="-2.0637040">
        <name>Drum Wynd</name>
      </trkpt>
      <trkpt lat="57.3695540" lon="-2.0637090">
        <name>Drum Wynd</name>
      </trkpt>
      <trkpt lat="57.3696355" lon="-2.0637280">
        <name>Drum Wynd</name>
      </trkpt>
      <trkpt lat="57.3697170" lon="-2.0637470">
        <name>Drum Wynd</name>
      </trkpt>
      <trkpt lat="57.3697670" lon="-2.0637580">
        <name>Drum Wynd</name>
      </trkpt>
      <trkpt lat="57.3698130" lon="-2.0637520">
        <name>Drum Wynd</name>
      </trkpt>
      <trkpt lat="57.3698510" lon="-2.0637400">
        <name>Drum Wynd</name>
      </trkpt>
      <trkpt lat="57.3698880" lon="-2.0637090">
        <name>Drum Wynd</name>
      </trkpt>
      <trkpt lat="57.3699200" lon="-2.0636450">
        <name>Drum Wynd</name>
      </trkpt>
      <trkpt lat="57.3699360" lon="-2.0635940">
        <name>Drum Wynd</name>
      </trkpt>
      <trkpt lat="57.3699460" lon="-2.0635420">
        <name>Drum Wynd</name>
      </trkpt>
      <trkpt lat="57.3699560" lon="-2.0633780">
        <name>Drum Wynd</name>
      </trkpt>
      <trkpt lat="57.3699660" lon="-2.0632140">
        <name>Drum Wynd</name>
      </trkpt>
      <trkpt lat="57.3699560" lon="-2.0633780">
        <name>Drum Wynd</name>
      </trkpt>
      <trkpt lat="57.3699460" lon="-2.0635420">
        <name>Drum Wynd</name>
      </trkpt>
      <trkpt lat="57.3699360" lon="-2.0635940">
        <name>Drum Wynd</name>
      </trkpt>
      <trkpt lat="57.3699200" lon="-2.0636450">
        <name>Drum Wynd</name>
      </trkpt>
      <trkpt lat="57.3698880" lon="-2.0637090">
        <name>Drum Wynd</name>
      </trkpt>
      <trkpt lat="57.3698510" lon="-2.0637400">
        <name>Drum Wynd</name>
      </trkpt>
      <trkpt lat="57.3698130" lon="-2.0637520">
        <name>Drum Wynd</name>
      </trkpt>
      <trkpt lat="57.3697670" lon="-2.0637580">
        <name>Drum Wynd</name>
      </trkpt>
      <trkpt lat="57.3696815" lon="-2.0637385">
        <name>Drum Wynd</name>
      </trkpt>
      <trkpt lat="57.3695960" lon="-2.0637190">
        <name>Drum Wynd</name>
      </trkpt>
      <trkpt lat="57.3695540" lon="-2.0637090">
        <name>Drum Wynd</name>
      </trkpt>
      <trkpt lat="57.3695220" lon="-2.0637040">
        <name>Drum Wynd</name>
      </trkpt>
      <trkpt lat="57.3695150" lon="-2.0637760">
        <name>Drum Wynd</name>
      </trkpt>
      <trkpt lat="57.3694780" lon="-2.0639130">
        <name>Drum Wynd</name>
      </trkpt>
      <trkpt lat="57.3694380" lon="-2.0640160">
        <name>Drum Wynd</name>
      </trkpt>
      <trkpt lat="57.3693820" lon="-2.0641150">
        <name>Drum Wynd</name>
      </trkpt>
      <trkpt lat="57.3694380" lon="-2.0640160">
        <name>Drum Wynd</name>
      </trkpt>
      <trkpt lat="57.3694780" lon="-2.0639130">
        <name>Drum Wynd</name>
      </trkpt>
      <trkpt lat="57.3695150" lon="-2.0637760">
        <name>Drum Wynd</name>
      </trkpt>
      <trkpt lat="57.3695220" lon="-2.0637040">
        <name>Arnage Avenue</name>
      </trkpt>
      <trkpt lat="57.3695260" lon="-2.0635740">
        <name>Arnage Avenue</name>
      </trkpt>
      <trkpt lat="57.3695180" lon="-2.0634170">
        <name>Arnage Avenue</name>
      </trkpt>
      <trkpt lat="57.3695170" lon="-2.0632590">
        <name>Arnage Avenue</name>
      </trkpt>
      <trkpt lat="57.3695200" lon="-2.0631010">
        <name>Arnage Avenue</name>
      </trkpt>
      <trkpt lat="57.3695240" lon="-2.0630590">
        <name>Arnage Avenue</name>
      </trkpt>
      <trkpt lat="57.3695335" lon="-2.0629575">
        <name>Arnage Avenue</name>
      </trkpt>
      <trkpt lat="57.3695430" lon="-2.0628560">
        <name>Arnage Avenue</name>
      </trkpt>
      <trkpt lat="57.3695660" lon="-2.0627770">
        <name>Arnage Avenue</name>
      </trkpt>
      <trkpt lat="57.3696090" lon="-2.0626930">
        <name>Arnage Avenue</name>
      </trkpt>
      <trkpt lat="57.3696740" lon="-2.0626390">
        <name>Arnage Avenue</name>
      </trkpt>
      <trkpt lat="57.3697460" lon="-2.0626190">
        <name>Arnage Avenue</name>
      </trkpt>
      <trkpt lat="57.3697750" lon="-2.0626050">
        <name>Arnage Avenue</name>
      </trkpt>
      <trkpt lat="57.3698030" lon="-2.0625810">
        <name>Arnage Avenue</name>
      </trkpt>
      <trkpt lat="57.3698370" lon="-2.0625340">
        <name>Arnage Avenue</name>
      </trkpt>
      <trkpt lat="57.3698580" lon="-2.0624970">
        <name>Arnage Avenue</name>
      </trkpt>
      <trkpt lat="57.3698760" lon="-2.0624240">
        <name>Arnage Avenue</name>
      </trkpt>
      <trkpt lat="57.3698890" lon="-2.0623410">
        <name>Arnage Avenue</name>
      </trkpt>
      <trkpt lat="57.3698970" lon="-2.0622285">
        <name>Arnage Avenue</name>
      </trkpt>
      <trkpt lat="57.3699050" lon="-2.0621160">
        <name>Arnage Avenue</name>
      </trkpt>
      <trkpt lat="57.3699090" lon="-2.0620000">
        <name>Arnage Avenue</name>
      </trkpt>
      <trkpt lat="57.3699070" lon="-2.0618900">
        <name>Arnage Avenue</name>
      </trkpt>
      <trkpt lat="57.3698890" lon="-2.0618050">
        <name>Arnage Avenue</name>
      </trkpt>
      <trkpt lat="57.3698710" lon="-2.0617200">
        <name>Arnage Avenue</name>
      </trkpt>
      <trkpt lat="57.3698510" lon="-2.0616470">
        <name>Arnage Avenue</name>
      </trkpt>
      <trkpt lat="57.3698260" lon="-2.0615600">
        <name>Arnage Avenue</name>
      </trkpt>
      <trkpt lat="57.3697940" lon="-2.0614160">
        <name>Arnage Avenue</name>
      </trkpt>
      <trkpt lat="57.3698470" lon="-2.0613600">
        <name>Arnage Avenue</name>
      </trkpt>
      <trkpt lat="57.3698940" lon="-2.0612780">
        <name>Arnage Avenue</name>
      </trkpt>
      <trkpt lat="57.3699300" lon="-2.0611710">
        <name>Arnage Avenue</name>
      </trkpt>
      <trkpt lat="57.3699490" lon="-2.0610620">
        <name>Arnage Avenue</name>
      </trkpt>
      <trkpt lat="57.3699520" lon="-2.0610250">
        <name>Arnage Avenue</name>
      </trkpt>
      <trkpt lat="57.3699600" lon="-2.0609290">
        <name>Arnage Avenue</name>
      </trkpt>
      <trkpt lat="57.3699680" lon="-2.0608330">
        <name>Arnage Avenue</name>
      </trkpt>
      <trkpt lat="57.3699735" lon="-2.0607485">
      </trkpt>
      <trkpt lat="57.3699790" lon="-2.0606640">
      </trkpt>
      <trkpt lat="57.3699860" lon="-2.0605180">
      </trkpt>
      <trkpt lat="57.3699780" lon="-2.0604230">
      </trkpt>
      <trkpt lat="57.3699620" lon="-2.0603310">
      </trkpt>
      <trkpt lat="57.3699500" lon="-2.0602950">
      </trkpt>
      <trkpt lat="57.3699270" lon="-2.0602270">
      </trkpt>
      <trkpt lat="57.3698790" lon="-2.0601190">
        <name>Arnage Avenue</name>
      </trkpt>
      <trkpt lat="57.3699255" lon="-2.0600360">
        <name>Arnage Avenue</name>
      </trkpt>
      <trkpt lat="57.3699720" lon="-2.0599530">
        <name>Arnage Avenue</name>
      </trkpt>
      <trkpt lat="57.3699940" lon="-2.0598940">
        <name>Arnage Avenue</name>
      </trkpt>
      <trkpt lat="57.3700040" lon="-2.0598330">
        <name>Arnage Avenue</name>
      </trkpt>
      <trkpt lat="57.3700060" lon="-2.0597310">
        <name>Craigievar Crescent</name>
      </trkpt>
      <trkpt lat="57.3699970" lon="-2.0596520">
        <name>Craigievar Crescent</name>
      </trkpt>
      <trkpt lat="57.3699750" lon="-2.0595780">
        <name>Craigievar Crescent</name>
      </trkpt>
      <trkpt lat="57.3699333" lon="-2.0594770">
        <name>Craigievar Crescent</name>
      </trkpt>
      <trkpt lat="57.3698917" lon="-2.0593760">
        <name>Craigievar Crescent</name>
      </trkpt>
      <trkpt lat="57.3698500" lon="-2.0592750">
        <name>Craigievar Crescent</name>
      </trkpt>
      <trkpt lat="57.3698330" lon="-2.0593000">
        <name>Craigievar Crescent</name>
      </trkpt>
      <trkpt lat="57.3697755" lon="-2.0593840">
        <name>Craigievar Crescent</name>
      </trkpt>
      <trkpt lat="57.3697180" lon="-2.0594680">
        <name>Craigievar Crescent</name>
      </trkpt>
      <trkpt lat="57.3697840" lon="-2.0593715">
        <name>Craigievar Crescent</name>
      </trkpt>
      <trkpt lat="57.3698500" lon="-2.0592750">
        <name>Craigievar Crescent</name>
      </trkpt>
      <trkpt lat="57.3698920" lon="-2.0593770">
        <name>Craigievar Crescent</name>
      </trkpt>
      <trkpt lat="57.3699340" lon="-2.0594790">
        <name>Craigievar Crescent</name>
      </trkpt>
      <trkpt lat="57.3699760" lon="-2.0595810">
        <name>Craigievar Crescent</name>
      </trkpt>
      <trkpt lat="57.3699970" lon="-2.0596520">
        <name>Craigievar Crescent</name>
      </trkpt>
      <trkpt lat="57.3700060" lon="-2.0597310">
        <name>Craigievar Crescent</name>
      </trkpt>
      <trkpt lat="57.3700040" lon="-2.0598330">
        <name>Craigievar Crescent</name>
      </trkpt>
      <trkpt lat="57.3699940" lon="-2.0598940">
        <name>Craigievar Crescent</name>
      </trkpt>
      <trkpt lat="57.3699720" lon="-2.0599530">
        <name>Craigievar Crescent</name>
      </trkpt>
      <trkpt lat="57.3699255" lon="-2.0600360">
        <name>Craigievar Crescent</name>
      </trkpt>
      <trkpt lat="57.3698790" lon="-2.0601190">
        <name>Craigievar Crescent</name>
      </trkpt>
      <trkpt lat="57.3698213" lon="-2.0601980">
        <name>Craigievar Crescent</name>
      </trkpt>
      <trkpt lat="57.3697635" lon="-2.0602770">
        <name>Craigievar Crescent</name>
      </trkpt>
      <trkpt lat="57.3697057" lon="-2.0603560">
        <name>Craigievar Crescent</name>
      </trkpt>
      <trkpt lat="57.3696480" lon="-2.0604350">
        <name>Craigievar Crescent</name>
      </trkpt>
      <trkpt lat="57.3696390" lon="-2.0604140">
        <name>Craigievar Crescent</name>
      </trkpt>
      <trkpt lat="57.3696480" lon="-2.0604350">
        <name>Craigievar Crescent</name>
      </trkpt>
      <trkpt lat="57.3697057" lon="-2.0603560">
        <name>Craigievar Crescent</name>
      </trkpt>
      <trkpt lat="57.3697635" lon="-2.0602770">
        <name>Craigievar Crescent</name>
      </trkpt>
      <trkpt lat="57.3698213" lon="-2.0601980">
        <name>Craigievar Crescent</name>
      </trkpt>
      <trkpt lat="57.3698790" lon="-2.0601190">
        <name>Craigievar Crescent</name>
      </trkpt>
      <trkpt lat="57.3699270" lon="-2.0602270">
        <name>Craigievar Crescent</name>
      </trkpt>
      <trkpt lat="57.3699620" lon="-2.0603310">
        <name>Craigievar Crescent</name>
      </trkpt>
      <trkpt lat="57.3699780" lon="-2.0604230">
        <name>Craigievar Crescent</name>
      </trkpt>
      <trkpt lat="57.3699860" lon="-2.0605180">
        <name>Craigievar Crescent</name>
      </trkpt>
      <trkpt lat="57.3699790" lon="-2.0606640">
        <name>Craigievar Crescent</name>
      </trkpt>
      <trkpt lat="57.3699700" lon="-2.0608070">
        <name>Craigievar Crescent</name>
      </trkpt>
      <trkpt lat="57.3699680" lon="-2.0608330">
        <name>Craigievar Crescent</name>
      </trkpt>
      <trkpt lat="57.3699585" lon="-2.0609475">
        <name>Craigievar Crescent</name>
      </trkpt>
      <trkpt lat="57.3699490" lon="-2.0610620">
        <name>Craigievar Crescent</name>
      </trkpt>
      <trkpt lat="57.3699300" lon="-2.0611710">
        <name>Craigievar Crescent</name>
      </trkpt>
      <trkpt lat="57.3698940" lon="-2.0612780">
        <name>Craigievar Crescent</name>
      </trkpt>
      <trkpt lat="57.3698810" lon="-2.0613020">
        <name>Craigievar Crescent</name>
      </trkpt>
      <trkpt lat="57.3698470" lon="-2.0613600">
        <name>Craigievar Crescent</name>
      </trkpt>
      <trkpt lat="57.3697940" lon="-2.0614160">
        <name>Craigievar Crescent</name>
      </trkpt>
      <trkpt lat="57.3697470" lon="-2.0614380">
        <name>Craigievar Crescent</name>
      </trkpt>
      <trkpt lat="57.3696970" lon="-2.0614430">
        <name>Craigievar Crescent</name>
      </trkpt>
      <trkpt lat="57.3696505" lon="-2.0614365">
        <name>Craigievar Crescent</name>
      </trkpt>
      <trkpt lat="57.3696040" lon="-2.0614300">
        <name>Craigievar Crescent</name>
      </trkpt>
      <trkpt lat="57.3695420" lon="-2.0614140">
        <name>Craigievar Crescent</name>
      </trkpt>
      <trkpt lat="57.3695220" lon="-2.0614080">
        <name>Craigievar Crescent</name>
      </trkpt>
      <trkpt lat="57.3694715" lon="-2.0613930">
        <name>Craigievar Crescent</name>
      </trkpt>
      <trkpt lat="57.3694210" lon="-2.0613780">
        <name>Craigievar Crescent</name>
      </trkpt>
      <trkpt lat="57.3693710" lon="-2.0613685">
        <name>Craigievar Crescent</name>
      </trkpt>
      <trkpt lat="57.3693210" lon="-2.0613590">
        <name>Craigievar Crescent</name>
      </trkpt>
      <trkpt lat="57.3692850" lon="-2.0613510">
        <name>Craigievar Crescent</name>
      </trkpt>
      <trkpt lat="57.3692410" lon="-2.0613470">
        <name>Craigievar Crescent</name>
      </trkpt>
      <trkpt lat="57.3691960" lon="-2.0613695">
        <name>Craigievar Crescent</name>
      </trkpt>
      <trkpt lat="57.3691510" lon="-2.0613920">
        <name>Craigievar Crescent</name>
      </trkpt>
      <trkpt lat="57.3691300" lon="-2.0614080">
        <name>Craigievar Crescent</name>
      </trkpt>
      <trkpt lat="57.3690680" lon="-2.0614560">
        <name>Craigievar Crescent</name>
      </trkpt>
      <trkpt lat="57.3689870" lon="-2.0615080">
        <name>Craigievar Crescent</name>
      </trkpt>
      <trkpt lat="57.3689370" lon="-2.0615090">
        <name>Craigievar Crescent</name>
      </trkpt>
      <trkpt lat="57.3688870" lon="-2.0615100">
        <name>Craigievar Crescent</name>
      </trkpt>
      <trkpt lat="57.3688470" lon="-2.0614980">
        <name>Craigievar Crescent</name>
      </trkpt>
      <trkpt lat="57.3688280" lon="-2.0614940">
        <name>Craigievar Crescent</name>
      </trkpt>
      <trkpt lat="57.3687610" lon="-2.0614800">
        <name>Craigievar Crescent</name>
      </trkpt>
      <trkpt lat="57.3687580" lon="-2.0613630">
        <name>Craigievar Crescent</name>
      </trkpt>
      <trkpt lat="57.3687520" lon="-2.0612480">
        <name>Craigievar Crescent</name>
      </trkpt>
      <trkpt lat="57.3687430" lon="-2.0611135">
        <name>Craigievar Crescent</name>
      </trkpt>
      <trkpt lat="57.3687340" lon="-2.0609790">
        <name>Craigievar Crescent</name>
      </trkpt>
      <trkpt lat="57.3687030" lon="-2.0609930">
        <name>Craigievar Crescent</name>
      </trkpt>
      <trkpt lat="57.3686930" lon="-2.0609970">
        <name>Craigievar Crescent</name>
      </trkpt>
      <trkpt lat="57.3686620" lon="-2.0610040">
        <name>Craigievar Crescent</name>
      </trkpt>
      <trkpt lat="57.3686015" lon="-2.0609905">
        <name>Craigievar Crescent</name>
      </trkpt>
      <trkpt lat="57.3685410" lon="-2.0609770">
        <name>Craigievar Crescent</name>
      </trkpt>
      <trkpt lat="57.3684850" lon="-2.0609730">
        <name>Craigievar Crescent</name>
      </trkpt>
      <trkpt lat="57.3684350" lon="-2.0610030">
        <name>Craigievar Crescent</name>
      </trkpt>
      <trkpt lat="57.3683770" lon="-2.0610630">
        <name>Craigievar Crescent</name>
      </trkpt>
      <trkpt lat="57.3683520" lon="-2.0611090">
        <name>Craigievar Crescent</name>
      </trkpt>
      <trkpt lat="57.3683280" lon="-2.0610750">
        <name>Craigievar Crescent</name>
      </trkpt>
      <trkpt lat="57.3683520" lon="-2.0611090">
        <name>Craigievar Crescent</name>
      </trkpt>
      <trkpt lat="57.3683440" lon="-2.0612120">
        <name>Craigievar Crescent</name>
      </trkpt>
      <trkpt lat="57.3683360" lon="-2.0613150">
        <name>Craigievar Crescent</name>
      </trkpt>
      <trkpt lat="57.3683440" lon="-2.0612120">
        <name>Craigievar Crescent</name>
      </trkpt>
      <trkpt lat="57.3683520" lon="-2.0611090">
        <name>Craigievar Crescent</name>
      </trkpt>
      <trkpt lat="57.3683770" lon="-2.0610630">
        <name>Craigievar Crescent</name>
      </trkpt>
      <trkpt lat="57.3684350" lon="-2.0610030">
        <name>Craigievar Crescent</name>
      </trkpt>
      <trkpt lat="57.3684850" lon="-2.0609730">
        <name>Craigievar Crescent</name>
      </trkpt>
      <trkpt lat="57.3685410" lon="-2.0609770">
        <name>Craigievar Crescent</name>
      </trkpt>
      <trkpt lat="57.3685600" lon="-2.0609810">
        <name>Craigievar Crescent</name>
      </trkpt>
      <trkpt lat="57.3686110" lon="-2.0609925">
        <name>Craigievar Crescent</name>
      </trkpt>
      <trkpt lat="57.3686620" lon="-2.0610040">
        <name>Craigievar Crescent</name>
      </trkpt>
      <trkpt lat="57.3686930" lon="-2.0609970">
        <name>Arnage Avenue</name>
      </trkpt>
      <trkpt lat="57.3687340" lon="-2.0609790">
        <name>Arnage Avenue</name>
      </trkpt>
      <trkpt lat="57.3687290" lon="-2.0608760">
        <name>Arnage Avenue</name>
      </trkpt>
      <trkpt lat="57.3687270" lon="-2.0607710">
        <name>Arnage Avenue</name>
      </trkpt>
      <trkpt lat="57.3687245" lon="-2.0606725">
        <name>Arnage Avenue</name>
      </trkpt>
      <trkpt lat="57.3687220" lon="-2.0605740">
        <name>Arnage Avenue</name>
      </trkpt>
      <trkpt lat="57.3687690" lon="-2.0605890">
        <name>Arnage Avenue</name>
      </trkpt>
      <trkpt lat="57.3688200" lon="-2.0605990">
        <name>Arnage Avenue</name>
      </trkpt>
      <trkpt lat="57.3688590" lon="-2.0606080">
        <name>Arnage Avenue</name>
      </trkpt>
      <trkpt lat="57.3688740" lon="-2.0606110">
        <name>Arnage Avenue</name>
      </trkpt>
      <trkpt lat="57.3689530" lon="-2.0606190">
        <name>Arnage Avenue</name>
      </trkpt>
      <trkpt lat="57.3689860" lon="-2.0606070">
        <name>Arnage Avenue</name>
      </trkpt>
      <trkpt lat="57.3690170" lon="-2.0605820">
        <name>Arnage Avenue</name>
      </trkpt>
      <trkpt lat="57.3690460" lon="-2.0605430">
        <name>Balmoral Avenue</name>
      </trkpt>
      <trkpt lat="57.3690700" lon="-2.0604910">
        <name>Balmoral Avenue</name>
      </trkpt>
      <trkpt lat="57.3690820" lon="-2.0604490">
        <name>Balmoral Avenue</name>
      </trkpt>
      <trkpt lat="57.3690900" lon="-2.0604200">
        <name>Balmoral Avenue</name>
      </trkpt>
      <trkpt lat="57.3691010" lon="-2.0603470">
        <name>Balmoral Avenue</name>
      </trkpt>
      <trkpt lat="57.3691090" lon="-2.0602450">
        <name>Balmoral Avenue</name>
      </trkpt>
      <trkpt lat="57.3690595" lon="-2.0602325">
        <name>Balmoral Avenue</name>
      </trkpt>
      <trkpt lat="57.3690100" lon="-2.0602200">
        <name>Balmoral Avenue</name>
      </trkpt>
      <trkpt lat="57.3690595" lon="-2.0602325">
        <name>Balmoral Avenue</name>
      </trkpt>
      <trkpt lat="57.3691090" lon="-2.0602450">
        <name>Balmoral Avenue</name>
      </trkpt>
      <trkpt lat="57.3691890" lon="-2.0602630">
        <name>Balmoral Avenue</name>
      </trkpt>
      <trkpt lat="57.3691090" lon="-2.0602450">
        <name>Balmoral Avenue</name>
      </trkpt>
      <trkpt lat="57.3691010" lon="-2.0603470">
        <name>Slains Crescent</name>
      </trkpt>
      <trkpt lat="57.3690900" lon="-2.0604200">
        <name>Slains Crescent</name>
      </trkpt>
      <trkpt lat="57.3690700" lon="-2.0604910">
        <name>Slains Crescent</name>
      </trkpt>
      <trkpt lat="57.3690460" lon="-2.0605430">
        <name>Slains Crescent</name>
      </trkpt>
      <trkpt lat="57.3690170" lon="-2.0605820">
        <name>Slains Crescent</name>
      </trkpt>
      <trkpt lat="57.3689860" lon="-2.0606070">
        <name>Slains Crescent</name>
      </trkpt>
      <trkpt lat="57.3689530" lon="-2.0606190">
        <name>Slains Crescent</name>
      </trkpt>
      <trkpt lat="57.3688740" lon="-2.0606110">
        <name>Slains Crescent</name>
      </trkpt>
      <trkpt lat="57.3688200" lon="-2.0605990">
        <name>Slains Crescent</name>
      </trkpt>
      <trkpt lat="57.3687690" lon="-2.0605890">
        <name>Slains Crescent</name>
      </trkpt>
      <trkpt lat="57.3687220" lon="-2.0605740">
        <name>Slains Crescent</name>
      </trkpt>
      <trkpt lat="57.3687270" lon="-2.0604735">
        <name>Slains Crescent</name>
      </trkpt>
      <trkpt lat="57.3687320" lon="-2.0603730">
        <name>Slains Crescent</name>
      </trkpt>
      <trkpt lat="57.3687395" lon="-2.0602510">
        <name>Slains Crescent</name>
      </trkpt>
      <trkpt lat="57.3687470" lon="-2.0601290">
        <name>Slains Crescent</name>
      </trkpt>
      <trkpt lat="57.3687500" lon="-2.0600880">
        <name>Slains Crescent</name>
      </trkpt>
      <trkpt lat="57.3687530" lon="-2.0600530">
        <name>Udny Place</name>
      </trkpt>
      <trkpt lat="57.3687120" lon="-2.0600410">
        <name>Udny Place</name>
      </trkpt>
      <trkpt lat="57.3686420" lon="-2.0600190">
        <name>Udny Place</name>
      </trkpt>
      <trkpt lat="57.3685640" lon="-2.0599720">
        <name>Udny Place</name>
      </trkpt>
      <trkpt lat="57.3685490" lon="-2.0599660">
        <name>Udny Place</name>
      </trkpt>
      <trkpt lat="57.3684780" lon="-2.0599350">
        <name>Udny Place</name>
      </trkpt>
      <trkpt lat="57.3684190" lon="-2.0599220">
        <name>Udny Place</name>
      </trkpt>
      <trkpt lat="57.3683600" lon="-2.0599090">
        <name>Udny Place</name>
      </trkpt>
      <trkpt lat="57.3683330" lon="-2.0599100">
        <name>Udny Place</name>
      </trkpt>
      <trkpt lat="57.3682770" lon="-2.0599120">
        <name>Udny Place</name>
      </trkpt>
      <trkpt lat="57.3682255" lon="-2.0599210">
        <name>Udny Place</name>
      </trkpt>
      <trkpt lat="57.3681740" lon="-2.0599300">
        <name>Udny Place</name>
      </trkpt>
      <trkpt lat="57.3681430" lon="-2.0599370">
        <name>Udny Place</name>
      </trkpt>
      <trkpt lat="57.3680990" lon="-2.0599480">
        <name>Udny Place</name>
      </trkpt>
      <trkpt lat="57.3680920" lon="-2.0600310">
        <name>Udny Place</name>
      </trkpt>
      <trkpt lat="57.3680990" lon="-2.0599480">
        <name>Udny Place</name>
      </trkpt>
      <trkpt lat="57.3681080" lon="-2.0598360">
        <name>Udny Place</name>
      </trkpt>
      <trkpt lat="57.3680990" lon="-2.0599480">
        <name>Udny Place</name>
      </trkpt>
      <trkpt lat="57.3681740" lon="-2.0599300">
        <name>Udny Place</name>
      </trkpt>
      <trkpt lat="57.3682560" lon="-2.0599160">
        <name>Udny Place</name>
      </trkpt>
      <trkpt lat="57.3682770" lon="-2.0599120">
        <name>Udny Place</name>
      </trkpt>
      <trkpt lat="57.3683600" lon="-2.0599090">
        <name>Udny Place</name>
      </trkpt>
      <trkpt lat="57.3684140" lon="-2.0599210">
        <name>Udny Place</name>
      </trkpt>
      <trkpt lat="57.3684680" lon="-2.0599330">
        <name>Udny Place</name>
      </trkpt>
      <trkpt lat="57.3684780" lon="-2.0599350">
        <name>Udny Place</name>
      </trkpt>
      <trkpt lat="57.3685640" lon="-2.0599720">
        <name>Udny Place</name>
      </trkpt>
      <trkpt lat="57.3686320" lon="-2.0600130">
        <name>Udny Place</name>
      </trkpt>
      <trkpt lat="57.3686420" lon="-2.0600190">
        <name>Udny Place</name>
      </trkpt>
      <trkpt lat="57.3687120" lon="-2.0600410">
        <name>Udny Place</name>
      </trkpt>
      <trkpt lat="57.3687530" lon="-2.0600530">
        <name>Slains Crescent</name>
      </trkpt>
      <trkpt lat="57.3687600" lon="-2.0599510">
        <name>Slains Crescent</name>
      </trkpt>
      <trkpt lat="57.3687670" lon="-2.0598415">
        <name>Slains Crescent</name>
      </trkpt>
      <trkpt lat="57.3687740" lon="-2.0597320">
        <name>Slains Crescent</name>
      </trkpt>
      <trkpt lat="57.3687770" lon="-2.0596890">
        <name>Slains Crescent</name>
      </trkpt>
      <trkpt lat="57.3687870" lon="-2.0595445">
        <name>Slains Crescent</name>
      </trkpt>
      <trkpt lat="57.3687970" lon="-2.0594000">
        <name>Slains Crescent</name>
      </trkpt>
      <trkpt lat="57.3688080" lon="-2.0594020">
        <name>Slains Crescent</name>
      </trkpt>
      <trkpt lat="57.3688810" lon="-2.0594190">
        <name>Slains Crescent</name>
      </trkpt>
      <trkpt lat="57.3689540" lon="-2.0594360">
        <name>Slains Crescent</name>
      </trkpt>
      <trkpt lat="57.3690173" lon="-2.0594503">
        <name>Slains Crescent</name>
      </trkpt>
      <trkpt lat="57.3690807" lon="-2.0594647">
        <name>Slains Crescent</name>
      </trkpt>
      <trkpt lat="57.3691440" lon="-2.0594790">
        <name>Slains Crescent</name>
      </trkpt>
      <trkpt lat="57.3691740" lon="-2.0594740">
        <name>Slains Crescent</name>
      </trkpt>
      <trkpt lat="57.3691990" lon="-2.0594700">
        <name>Slains Crescent</name>
      </trkpt>
      <trkpt lat="57.3692350" lon="-2.0594430">
        <name>Slains Crescent</name>
      </trkpt>
      <trkpt lat="57.3692860" lon="-2.0593840">
        <name>Slains Crescent</name>
      </trkpt>
      <trkpt lat="57.3693040" lon="-2.0593250">
        <name>Slains Crescent</name>
      </trkpt>
      <trkpt lat="57.3693100" lon="-2.0593060">
        <name>Slains Crescent</name>
      </trkpt>
      <trkpt lat="57.3693260" lon="-2.0591970">
        <name>Slains Crescent</name>
      </trkpt>
      <trkpt lat="57.3693320" lon="-2.0590880">
        <name>Slains Crescent</name>
      </trkpt>
      <trkpt lat="57.3692855" lon="-2.0590780">
        <name>Slains Crescent</name>
      </trkpt>
      <trkpt lat="57.3692390" lon="-2.0590680">
        <name>Slains Crescent</name>
      </trkpt>
      <trkpt lat="57.3692855" lon="-2.0590780">
        <name>Slains Avenue</name>
      </trkpt>
      <trkpt lat="57.3693320" lon="-2.0590880">
        <name>Slains Avenue</name>
      </trkpt>
      <trkpt lat="57.3693935" lon="-2.0591000">
        <name>Slains Avenue</name>
      </trkpt>
      <trkpt lat="57.3694550" lon="-2.0591120">
        <name>Slains Avenue</name>
      </trkpt>
      <trkpt lat="57.3694620" lon="-2.0591270">
        <name>Slains Avenue</name>
      </trkpt>
      <trkpt lat="57.3694550" lon="-2.0591120">
        <name>Slains Avenue</name>
      </trkpt>
      <trkpt lat="57.3693935" lon="-2.0591000">
        <name>Slains Avenue</name>
      </trkpt>
      <trkpt lat="57.3693320" lon="-2.0590880">
        <name>Slains Avenue</name>
      </trkpt>
      <trkpt lat="57.3693260" lon="-2.0591970">
        <name>Slains Avenue</name>
      </trkpt>
      <trkpt lat="57.3693100" lon="-2.0593060">
        <name>Slains Avenue</name>
      </trkpt>
      <trkpt lat="57.3692860" lon="-2.0593840">
        <name>Slains Avenue</name>
      </trkpt>
      <trkpt lat="57.3692350" lon="-2.0594430">
        <name>Slains Avenue</name>
      </trkpt>
      <trkpt lat="57.3691990" lon="-2.0594700">
        <name>Slains Avenue</name>
      </trkpt>
      <trkpt lat="57.3691440" lon="-2.0594790">
        <name>Slains Avenue</name>
      </trkpt>
      <trkpt lat="57.3690980" lon="-2.0594685">
        <name>Slains Avenue</name>
      </trkpt>
      <trkpt lat="57.3690520" lon="-2.0594580">
        <name>Slains Avenue</name>
      </trkpt>
      <trkpt lat="57.3689670" lon="-2.0594387">
        <name>Slains Avenue</name>
      </trkpt>
      <trkpt lat="57.3688820" lon="-2.0594193">
        <name>Slains Avenue</name>
      </trkpt>
      <trkpt lat="57.3687970" lon="-2.0594000">
        <name>Slains Avenue</name>
      </trkpt>
      <trkpt lat="57.3688060" lon="-2.0592610">
        <name>Slains Avenue</name>
      </trkpt>
      <trkpt lat="57.3688140" lon="-2.0591420">
        <name>Slains Avenue</name>
      </trkpt>
      <trkpt lat="57.3688220" lon="-2.0590230">
        <name>Slains Avenue</name>
      </trkpt>
      <trkpt lat="57.3687650" lon="-2.0590110">
        <name>Slains Avenue</name>
      </trkpt>
      <trkpt lat="57.3686950" lon="-2.0589880">
        <name>Slains Avenue</name>
      </trkpt>
      <trkpt lat="57.3686410" lon="-2.0589620">
        <name>Slains Avenue</name>
      </trkpt>
      <trkpt lat="57.3685750" lon="-2.0589110">
        <name>Slains Avenue</name>
      </trkpt>
      <trkpt lat="57.3685660" lon="-2.0589070">
        <name>Slains Avenue</name>
      </trkpt>
      <trkpt lat="57.3685210" lon="-2.0588850">
        <name>Slains Avenue</name>
      </trkpt>
      <trkpt lat="57.3684490" lon="-2.0588430">
        <name>Slains Avenue</name>
      </trkpt>
      <trkpt lat="57.3684370" lon="-2.0590050">
        <name>Slains Avenue</name>
      </trkpt>
      <trkpt lat="57.3684490" lon="-2.0588430">
        <name>Slains Avenue</name>
      </trkpt>
      <trkpt lat="57.3683810" lon="-2.0588200">
        <name>Slains Avenue</name>
      </trkpt>
      <trkpt lat="57.3683095" lon="-2.0588035">
        <name>Slains Avenue</name>
      </trkpt>
      <trkpt lat="57.3682380" lon="-2.0587870">
        <name>Slains Avenue</name>
      </trkpt>
      <trkpt lat="57.3683095" lon="-2.0588035">
        <name>Slains Avenue</name>
      </trkpt>
      <trkpt lat="57.3683810" lon="-2.0588200">
        <name>Slains Avenue</name>
      </trkpt>
      <trkpt lat="57.3684490" lon="-2.0588430">
        <name>Slains Avenue</name>
      </trkpt>
      <trkpt lat="57.3684630" lon="-2.0588510">
        <name>Slains Avenue</name>
      </trkpt>
      <trkpt lat="57.3685210" lon="-2.0588850">
        <name>Slains Avenue</name>
      </trkpt>
      <trkpt lat="57.3685750" lon="-2.0589110">
        <name>Slains Avenue</name>
      </trkpt>
      <trkpt lat="57.3686410" lon="-2.0589620">
        <name>Slains Avenue</name>
      </trkpt>
      <trkpt lat="57.3686950" lon="-2.0589880">
        <name>Slains Avenue</name>
      </trkpt>
      <trkpt lat="57.3687070" lon="-2.0589920">
        <name>Slains Avenue</name>
      </trkpt>
      <trkpt lat="57.3687650" lon="-2.0590110">
        <name>Slains Avenue</name>
      </trkpt>
      <trkpt lat="57.3688220" lon="-2.0590230">
        <name>Slains Avenue</name>
      </trkpt>
      <trkpt lat="57.3688327" lon="-2.0588737">
        <name>Ardgith Road</name>
      </trkpt>
      <trkpt lat="57.3688433" lon="-2.0587243">
        <name>Ardgith Road</name>
      </trkpt>
      <trkpt lat="57.3688540" lon="-2.0585750">
        <name>Ardgith Road</name>
      </trkpt>
      <trkpt lat="57.3688630" lon="-2.0584560">
        <name>Ardgith Road</name>
      </trkpt>
      <trkpt lat="57.3688790" lon="-2.0583435">
        <name>Ardgith Road</name>
      </trkpt>
      <trkpt lat="57.3688950" lon="-2.0582310">
        <name>Ardgith Road</name>
      </trkpt>
      <trkpt lat="57.3689115" lon="-2.0581450">
        <name>Ardgith Road</name>
      </trkpt>
      <trkpt lat="57.3689280" lon="-2.0580590">
        <name>Ardgith Road</name>
      </trkpt>
      <trkpt lat="57.3689400" lon="-2.0579990">
        <name>Ardgith Road</name>
      </trkpt>
      <trkpt lat="57.3689720" lon="-2.0578520">
        <name>Ardgith Road</name>
      </trkpt>
      <trkpt lat="57.3689780" lon="-2.0578230">
        <name>Ardgith Road</name>
      </trkpt>
    </trkseg>
  </trk>
</gpx>