<?xml version="1.0" encoding="UTF-8"?>
<gpx version="1.1" creator="TurboSanta Route Planner">
  <trk>
    <name>TurboSanta Route (10m density)</name>
    <trkseg>
      <trkpt lat="57.3703710" lon="-2.0709070">
        <name>Woodlands Edge</name>
      </trkpt>
      <trkpt lat="57.3703550" lon="-2.0709210">
        <name>Woodlands Edge</name>
      </trkpt>
      <trkpt lat="57.3703010" lon="-2.0709860">
        <name>Woodlands Edge</name>
      </trkpt>
      <trkpt lat="57.3702620" lon="-2.0710710">
        <name>Woodlands Edge</name>
      </trkpt>
      <trkpt lat="57.3702330" lon="-2.0711940">
        <name>Woodlands Edge</name>
      </trkpt>
      <trkpt lat="57.3702100" lon="-2.0713180">
        <name>Woodlands Edge</name>
      </trkpt>
      <trkpt lat="57.3702170" lon="-2.0714210">
        <name>Woodlands Edge</name>
      </trkpt>
      <trkpt lat="57.3702240" lon="-2.0715240">
        <name>Woodlands Edge</name>
      </trkpt>
      <trkpt lat="57.3702375" lon="-2.0716655">
        <name>Woodlands Edge</name>
      </trkpt>
      <trkpt lat="57.3702510" lon="-2.0718070">
        <name>Woodlands Edge</name>
      </trkpt>
      <trkpt lat="57.3702593" lon="-2.0719510">
        <name>Woodlands Edge</name>
      </trkpt>
      <trkpt lat="57.3702677" lon="-2.0720950">
        <name>Woodlands Edge</name>
      </trkpt>
      <trkpt lat="57.3702760" lon="-2.0722390">
        <name>Woodlands Edge</name>
      </trkpt>
      <trkpt lat="57.3702815" lon="-2.0723610">
        <name>Carolines Wynd</name>
      </trkpt>
      <trkpt lat="57.3702870" lon="-2.0724830">
        <name>Carolines Wynd</name>
      </trkpt>
      <trkpt lat="57.3702910" lon="-2.0725735">
        <name>Carolines Wynd</name>
      </trkpt>
      <trkpt lat="57.3702950" lon="-2.0726640">
        <name>Carolines Wynd</name>
      </trkpt>
      <trkpt lat="57.3702910" lon="-2.0727570">
        <name>Carolines Wynd</name>
      </trkpt>
      <trkpt lat="57.3702820" lon="-2.0728480">
        <name>Carolines Wynd</name>
      </trkpt>
      <trkpt lat="57.3702670" lon="-2.0729510">
        <name>Carolines Wynd</name>
      </trkpt>
      <trkpt lat="57.3702220" lon="-2.0729170">
        <name>Carolines Wynd</name>
      </trkpt>
      <trkpt lat="57.3702670" lon="-2.0729510">
        <name>Carolines Wynd</name>
      </trkpt>
      <trkpt lat="57.3702382" lon="-2.0730725">
        <name>Carolines Wynd</name>
      </trkpt>
      <trkpt lat="57.3702095" lon="-2.0731940">
        <name>Carolines Wynd</name>
      </trkpt>
      <trkpt lat="57.3701807" lon="-2.0733155">
        <name>Carolines Wynd</name>
      </trkpt>
      <trkpt lat="57.3701520" lon="-2.0734370">
        <name>Carolines Wynd</name>
      </trkpt>
      <trkpt lat="57.3701320" lon="-2.0735340">
        <name>Carolines Wynd</name>
      </trkpt>
      <trkpt lat="57.3701050" lon="-2.0736653">
        <name>Carolines Wynd</name>
      </trkpt>
      <trkpt lat="57.3700780" lon="-2.0737967">
        <name>Carolines Wynd</name>
      </trkpt>
      <trkpt lat="57.3700510" lon="-2.0739280">
        <name>Carolines Wynd</name>
      </trkpt>
      <trkpt lat="57.3700320" lon="-2.0739730">
        <name>Carolines Wynd</name>
      </trkpt>
      <trkpt lat="57.3700110" lon="-2.0739960">
        <name>Carolines Place</name>
      </trkpt>
      <trkpt lat="57.3699820" lon="-2.0739980">
        <name>Carolines Place</name>
      </trkpt>
      <trkpt lat="57.3699450" lon="-2.0739920">
        <name>Carolines Place</name>
      </trkpt>
      <trkpt lat="57.3698910" lon="-2.0739620">
        <name>Carolines Place</name>
      </trkpt>
      <trkpt lat="57.3698370" lon="-2.0739320">
        <name>Carolines Place</name>
      </trkpt>
      <trkpt lat="57.3697920" lon="-2.0738985">
        <name>Carolines Place</name>
      </trkpt>
      <trkpt lat="57.3697470" lon="-2.0738650">
        <name>Carolines Place</name>
      </trkpt>
      <trkpt lat="57.3696800" lon="-2.0737990">
        <name>Carolines Place</name>
      </trkpt>
      <trkpt lat="57.3696425" lon="-2.0737485">
        <name>Carolines Wynd</name>
      </trkpt>
      <trkpt lat="57.3696050" lon="-2.0736980">
        <name>Carolines Wynd</name>
      </trkpt>
      <trkpt lat="57.3695700" lon="-2.0736415">
        <name>Carolines Wynd</name>
      </trkpt>
      <trkpt lat="57.3695350" lon="-2.0735850">
        <name>Carolines Wynd</name>
      </trkpt>
      <trkpt lat="57.3694850" lon="-2.0735030">
        <name>Carolines Wynd</name>
      </trkpt>
      <trkpt lat="57.3694350" lon="-2.0734210">
        <name>Carolines Wynd</name>
      </trkpt>
      <trkpt lat="57.3694500" lon="-2.0733640">
        <name>Carolines Wynd</name>
      </trkpt>
      <trkpt lat="57.3694873" lon="-2.0732233">
        <name>Carolines Wynd</name>
      </trkpt>
      <trkpt lat="57.3695247" lon="-2.0730827">
        <name>Carolines Wynd</name>
      </trkpt>
      <trkpt lat="57.3695620" lon="-2.0729420">
        <name>Carolines Wynd</name>
      </trkpt>
      <trkpt lat="57.3695710" lon="-2.0729080">
        <name>Carolines Wynd</name>
      </trkpt>
      <trkpt lat="57.3696030" lon="-2.0727905">
        <name>Carolines Wynd</name>
      </trkpt>
      <trkpt lat="57.3696350" lon="-2.0726730">
        <name>Carolines Wynd</name>
      </trkpt>
      <trkpt lat="57.3696480" lon="-2.0726270">
        <name>Carolines Wynd</name>
      </trkpt>
      <trkpt lat="57.3696570" lon="-2.0725670">
        <name>Carolines Wynd</name>
      </trkpt>
      <trkpt lat="57.3696630" lon="-2.0725050">
        <name>Carolines Wynd</name>
      </trkpt>
      <trkpt lat="57.3697160" lon="-2.0725320">
        <name>Carolines Wynd</name>
      </trkpt>
      <trkpt lat="57.3697785" lon="-2.0725795">
        <name>Carolines Wynd</name>
      </trkpt>
      <trkpt lat="57.3698410" lon="-2.0726270">
        <name>Carolines Wynd</name>
      </trkpt>
      <trkpt lat="57.3699035" lon="-2.0726745">
        <name>Carolines Wynd</name>
      </trkpt>
      <trkpt lat="57.3699660" lon="-2.0727220">
        <name>Carolines Wynd</name>
      </trkpt>
      <trkpt lat="57.3700293" lon="-2.0727700">
        <name>Carolines Wynd</name>
      </trkpt>
      <trkpt lat="57.3700927" lon="-2.0728180">
        <name>Carolines Wynd</name>
      </trkpt>
      <trkpt lat="57.3701560" lon="-2.0728660">
        <name>Carolines Wynd</name>
      </trkpt>
      <trkpt lat="57.3700858" lon="-2.0728127">
        <name>Carolines Wynd</name>
      </trkpt>
      <trkpt lat="57.3700157" lon="-2.0727593">
        <name>Carolines Wynd</name>
      </trkpt>
      <trkpt lat="57.3699455" lon="-2.0727060">
        <name>Carolines Wynd</name>
      </trkpt>
      <trkpt lat="57.3698753" lon="-2.0726527">
        <name>Carolines Wynd</name>
      </trkpt>
      <trkpt lat="57.3698052" lon="-2.0725993">
        <name>Carolines Wynd</name>
      </trkpt>
      <trkpt lat="57.3697350" lon="-2.0725460">
        <name>Carolines Wynd</name>
      </trkpt>
      <trkpt lat="57.3697160" lon="-2.0725320">
        <name>Carolines Wynd</name>
      </trkpt>
      <trkpt lat="57.3696630" lon="-2.0725050">
        <name>Carolines Wynd</name>
      </trkpt>
      <trkpt lat="57.3696640" lon="-2.0724410">
        <name>Carolines Wynd</name>
      </trkpt>
      <trkpt lat="57.3696600" lon="-2.0723770">
        <name>Carolines Wynd</name>
      </trkpt>
      <trkpt lat="57.3696445" lon="-2.0722365">
        <name>Carolines Wynd</name>
      </trkpt>
      <trkpt lat="57.3696290" lon="-2.0720960">
        <name>Carolines Wynd</name>
      </trkpt>
      <trkpt lat="57.3696175" lon="-2.0719925">
        <name>Carolines Wynd</name>
      </trkpt>
      <trkpt lat="57.3696060" lon="-2.0718890">
        <name>Carolines Wynd</name>
      </trkpt>
      <trkpt lat="57.3695960" lon="-2.0718930">
        <name>Woodlands Place</name>
      </trkpt>
      <trkpt lat="57.3695177" lon="-2.0719257">
        <name>Woodlands Place</name>
      </trkpt>
      <trkpt lat="57.3694393" lon="-2.0719583">
        <name>Woodlands Place</name>
      </trkpt>
      <trkpt lat="57.3693610" lon="-2.0719910">
        <name>Woodlands Place</name>
      </trkpt>
      <trkpt lat="57.3692800" lon="-2.0720250">
        <name>Woodlands Place</name>
      </trkpt>
      <trkpt lat="57.3691990" lon="-2.0720590">
        <name>Woodlands Place</name>
      </trkpt>
      <trkpt lat="57.3691180" lon="-2.0720930">
        <name>Woodlands Place</name>
      </trkpt>
      <trkpt lat="57.3691070" lon="-2.0720980">
        <name>Woodlands Place</name>
      </trkpt>
      <trkpt lat="57.3690220" lon="-2.0721350">
        <name>Woodlands Place</name>
      </trkpt>
      <trkpt lat="57.3689370" lon="-2.0721720">
        <name>Woodlands Place</name>
      </trkpt>
      <trkpt lat="57.3688520" lon="-2.0722090">
        <name>Woodlands Place</name>
      </trkpt>
      <trkpt lat="57.3688190" lon="-2.0722230">
        <name>Woodlands Place</name>
      </trkpt>
      <trkpt lat="57.3688355" lon="-2.0723670">
        <name>Woodlands Place</name>
      </trkpt>
      <trkpt lat="57.3688520" lon="-2.0725110">
        <name>Woodlands Place</name>
      </trkpt>
      <trkpt lat="57.3688685" lon="-2.0726550">
        <name>Woodlands Place</name>
      </trkpt>
      <trkpt lat="57.3688850" lon="-2.0727990">
        <name>Woodlands Place</name>
      </trkpt>
      <trkpt lat="57.3688940" lon="-2.0728800">
        <name>Woodlands Place</name>
      </trkpt>
      <trkpt lat="57.3689030" lon="-2.0729100">
        <name>Woodlands Place</name>
      </trkpt>
      <trkpt lat="57.3689220" lon="-2.0729270">
        <name>Woodlands Place</name>
      </trkpt>
      <trkpt lat="57.3689885" lon="-2.0729645">
        <name>Woodlands Place</name>
      </trkpt>
      <trkpt lat="57.3690550" lon="-2.0730020">
        <name>Woodlands Place</name>
      </trkpt>
      <trkpt lat="57.3691000" lon="-2.0730425">
        <name>Woodlands Place</name>
      </trkpt>
      <trkpt lat="57.3691450" lon="-2.0730830">
        <name>Woodlands Place</name>
      </trkpt>
      <trkpt lat="57.3691860" lon="-2.0731200">
        <name>Woodlands Place</name>
      </trkpt>
      <trkpt lat="57.3692510" lon="-2.0731987">
        <name>Woodlands Place</name>
      </trkpt>
      <trkpt lat="57.3693160" lon="-2.0732773">
        <name>Woodlands Place</name>
      </trkpt>
      <trkpt lat="57.3693810" lon="-2.0733560">
        <name>Woodlands Place</name>
      </trkpt>
      <trkpt lat="57.3694350" lon="-2.0734210">
        <name>Woodlands Place</name>
      </trkpt>
      <trkpt lat="57.3694620" lon="-2.0733200">
        <name>Woodlands Place</name>
      </trkpt>
      <trkpt lat="57.3694890" lon="-2.0732190">
        <name>Woodlands Place</name>
      </trkpt>
      <trkpt lat="57.3695255" lon="-2.0730805">
        <name>Woodlands Place</name>
      </trkpt>
      <trkpt lat="57.3695620" lon="-2.0729420">
        <name>Woodlands Place</name>
      </trkpt>
      <trkpt lat="57.3695965" lon="-2.0728155">
        <name>Carolines Place</name>
      </trkpt>
      <trkpt lat="57.3696310" lon="-2.0726890">
        <name>Carolines Place</name>
      </trkpt>
      <trkpt lat="57.3696480" lon="-2.0726270">
        <name>Carolines Place</name>
      </trkpt>
      <trkpt lat="57.3696570" lon="-2.0725670">
        <name>Carolines Place</name>
      </trkpt>
      <trkpt lat="57.3696630" lon="-2.0725050">
        <name>Carolines Place</name>
      </trkpt>
      <trkpt lat="57.3696640" lon="-2.0724410">
        <name>Carolines Place</name>
      </trkpt>
      <trkpt lat="57.3696600" lon="-2.0723770">
        <name>Carolines Place</name>
      </trkpt>
      <trkpt lat="57.3696420" lon="-2.0722143">
        <name>Carolines Place</name>
      </trkpt>
      <trkpt lat="57.3696240" lon="-2.0720517">
        <name>Carolines Place</name>
      </trkpt>
      <trkpt lat="57.3696060" lon="-2.0718890">
        <name>Carolines Place</name>
      </trkpt>
      <trkpt lat="57.3695940" lon="-2.0717945">
        <name>Carolines Place</name>
      </trkpt>
      <trkpt lat="57.3695820" lon="-2.0717000">
        <name>Carolines Place</name>
      </trkpt>
      <trkpt lat="57.3695630" lon="-2.0715450">
        <name>Carolines Place</name>
      </trkpt>
      <trkpt lat="57.3695295" lon="-2.0713970">
        <name>Carolines Place</name>
      </trkpt>
      <trkpt lat="57.3694960" lon="-2.0712490">
        <name>Carolines Place</name>
      </trkpt>
      <trkpt lat="57.3694660" lon="-2.0711240">
        <name>Carolines Place</name>
      </trkpt>
      <trkpt lat="57.3694600" lon="-2.0711010">
        <name>Carolines Place</name>
      </trkpt>
      <trkpt lat="57.3694410" lon="-2.0710200">
        <name>Carolines Place</name>
      </trkpt>
      <trkpt lat="57.3694220" lon="-2.0709390">
        <name>Carolines Place</name>
      </trkpt>
      <trkpt lat="57.3693830" lon="-2.0708325">
        <name>Carolines Place</name>
      </trkpt>
      <trkpt lat="57.3693440" lon="-2.0707260">
        <name>Carolines Place</name>
      </trkpt>
      <trkpt lat="57.3693050" lon="-2.0706195">
        <name>Carolines Place</name>
      </trkpt>
      <trkpt lat="57.3692660" lon="-2.0705130">
        <name>Carolines Place</name>
      </trkpt>
      <trkpt lat="57.3692220" lon="-2.0703930">
        <name>Carolines Place</name>
      </trkpt>
      <trkpt lat="57.3691780" lon="-2.0702730">
        <name>Carolines Place</name>
      </trkpt>
      <trkpt lat="57.3691340" lon="-2.0701530">
        <name>Carolines Place</name>
      </trkpt>
      <trkpt lat="57.3691190" lon="-2.0701110">
        <name>Carolines Place</name>
      </trkpt>
      <trkpt lat="57.3690823" lon="-2.0700073">
        <name>Woodlands Place</name>
      </trkpt>
      <trkpt lat="57.3690457" lon="-2.0699037">
        <name>Woodlands Place</name>
      </trkpt>
      <trkpt lat="57.3690090" lon="-2.0698000">
        <name>Woodlands Place</name>
      </trkpt>
      <trkpt lat="57.3689805" lon="-2.0697195">
        <name>Woodlands Place</name>
      </trkpt>
      <trkpt lat="57.3689520" lon="-2.0696390">
        <name>Woodlands Place</name>
      </trkpt>
      <trkpt lat="57.3688843" lon="-2.0696380">
        <name>Woodlands Place</name>
      </trkpt>
      <trkpt lat="57.3688167" lon="-2.0696370">
        <name>Woodlands Place</name>
      </trkpt>
      <trkpt lat="57.3687490" lon="-2.0696360">
        <name>Woodlands Place</name>
      </trkpt>
      <trkpt lat="57.3687150" lon="-2.0696360">
        <name>Woodlands Place</name>
      </trkpt>
      <trkpt lat="57.3687190" lon="-2.0697720">
        <name>Woodlands Place</name>
      </trkpt>
      <trkpt lat="57.3687050" lon="-2.0699250">
        <name>Woodlands Place</name>
      </trkpt>
      <trkpt lat="57.3686880" lon="-2.0700445">
        <name>Woodlands Place</name>
      </trkpt>
      <trkpt lat="57.3686710" lon="-2.0701640">
        <name>Woodlands Place</name>
      </trkpt>
      <trkpt lat="57.3686780" lon="-2.0703300">
        <name>Woodlands Place</name>
      </trkpt>
      <trkpt lat="57.3686820" lon="-2.0704360">
        <name>Woodlands Edge</name>
      </trkpt>
      <trkpt lat="57.3686860" lon="-2.0705420">
        <name>Woodlands Edge</name>
      </trkpt>
      <trkpt lat="57.3686910" lon="-2.0706950">
        <name>Woodlands Edge</name>
      </trkpt>
      <trkpt lat="57.3686960" lon="-2.0708480">
        <name>Woodlands Edge</name>
      </trkpt>
      <trkpt lat="57.3687020" lon="-2.0709930">
        <name>Woodlands Edge</name>
      </trkpt>
      <trkpt lat="57.3687090" lon="-2.0711463">
        <name>Woodlands Edge</name>
      </trkpt>
      <trkpt lat="57.3687160" lon="-2.0712997">
        <name>Woodlands Edge</name>
      </trkpt>
      <trkpt lat="57.3687230" lon="-2.0714530">
        <name>Woodlands Edge</name>
      </trkpt>
      <trkpt lat="57.3687320" lon="-2.0715460">
        <name>Woodlands Edge</name>
      </trkpt>
      <trkpt lat="57.3687020" lon="-2.0715570">
        <name>Woodlands Edge</name>
      </trkpt>
      <trkpt lat="57.3687320" lon="-2.0715460">
        <name>Woodlands Edge</name>
      </trkpt>
      <trkpt lat="57.3687940" lon="-2.0715180">
        <name>Woodlands Edge</name>
      </trkpt>
      <trkpt lat="57.3688560" lon="-2.0714900">
        <name>Woodlands Edge</name>
      </trkpt>
      <trkpt lat="57.3689180" lon="-2.0714620">
        <name>Woodlands Edge</name>
      </trkpt>
      <trkpt lat="57.3689600" lon="-2.0714430">
        <name>Woodlands Edge</name>
      </trkpt>
      <trkpt lat="57.3690320" lon="-2.0714115">
        <name>Woodlands Edge</name>
      </trkpt>
      <trkpt lat="57.3691040" lon="-2.0713800">
        <name>Woodlands Edge</name>
      </trkpt>
      <trkpt lat="57.3691560" lon="-2.0713570">
        <name>Woodlands Edge</name>
      </trkpt>
      <trkpt lat="57.3692180" lon="-2.0713140">
        <name>Woodlands Edge</name>
      </trkpt>
      <trkpt lat="57.3692625" lon="-2.0712785">
        <name>Woodlands Edge</name>
      </trkpt>
      <trkpt lat="57.3693070" lon="-2.0712430">
        <name>Woodlands Edge</name>
      </trkpt>
      <trkpt lat="57.3693320" lon="-2.0712230">
        <name>Woodlands Edge</name>
      </trkpt>
      <trkpt lat="57.3693990" lon="-2.0711735">
        <name>Woodlands Edge</name>
      </trkpt>
      <trkpt lat="57.3694660" lon="-2.0711240">
        <name>Woodlands Edge</name>
      </trkpt>
      <trkpt lat="57.3694440" lon="-2.0710315">
        <name>Woodlands Edge</name>
      </trkpt>
      <trkpt lat="57.3694220" lon="-2.0709390">
        <name>Woodlands Edge</name>
      </trkpt>
      <trkpt lat="57.3693715" lon="-2.0708010">
        <name>Woodlands Edge</name>
      </trkpt>
      <trkpt lat="57.3693210" lon="-2.0706630">
        <name>Woodlands Edge</name>
      </trkpt>
      <trkpt lat="57.3692705" lon="-2.0705250">
        <name>Woodlands Edge</name>
      </trkpt>
      <trkpt lat="57.3692200" lon="-2.0703870">
        <name>Woodlands Edge</name>
      </trkpt>
      <trkpt lat="57.3691695" lon="-2.0702490">
        <name>Woodlands Edge</name>
      </trkpt>
      <trkpt lat="57.3691190" lon="-2.0701110">
        <name>Woodlands Edge</name>
      </trkpt>
      <trkpt lat="57.3690855" lon="-2.0700160">
        <name>Woodlands Edge</name>
      </trkpt>
      <trkpt lat="57.3690520" lon="-2.0699210">
        <name>Woodlands Edge</name>
      </trkpt>
      <trkpt lat="57.3690855" lon="-2.0700160">
        <name>Woodlands Edge</name>
      </trkpt>
      <trkpt lat="57.3691190" lon="-2.0701110">
        <name>Woodlands Edge</name>
      </trkpt>
      <trkpt lat="57.3691642" lon="-2.0702346">
        <name>Carolines Wynd</name>
      </trkpt>
      <trkpt lat="57.3692094" lon="-2.0703582">
        <name>Carolines Wynd</name>
      </trkpt>
      <trkpt lat="57.3692546" lon="-2.0704818">
        <name>Carolines Wynd</name>
      </trkpt>
      <trkpt lat="57.3692998" lon="-2.0706054">
        <name>Carolines Wynd</name>
      </trkpt>
      <trkpt lat="57.3693450" lon="-2.0707290">
        <name>Carolines Wynd</name>
      </trkpt>
      <trkpt lat="57.3692998" lon="-2.0706054">
        <name>Carolines Wynd</name>
      </trkpt>
      <trkpt lat="57.3692546" lon="-2.0704818">
        <name>Carolines Wynd</name>
      </trkpt>
      <trkpt lat="57.3692094" lon="-2.0703582">
        <name>Carolines Wynd</name>
      </trkpt>
      <trkpt lat="57.3691642" lon="-2.0702346">
        <name>Carolines Wynd</name>
      </trkpt>
      <trkpt lat="57.3691190" lon="-2.0701110">
        <name>Carolines Wynd</name>
      </trkpt>
      <trkpt lat="57.3690772" lon="-2.0699930">
        <name>Carolines Wynd</name>
      </trkpt>
      <trkpt lat="57.3690355" lon="-2.0698750">
        <name>Carolines Wynd</name>
      </trkpt>
      <trkpt lat="57.3689938" lon="-2.0697570">
        <name>Carolines Wynd</name>
      </trkpt>
      <trkpt lat="57.3689520" lon="-2.0696390">
        <name>Carolines Wynd</name>
      </trkpt>
      <trkpt lat="57.3690220" lon="-2.0695570">
        <name>Carolines Wynd</name>
      </trkpt>
      <trkpt lat="57.3690907" lon="-2.0694767">
        <name>Carolines Wynd</name>
      </trkpt>
      <trkpt lat="57.3691593" lon="-2.0693963">
        <name>Carolines Wynd</name>
      </trkpt>
      <trkpt lat="57.3692280" lon="-2.0693160">
        <name>Carolines Wynd</name>
      </trkpt>
      <trkpt lat="57.3692847" lon="-2.0692497">
        <name>Carolines Wynd</name>
      </trkpt>
      <trkpt lat="57.3693413" lon="-2.0691833">
        <name>Carolines Wynd</name>
      </trkpt>
      <trkpt lat="57.3693980" lon="-2.0691170">
        <name>Carolines Wynd</name>
      </trkpt>
      <trkpt lat="57.3694140" lon="-2.0690780">
        <name>Carolines Wynd</name>
      </trkpt>
      <trkpt lat="57.3694240" lon="-2.0690250">
        <name>Carolines Wynd</name>
      </trkpt>
      <trkpt lat="57.3694230" lon="-2.0689130">
        <name>Carolines Wynd</name>
      </trkpt>
      <trkpt lat="57.3694140" lon="-2.0687590">
        <name>Carolines Wynd</name>
      </trkpt>
      <trkpt lat="57.3694070" lon="-2.0686480">
        <name>Carolines Wynd</name>
      </trkpt>
      <trkpt lat="57.3694005" lon="-2.0685465">
        <name>Carolines Wynd</name>
      </trkpt>
      <trkpt lat="57.3693940" lon="-2.0684450">
        <name>Carolines Wynd</name>
      </trkpt>
      <trkpt lat="57.3693940" lon="-2.0683370">
        <name>Carolines Wynd</name>
      </trkpt>
      <trkpt lat="57.3693940" lon="-2.0682290">
        <name>Carolines Wynd</name>
      </trkpt>
      <trkpt lat="57.3694005" lon="-2.0680960">
        <name>Carolines Wynd</name>
      </trkpt>
      <trkpt lat="57.3694070" lon="-2.0679630">
        <name>Carolines Wynd</name>
      </trkpt>
      <trkpt lat="57.3694110" lon="-2.0678900">
        <name>Carolines Wynd</name>
      </trkpt>
      <trkpt lat="57.3694120" lon="-2.0677600">
        <name>Carolines Wynd</name>
      </trkpt>
      <trkpt lat="57.3694130" lon="-2.0676300">
        <name>Carolines Wynd</name>
      </trkpt>
      <trkpt lat="57.3694095" lon="-2.0675425">
        <name>Carolines Wynd</name>
      </trkpt>
      <trkpt lat="57.3694060" lon="-2.0674550">
        <name>Carolines Wynd</name>
      </trkpt>
      <trkpt lat="57.3694000" lon="-2.0674170">
        <name>Carolines Wynd</name>
      </trkpt>
      <trkpt lat="57.3693810" lon="-2.0672890">
        <name>Carolines Wynd</name>
      </trkpt>
      <trkpt lat="57.3693615" lon="-2.0672130">
        <name>Woodlands Place</name>
      </trkpt>
      <trkpt lat="57.3693420" lon="-2.0671370">
        <name>Woodlands Place</name>
      </trkpt>
      <trkpt lat="57.3693135" lon="-2.0670685">
        <name>Woodlands Place</name>
      </trkpt>
      <trkpt lat="57.3692850" lon="-2.0670000">
        <name>Woodlands Place</name>
      </trkpt>
      <trkpt lat="57.3692200" lon="-2.0668870">
        <name>Woodlands Place</name>
      </trkpt>
      <trkpt lat="57.3691700" lon="-2.0668310">
        <name>Woodlands Place</name>
      </trkpt>
      <trkpt lat="57.3691190" lon="-2.0667840">
        <name>Woodlands Place</name>
      </trkpt>
      <trkpt lat="57.3690360" lon="-2.0667340">
        <name>Woodlands Place</name>
      </trkpt>
      <trkpt lat="57.3689660" lon="-2.0667150">
        <name>Woodlands Place</name>
      </trkpt>
      <trkpt lat="57.3689510" lon="-2.0667130">
        <name>Woodlands Place</name>
      </trkpt>
      <trkpt lat="57.3688723" lon="-2.0667007">
        <name>Woodlands Place</name>
      </trkpt>
      <trkpt lat="57.3687935" lon="-2.0666885">
        <name>Woodlands Place</name>
      </trkpt>
      <trkpt lat="57.3687148" lon="-2.0666762">
        <name>Woodlands Place</name>
      </trkpt>
      <trkpt lat="57.3686360" lon="-2.0666640">
        <name>Woodlands Place</name>
      </trkpt>
      <trkpt lat="57.3686260" lon="-2.0666620">
        <name>Woodlands Place</name>
      </trkpt>
      <trkpt lat="57.3685685" lon="-2.0666530">
        <name>Woodlands Place</name>
      </trkpt>
      <trkpt lat="57.3685110" lon="-2.0666440">
        <name>Woodlands Place</name>
      </trkpt>
      <trkpt lat="57.3684265" lon="-2.0666305">
        <name>Woodlands Place</name>
      </trkpt>
      <trkpt lat="57.3683420" lon="-2.0666170">
        <name>Woodlands Place</name>
      </trkpt>
      <trkpt lat="57.3683300" lon="-2.0666150">
        <name>Woodlands Place</name>
      </trkpt>
      <trkpt lat="57.3683160" lon="-2.0666270">
        <name>Woodlands Place</name>
      </trkpt>
      <trkpt lat="57.3683050" lon="-2.0666460">
        <name>Woodlands Place</name>
      </trkpt>
      <trkpt lat="57.3682650" lon="-2.0667575">
        <name>Woodlands Place</name>
      </trkpt>
      <trkpt lat="57.3682250" lon="-2.0668690">
        <name>Woodlands Place</name>
      </trkpt>
      <trkpt lat="57.3682160" lon="-2.0670290">
        <name>Woodlands Place</name>
      </trkpt>
      <trkpt lat="57.3682100" lon="-2.0671230">
        <name>Kennedy Place</name>
      </trkpt>
      <trkpt lat="57.3682035" lon="-2.0672815">
        <name>Kennedy Place</name>
      </trkpt>
      <trkpt lat="57.3681970" lon="-2.0674400">
        <name>Kennedy Place</name>
      </trkpt>
      <trkpt lat="57.3681950" lon="-2.0674990">
        <name>Kennedy Place</name>
      </trkpt>
      <trkpt lat="57.3681905" lon="-2.0676115">
        <name>Kennedy Place</name>
      </trkpt>
      <trkpt lat="57.3681860" lon="-2.0677240">
        <name>Kennedy Place</name>
      </trkpt>
      <trkpt lat="57.3682605" lon="-2.0677350">
        <name>Kennedy Place</name>
      </trkpt>
      <trkpt lat="57.3683350" lon="-2.0677460">
        <name>Kennedy Place</name>
      </trkpt>
      <trkpt lat="57.3684090" lon="-2.0677570">
        <name>Kennedy Place</name>
      </trkpt>
      <trkpt lat="57.3684793" lon="-2.0677955">
        <name>Kennedy Place</name>
      </trkpt>
      <trkpt lat="57.3685495" lon="-2.0678340">
        <name>Kennedy Place</name>
      </trkpt>
      <trkpt lat="57.3686198" lon="-2.0678725">
        <name>Kennedy Place</name>
      </trkpt>
      <trkpt lat="57.3686900" lon="-2.0679110">
        <name>Kennedy Place</name>
      </trkpt>
      <trkpt lat="57.3686243" lon="-2.0678750">
        <name>Kennedy Place</name>
      </trkpt>
      <trkpt lat="57.3685587" lon="-2.0678390">
        <name>Kennedy Place</name>
      </trkpt>
      <trkpt lat="57.3684930" lon="-2.0678030">
        <name>Kennedy Place</name>
      </trkpt>
      <trkpt lat="57.3684090" lon="-2.0677570">
        <name>Kennedy Place</name>
      </trkpt>
      <trkpt lat="57.3683450" lon="-2.0677477">
        <name>Kennedy Place</name>
      </trkpt>
      <trkpt lat="57.3682810" lon="-2.0677383">
        <name>Kennedy Place</name>
      </trkpt>
      <trkpt lat="57.3682170" lon="-2.0677290">
        <name>Kennedy Place</name>
      </trkpt>
      <trkpt lat="57.3681860" lon="-2.0677240">
        <name>Kennedy Place</name>
      </trkpt>
      <trkpt lat="57.3681770" lon="-2.0678310">
        <name>Kennedy Place</name>
      </trkpt>
      <trkpt lat="57.3681500" lon="-2.0679610">
        <name>Kennedy Place</name>
      </trkpt>
      <trkpt lat="57.3681273" lon="-2.0680673">
        <name>Kennedy Place</name>
      </trkpt>
      <trkpt lat="57.3681047" lon="-2.0681737">
        <name>Kennedy Place</name>
      </trkpt>
      <trkpt lat="57.3680820" lon="-2.0682800">
        <name>Kennedy Place</name>
      </trkpt>
      <trkpt lat="57.3680760" lon="-2.0683540">
        <name>Kennedy Place</name>
      </trkpt>
      <trkpt lat="57.3680780" lon="-2.0684980">
        <name>Kennedy Place</name>
      </trkpt>
      <trkpt lat="57.3680802" lon="-2.0686292">
        <name>Kennedy Place</name>
      </trkpt>
      <trkpt lat="57.3680825" lon="-2.0687605">
        <name>Kennedy Place</name>
      </trkpt>
      <trkpt lat="57.3680848" lon="-2.0688918">
        <name>Kennedy Place</name>
      </trkpt>
      <trkpt lat="57.3680870" lon="-2.0690230">
        <name>Kennedy Place</name>
      </trkpt>
      <trkpt lat="57.3680880" lon="-2.0690850">
        <name>Kennedy Place</name>
      </trkpt>
      <trkpt lat="57.3680980" lon="-2.0691990">
        <name>Kennedy Place</name>
      </trkpt>
      <trkpt lat="57.3681195" lon="-2.0692770">
        <name>Kennedy Place</name>
      </trkpt>
      <trkpt lat="57.3681410" lon="-2.0693550">
        <name>Kennedy Place</name>
      </trkpt>
      <trkpt lat="57.3681790" lon="-2.0694410">
        <name>Kennedy Place</name>
      </trkpt>
      <trkpt lat="57.3681990" lon="-2.0694860">
        <name>Kennedy Place</name>
      </trkpt>
      <trkpt lat="57.3682385" lon="-2.0695300">
        <name>Kennedy Place</name>
      </trkpt>
      <trkpt lat="57.3682780" lon="-2.0695740">
        <name>Kennedy Place</name>
      </trkpt>
      <trkpt lat="57.3683230" lon="-2.0696030">
        <name>Kennedy Place</name>
      </trkpt>
      <trkpt lat="57.3683730" lon="-2.0696180">
        <name>Kennedy Place</name>
      </trkpt>
      <trkpt lat="57.3684310" lon="-2.0696170">
        <name>Firhill Square</name>
      </trkpt>
      <trkpt lat="57.3685160" lon="-2.0696160">
        <name>Firhill Square</name>
      </trkpt>
      <trkpt lat="57.3686010" lon="-2.0696150">
        <name>Firhill Square</name>
      </trkpt>
      <trkpt lat="57.3686580" lon="-2.0696255">
        <name>Firhill Square</name>
      </trkpt>
      <trkpt lat="57.3687150" lon="-2.0696360">
        <name>Firhill Square</name>
      </trkpt>
      <trkpt lat="57.3687135" lon="-2.0695230">
        <name>Firhill Square</name>
      </trkpt>
      <trkpt lat="57.3687120" lon="-2.0694100">
        <name>Firhill Square</name>
      </trkpt>
      <trkpt lat="57.3687103" lon="-2.0692747">
        <name>Firhill Square</name>
      </trkpt>
      <trkpt lat="57.3687087" lon="-2.0691393">
        <name>Firhill Square</name>
      </trkpt>
      <trkpt lat="57.3687070" lon="-2.0690040">
        <name>Firhill Square</name>
      </trkpt>
      <trkpt lat="57.3687063" lon="-2.0688497">
        <name>Firhill Square</name>
      </trkpt>
      <trkpt lat="57.3687057" lon="-2.0686953">
        <name>Firhill Square</name>
      </trkpt>
      <trkpt lat="57.3687050" lon="-2.0685410">
        <name>Firhill Square</name>
      </trkpt>
      <trkpt lat="57.3687040" lon="-2.0684010">
        <name>Kennedy Way</name>
      </trkpt>
      <trkpt lat="57.3687253" lon="-2.0682520">
        <name>Kennedy Way</name>
      </trkpt>
      <trkpt lat="57.3687467" lon="-2.0681030">
        <name>Kennedy Way</name>
      </trkpt>
      <trkpt lat="57.3687680" lon="-2.0679540">
        <name>Kennedy Way</name>
      </trkpt>
      <trkpt lat="57.3687730" lon="-2.0679250">
        <name>Kennedy Way</name>
      </trkpt>
      <trkpt lat="57.3687970" lon="-2.0677727">
        <name>Kennedy Way</name>
      </trkpt>
      <trkpt lat="57.3688210" lon="-2.0676203">
        <name>Kennedy Way</name>
      </trkpt>
      <trkpt lat="57.3688450" lon="-2.0674680">
        <name>Kennedy Way</name>
      </trkpt>
      <trkpt lat="57.3688700" lon="-2.0673080">
        <name>Kennedy Way</name>
      </trkpt>
      <trkpt lat="57.3688930" lon="-2.0671660">
        <name>Kennedy Way</name>
      </trkpt>
      <trkpt lat="57.3689160" lon="-2.0670240">
        <name>Kennedy Way</name>
      </trkpt>
      <trkpt lat="57.3689390" lon="-2.0668820">
        <name>Kennedy Way</name>
      </trkpt>
      <trkpt lat="57.3689525" lon="-2.0667985">
        <name>Kennedy Way</name>
      </trkpt>
      <trkpt lat="57.3689660" lon="-2.0667150">
        <name>Kennedy Way</name>
      </trkpt>
      <trkpt lat="57.3689907" lon="-2.0666010">
        <name>Kennedy Way</name>
      </trkpt>
      <trkpt lat="57.3690153" lon="-2.0664870">
        <name>Kennedy Way</name>
      </trkpt>
      <trkpt lat="57.3690400" lon="-2.0663730">
        <name>Kennedy Way</name>
      </trkpt>
    </trkseg>
  </trk>
</gpx>