<?xml version="1.0" encoding="UTF-8"?>
<gpx version="1.1" creator="TurboSanta Route Planner">
  <trk>
    <name>TurboSanta Route (10m density)</name>
    <trkseg>
      <trkpt lat="57.3696890" lon="-2.0982610">
        <name>Esslemont Close</name>
      </trkpt>
      <trkpt lat="57.3696910" lon="-2.0981165">
        <name>Esslemont Close</name>
      </trkpt>
      <trkpt lat="57.3696930" lon="-2.0979720">
        <name>Esslemont Close</name>
      </trkpt>
      <trkpt lat="57.3696947" lon="-2.0978077">
        <name>Esslemont Close</name>
      </trkpt>
      <trkpt lat="57.3696963" lon="-2.0976433">
        <name>Esslemont Close</name>
      </trkpt>
      <trkpt lat="57.3696980" lon="-2.0974790">
        <name>Esslemont Close</name>
      </trkpt>
      <trkpt lat="57.3697040" lon="-2.0973610">
        <name>Esslemont Close</name>
      </trkpt>
      <trkpt lat="57.3697100" lon="-2.0972430">
        <name>Esslemont Close</name>
      </trkpt>
      <trkpt lat="57.3697225" lon="-2.0971440">
        <name>Esslemont Close</name>
      </trkpt>
      <trkpt lat="57.3697350" lon="-2.0970450">
        <name>Esslemont Close</name>
      </trkpt>
      <trkpt lat="57.3697690" lon="-2.0969300">
        <name>Esslemont Close</name>
      </trkpt>
      <trkpt lat="57.3698210" lon="-2.0968260">
        <name>Esslemont Close</name>
      </trkpt>
      <trkpt lat="57.3698730" lon="-2.0967660">
        <name>Esslemont Close</name>
      </trkpt>
      <trkpt lat="57.3699320" lon="-2.0966880">
        <name>Esslemont Close</name>
      </trkpt>
      <trkpt lat="57.3699240" lon="-2.0966480">
        <name>Esslemont Circle</name>
      </trkpt>
      <trkpt lat="57.3699150" lon="-2.0966060">
        <name>Esslemont Circle</name>
      </trkpt>
      <trkpt lat="57.3699190" lon="-2.0964720">
        <name>Esslemont Circle</name>
      </trkpt>
      <trkpt lat="57.3699310" lon="-2.0963780">
        <name>Esslemont Circle</name>
      </trkpt>
      <trkpt lat="57.3699390" lon="-2.0962870">
        <name>Esslemont Circle</name>
      </trkpt>
      <trkpt lat="57.3699470" lon="-2.0961960">
        <name>Esslemont Circle</name>
      </trkpt>
      <trkpt lat="57.3699390" lon="-2.0960770">
        <name>Esslemont Circle</name>
      </trkpt>
      <trkpt lat="57.3699240" lon="-2.0959760">
        <name>Esslemont Circle</name>
      </trkpt>
      <trkpt lat="57.3699080" lon="-2.0958955">
        <name>Esslemont Circle</name>
      </trkpt>
      <trkpt lat="57.3698920" lon="-2.0958150">
        <name>Esslemont Circle</name>
      </trkpt>
      <trkpt lat="57.3698560" lon="-2.0956930">
        <name>Esslemont Circle</name>
      </trkpt>
      <trkpt lat="57.3698093" lon="-2.0955710">
        <name>Esslemont Circle</name>
      </trkpt>
      <trkpt lat="57.3697627" lon="-2.0954490">
        <name>Esslemont Circle</name>
      </trkpt>
      <trkpt lat="57.3697160" lon="-2.0953270">
        <name>Esslemont Circle</name>
      </trkpt>
      <trkpt lat="57.3696880" lon="-2.0952750">
        <name>Esslemont Circle</name>
      </trkpt>
      <trkpt lat="57.3696630" lon="-2.0952290">
        <name>Esslemont Circle</name>
      </trkpt>
      <trkpt lat="57.3695970" lon="-2.0951550">
        <name>Esslemont Circle</name>
      </trkpt>
      <trkpt lat="57.3695210" lon="-2.0951250">
        <name>Esslemont Circle</name>
      </trkpt>
      <trkpt lat="57.3694600" lon="-2.0951150">
        <name>Esslemont Circle</name>
      </trkpt>
      <trkpt lat="57.3693980" lon="-2.0951320">
        <name>Esslemont Circle</name>
      </trkpt>
      <trkpt lat="57.3693320" lon="-2.0952073">
        <name>Esslemont Circle</name>
      </trkpt>
      <trkpt lat="57.3692660" lon="-2.0952827">
        <name>Esslemont Circle</name>
      </trkpt>
      <trkpt lat="57.3692000" lon="-2.0953580">
        <name>Esslemont Circle</name>
      </trkpt>
      <trkpt lat="57.3691400" lon="-2.0954265">
        <name>Esslemont Circle</name>
      </trkpt>
      <trkpt lat="57.3690800" lon="-2.0954950">
        <name>Esslemont Circle</name>
      </trkpt>
      <trkpt lat="57.3691264" lon="-2.0956273">
        <name>Esslemont Circle</name>
      </trkpt>
      <trkpt lat="57.3691727" lon="-2.0957595">
        <name>Esslemont Circle</name>
      </trkpt>
      <trkpt lat="57.3692191" lon="-2.0958918">
        <name>Esslemont Circle</name>
      </trkpt>
      <trkpt lat="57.3692655" lon="-2.0960240">
        <name>Esslemont Circle</name>
      </trkpt>
      <trkpt lat="57.3693119" lon="-2.0961562">
        <name>Esslemont Circle</name>
      </trkpt>
      <trkpt lat="57.3693582" lon="-2.0962885">
        <name>Esslemont Circle</name>
      </trkpt>
      <trkpt lat="57.3694046" lon="-2.0964208">
        <name>Esslemont Circle</name>
      </trkpt>
      <trkpt lat="57.3694510" lon="-2.0965530">
        <name>Esslemont Circle</name>
      </trkpt>
      <trkpt lat="57.3694853" lon="-2.0966490">
        <name>Esslemont Circle</name>
      </trkpt>
      <trkpt lat="57.3695197" lon="-2.0967450">
        <name>Esslemont Circle</name>
      </trkpt>
      <trkpt lat="57.3695540" lon="-2.0968410">
        <name>Esslemont Circle</name>
      </trkpt>
      <trkpt lat="57.3695330" lon="-2.0967830">
        <name>Esslemont Circle</name>
      </trkpt>
      <trkpt lat="57.3694920" lon="-2.0966680">
        <name>Esslemont Circle</name>
      </trkpt>
      <trkpt lat="57.3694510" lon="-2.0965530">
        <name>Esslemont Circle</name>
      </trkpt>
      <trkpt lat="57.3694046" lon="-2.0964208">
        <name>Esslemont Circle</name>
      </trkpt>
      <trkpt lat="57.3693582" lon="-2.0962885">
        <name>Esslemont Circle</name>
      </trkpt>
      <trkpt lat="57.3693119" lon="-2.0961562">
        <name>Esslemont Circle</name>
      </trkpt>
      <trkpt lat="57.3692655" lon="-2.0960240">
        <name>Esslemont Circle</name>
      </trkpt>
      <trkpt lat="57.3692191" lon="-2.0958918">
        <name>Esslemont Circle</name>
      </trkpt>
      <trkpt lat="57.3691727" lon="-2.0957595">
        <name>Esslemont Circle</name>
      </trkpt>
      <trkpt lat="57.3691264" lon="-2.0956273">
        <name>Esslemont Circle</name>
      </trkpt>
      <trkpt lat="57.3690800" lon="-2.0954950">
        <name>Esslemont Circle</name>
      </trkpt>
      <trkpt lat="57.3690170" lon="-2.0955720">
        <name>Esslemont Circle</name>
      </trkpt>
      <trkpt lat="57.3689466" lon="-2.0956574">
        <name>Esslemont Circle</name>
      </trkpt>
      <trkpt lat="57.3688762" lon="-2.0957428">
        <name>Esslemont Circle</name>
      </trkpt>
      <trkpt lat="57.3688058" lon="-2.0958282">
        <name>Esslemont Circle</name>
      </trkpt>
      <trkpt lat="57.3687354" lon="-2.0959136">
        <name>Esslemont Circle</name>
      </trkpt>
      <trkpt lat="57.3686650" lon="-2.0959990">
        <name>Esslemont Circle</name>
      </trkpt>
      <trkpt lat="57.3686410" lon="-2.0960290">
        <name>Esslemont Circle</name>
      </trkpt>
      <trkpt lat="57.3686873" lon="-2.0961611">
        <name>Esslemont Circle</name>
      </trkpt>
      <trkpt lat="57.3687336" lon="-2.0962933">
        <name>Esslemont Circle</name>
      </trkpt>
      <trkpt lat="57.3687799" lon="-2.0964254">
        <name>Esslemont Circle</name>
      </trkpt>
      <trkpt lat="57.3688261" lon="-2.0965576">
        <name>Esslemont Circle</name>
      </trkpt>
      <trkpt lat="57.3688724" lon="-2.0966897">
        <name>Esslemont Circle</name>
      </trkpt>
      <trkpt lat="57.3689187" lon="-2.0968219">
        <name>Esslemont Circle</name>
      </trkpt>
      <trkpt lat="57.3689650" lon="-2.0969540">
        <name>Esslemont Circle</name>
      </trkpt>
      <trkpt lat="57.3690130" lon="-2.0970940">
        <name>Esslemont Circle</name>
      </trkpt>
      <trkpt lat="57.3690565" lon="-2.0972245">
        <name>Esslemont Circle</name>
      </trkpt>
      <trkpt lat="57.3691000" lon="-2.0973550">
        <name>Esslemont Circle</name>
      </trkpt>
      <trkpt lat="57.3691080" lon="-2.0973780">
        <name>Esslemont Circle</name>
      </trkpt>
      <trkpt lat="57.3690763" lon="-2.0972833">
        <name>Esslemont Circle</name>
      </trkpt>
      <trkpt lat="57.3690447" lon="-2.0971887">
        <name>Esslemont Circle</name>
      </trkpt>
      <trkpt lat="57.3690130" lon="-2.0970940">
        <name>Esslemont Circle</name>
      </trkpt>
      <trkpt lat="57.3689650" lon="-2.0969540">
        <name>Esslemont Circle</name>
      </trkpt>
      <trkpt lat="57.3689187" lon="-2.0968219">
        <name>Esslemont Circle</name>
      </trkpt>
      <trkpt lat="57.3688724" lon="-2.0966897">
        <name>Esslemont Circle</name>
      </trkpt>
      <trkpt lat="57.3688261" lon="-2.0965576">
        <name>Esslemont Circle</name>
      </trkpt>
      <trkpt lat="57.3687799" lon="-2.0964254">
        <name>Esslemont Circle</name>
      </trkpt>
      <trkpt lat="57.3687336" lon="-2.0962933">
        <name>Esslemont Circle</name>
      </trkpt>
      <trkpt lat="57.3686873" lon="-2.0961611">
        <name>Esslemont Circle</name>
      </trkpt>
      <trkpt lat="57.3686410" lon="-2.0960290">
        <name>Esslemont Circle</name>
      </trkpt>
      <trkpt lat="57.3685790" lon="-2.0961060">
        <name>Esslemont Circle</name>
      </trkpt>
      <trkpt lat="57.3685287" lon="-2.0961683">
        <name>Esslemont Circle</name>
      </trkpt>
      <trkpt lat="57.3684783" lon="-2.0962307">
        <name>Esslemont Circle</name>
      </trkpt>
      <trkpt lat="57.3684280" lon="-2.0962930">
        <name>Esslemont Circle</name>
      </trkpt>
      <trkpt lat="57.3683800" lon="-2.0963530">
        <name>Esslemont Circle</name>
      </trkpt>
      <trkpt lat="57.3683410" lon="-2.0964110">
        <name>Esslemont Circle</name>
      </trkpt>
      <trkpt lat="57.3683160" lon="-2.0964640">
        <name>Esslemont Circle</name>
      </trkpt>
      <trkpt lat="57.3682930" lon="-2.0965720">
        <name>Esslemont Circle</name>
      </trkpt>
      <trkpt lat="57.3682700" lon="-2.0967120">
        <name>Esslemont Circle</name>
      </trkpt>
      <trkpt lat="57.3682790" lon="-2.0968570">
        <name>Esslemont Circle</name>
      </trkpt>
      <trkpt lat="57.3682880" lon="-2.0969390">
        <name>Esslemont Circle</name>
      </trkpt>
      <trkpt lat="57.3683040" lon="-2.0970130">
        <name>Esslemont Circle</name>
      </trkpt>
      <trkpt lat="57.3683495" lon="-2.0971388">
        <name>Esslemont Circle</name>
      </trkpt>
      <trkpt lat="57.3683950" lon="-2.0972645">
        <name>Esslemont Circle</name>
      </trkpt>
      <trkpt lat="57.3684405" lon="-2.0973903">
        <name>Esslemont Circle</name>
      </trkpt>
      <trkpt lat="57.3684860" lon="-2.0975160">
        <name>Esslemont Circle</name>
      </trkpt>
      <trkpt lat="57.3685140" lon="-2.0975940">
        <name>Esslemont Circle</name>
      </trkpt>
      <trkpt lat="57.3685420" lon="-2.0976720">
        <name>Esslemont Circle</name>
      </trkpt>
      <trkpt lat="57.3685795" lon="-2.0977770">
        <name>Esslemont Circle</name>
      </trkpt>
      <trkpt lat="57.3686170" lon="-2.0978820">
        <name>Esslemont Circle</name>
      </trkpt>
      <trkpt lat="57.3686643" lon="-2.0979817">
        <name>Esslemont Circle</name>
      </trkpt>
      <trkpt lat="57.3687117" lon="-2.0980813">
        <name>Esslemont Circle</name>
      </trkpt>
      <trkpt lat="57.3687590" lon="-2.0981810">
        <name>Esslemont Circle</name>
      </trkpt>
      <trkpt lat="57.3687895" lon="-2.0982610">
        <name>Esslemont Circle</name>
      </trkpt>
      <trkpt lat="57.3688200" lon="-2.0983410">
        <name>Esslemont Circle</name>
      </trkpt>
      <trkpt lat="57.3688440" lon="-2.0984020">
        <name>Esslemont Circle</name>
      </trkpt>
      <trkpt lat="57.3688597" lon="-2.0985210">
        <name>Esslemont Circle</name>
      </trkpt>
      <trkpt lat="57.3688753" lon="-2.0986400">
        <name>Esslemont Circle</name>
      </trkpt>
      <trkpt lat="57.3688910" lon="-2.0987590">
        <name>Esslemont Circle</name>
      </trkpt>
      <trkpt lat="57.3689040" lon="-2.0988885">
        <name>Esslemont Circle</name>
      </trkpt>
      <trkpt lat="57.3689170" lon="-2.0990180">
        <name>Esslemont Circle</name>
      </trkpt>
      <trkpt lat="57.3689313" lon="-2.0991577">
        <name>Esslemont Circle</name>
      </trkpt>
      <trkpt lat="57.3689457" lon="-2.0992973">
        <name>Esslemont Circle</name>
      </trkpt>
      <trkpt lat="57.3689600" lon="-2.0994370">
        <name>Esslemont Circle</name>
      </trkpt>
      <trkpt lat="57.3689730" lon="-2.0995742">
        <name>Esslemont Circle</name>
      </trkpt>
      <trkpt lat="57.3689860" lon="-2.0997115">
        <name>Esslemont Circle</name>
      </trkpt>
      <trkpt lat="57.3689990" lon="-2.0998488">
        <name>Esslemont Circle</name>
      </trkpt>
      <trkpt lat="57.3690120" lon="-2.0999860">
        <name>Esslemont Circle</name>
      </trkpt>
      <trkpt lat="57.3690240" lon="-2.1001115">
        <name>Esslemont Circle</name>
      </trkpt>
      <trkpt lat="57.3690360" lon="-2.1002370">
        <name>Esslemont Circle</name>
      </trkpt>
      <trkpt lat="57.3690470" lon="-2.1003605">
        <name>Esslemont Circle</name>
      </trkpt>
      <trkpt lat="57.3690580" lon="-2.1004840">
        <name>Esslemont Circle</name>
      </trkpt>
      <trkpt lat="57.3690710" lon="-2.1006377">
        <name>Esslemont Circle</name>
      </trkpt>
      <trkpt lat="57.3690840" lon="-2.1007915">
        <name>Esslemont Circle</name>
      </trkpt>
      <trkpt lat="57.3690970" lon="-2.1009453">
        <name>Esslemont Circle</name>
      </trkpt>
      <trkpt lat="57.3691100" lon="-2.1010990">
        <name>Esslemont Circle</name>
      </trkpt>
      <trkpt lat="57.3691180" lon="-2.1011915">
        <name>Esslemont Circle</name>
      </trkpt>
      <trkpt lat="57.3691260" lon="-2.1012840">
        <name>Esslemont Circle</name>
      </trkpt>
      <trkpt lat="57.3691315" lon="-2.1013880">
        <name>Esslemont Circle</name>
      </trkpt>
      <trkpt lat="57.3691370" lon="-2.1014920">
        <name>Esslemont Circle</name>
      </trkpt>
      <trkpt lat="57.3691410" lon="-2.1016297">
        <name>Esslemont Circle</name>
      </trkpt>
      <trkpt lat="57.3691450" lon="-2.1017675">
        <name>Esslemont Circle</name>
      </trkpt>
      <trkpt lat="57.3691490" lon="-2.1019053">
        <name>Esslemont Circle</name>
      </trkpt>
      <trkpt lat="57.3691530" lon="-2.1020430">
        <name>Esslemont Circle</name>
      </trkpt>
      <trkpt lat="57.3691550" lon="-2.1021465">
        <name>Esslemont Circle</name>
      </trkpt>
      <trkpt lat="57.3691570" lon="-2.1022500">
        <name>Esslemont Circle</name>
      </trkpt>
      <trkpt lat="57.3691598" lon="-2.1023750">
        <name>Esslemont Circle</name>
      </trkpt>
      <trkpt lat="57.3691625" lon="-2.1025000">
        <name>Esslemont Circle</name>
      </trkpt>
      <trkpt lat="57.3691653" lon="-2.1026250">
        <name>Esslemont Circle</name>
      </trkpt>
      <trkpt lat="57.3691680" lon="-2.1027500">
        <name>Esslemont Circle</name>
      </trkpt>
      <trkpt lat="57.3691800" lon="-2.1028575">
        <name>Esslemont Circle</name>
      </trkpt>
      <trkpt lat="57.3691920" lon="-2.1029650">
        <name>Esslemont Circle</name>
      </trkpt>
      <trkpt lat="57.3692350" lon="-2.1031050">
        <name>Esslemont Circle</name>
      </trkpt>
      <trkpt lat="57.3692600" lon="-2.1031460">
        <name>Esslemont Circle</name>
      </trkpt>
      <trkpt lat="57.3692740" lon="-2.1031690">
        <name>Esslemont Circle</name>
      </trkpt>
      <trkpt lat="57.3692970" lon="-2.1032070">
        <name>Esslemont Circle</name>
      </trkpt>
      <trkpt lat="57.3693500" lon="-2.1032660">
        <name>Esslemont Circle</name>
      </trkpt>
      <trkpt lat="57.3694170" lon="-2.1032920">
        <name>Esslemont Circle</name>
      </trkpt>
      <trkpt lat="57.3694580" lon="-2.1032920">
        <name>Esslemont Circle</name>
      </trkpt>
      <trkpt lat="57.3695050" lon="-2.1032910">
        <name>Esslemont Circle</name>
      </trkpt>
      <trkpt lat="57.3695520" lon="-2.1032690">
        <name>Esslemont Circle</name>
      </trkpt>
      <trkpt lat="57.3696130" lon="-2.1032250">
        <name>Esslemont Circle</name>
      </trkpt>
      <trkpt lat="57.3696320" lon="-2.1031940">
        <name>Esslemont Circle</name>
      </trkpt>
      <trkpt lat="57.3696670" lon="-2.1031370">
        <name>Esslemont Circle</name>
      </trkpt>
      <trkpt lat="57.3697010" lon="-2.1030420">
        <name>Esslemont Circle</name>
      </trkpt>
      <trkpt lat="57.3697220" lon="-2.1029400">
        <name>Esslemont Circle</name>
      </trkpt>
      <trkpt lat="57.3697330" lon="-2.1028110">
        <name>Esslemont Circle</name>
      </trkpt>
      <trkpt lat="57.3697315" lon="-2.1027230">
        <name>Esslemont Circle</name>
      </trkpt>
      <trkpt lat="57.3697300" lon="-2.1026350">
        <name>Esslemont Circle</name>
      </trkpt>
      <trkpt lat="57.3697288" lon="-2.1024786">
        <name>Esslemont Circle</name>
      </trkpt>
      <trkpt lat="57.3697276" lon="-2.1023222">
        <name>Esslemont Circle</name>
      </trkpt>
      <trkpt lat="57.3697264" lon="-2.1021658">
        <name>Esslemont Circle</name>
      </trkpt>
      <trkpt lat="57.3697252" lon="-2.1020094">
        <name>Esslemont Circle</name>
      </trkpt>
      <trkpt lat="57.3697240" lon="-2.1018530">
        <name>Esslemont Circle</name>
      </trkpt>
      <trkpt lat="57.3697230" lon="-2.1017197">
        <name>Esslemont Circle</name>
      </trkpt>
      <trkpt lat="57.3697220" lon="-2.1015863">
        <name>Esslemont Circle</name>
      </trkpt>
      <trkpt lat="57.3697210" lon="-2.1014530">
        <name>Esslemont Circle</name>
      </trkpt>
      <trkpt lat="57.3697160" lon="-2.1013400">
        <name>Esslemont Circle</name>
      </trkpt>
      <trkpt lat="57.3697110" lon="-2.1012270">
        <name>Esslemont Circle</name>
      </trkpt>
      <trkpt lat="57.3696997" lon="-2.1010660">
        <name>Esslemont Circle</name>
      </trkpt>
      <trkpt lat="57.3696883" lon="-2.1009050">
        <name>Esslemont Circle</name>
      </trkpt>
      <trkpt lat="57.3696770" lon="-2.1007440">
        <name>Esslemont Circle</name>
      </trkpt>
      <trkpt lat="57.3696670" lon="-2.1006080">
        <name>Esslemont Circle</name>
      </trkpt>
      <trkpt lat="57.3696660" lon="-2.1005030">
        <name>Esslemont Circle</name>
      </trkpt>
      <trkpt lat="57.3696770" lon="-2.1003990">
        <name>Esslemont Circle</name>
      </trkpt>
      <trkpt lat="57.3697020" lon="-2.1003080">
        <name>Esslemont Circle</name>
      </trkpt>
      <trkpt lat="57.3697460" lon="-2.1002210">
        <name>Esslemont Circle</name>
      </trkpt>
      <trkpt lat="57.3697160" lon="-2.1001710">
        <name>Esslemont Circle</name>
      </trkpt>
      <trkpt lat="57.3697030" lon="-2.1001370">
        <name>Esslemont Circle</name>
      </trkpt>
      <trkpt lat="57.3696890" lon="-2.1001000">
        <name>Esslemont Circle</name>
      </trkpt>
      <trkpt lat="57.3696780" lon="-2.1000700">
        <name>Esslemont Circle</name>
      </trkpt>
      <trkpt lat="57.3696600" lon="-2.0999845">
        <name>Esslemont Circle</name>
      </trkpt>
      <trkpt lat="57.3696420" lon="-2.0998990">
        <name>Esslemont Circle</name>
      </trkpt>
      <trkpt lat="57.3696270" lon="-2.0998120">
        <name>Esslemont Circle</name>
      </trkpt>
      <trkpt lat="57.3696120" lon="-2.0997250">
        <name>Esslemont Circle</name>
      </trkpt>
      <trkpt lat="57.3696040" lon="-2.0996285">
        <name>Esslemont Circle</name>
      </trkpt>
      <trkpt lat="57.3695960" lon="-2.0995320">
        <name>Esslemont Circle</name>
      </trkpt>
      <trkpt lat="57.3695965" lon="-2.0994260">
        <name>Esslemont Circle</name>
      </trkpt>
      <trkpt lat="57.3695970" lon="-2.0993200">
        <name>Esslemont Circle</name>
      </trkpt>
      <trkpt lat="57.3696100" lon="-2.0992110">
        <name>Esslemont Circle</name>
      </trkpt>
      <trkpt lat="57.3696530" lon="-2.0991030">
        <name>Esslemont Circle</name>
      </trkpt>
      <trkpt lat="57.3696100" lon="-2.0992110">
        <name>Esslemont Circle</name>
      </trkpt>
      <trkpt lat="57.3695970" lon="-2.0993200">
        <name>Esslemont Circle</name>
      </trkpt>
      <trkpt lat="57.3695965" lon="-2.0994260">
        <name>Esslemont Circle</name>
      </trkpt>
      <trkpt lat="57.3695960" lon="-2.0995320">
        <name>Esslemont Circle</name>
      </trkpt>
      <trkpt lat="57.3696040" lon="-2.0996285">
        <name>Esslemont Circle</name>
      </trkpt>
      <trkpt lat="57.3696120" lon="-2.0997250">
        <name>Esslemont Circle</name>
      </trkpt>
      <trkpt lat="57.3696270" lon="-2.0998120">
        <name>Esslemont Circle</name>
      </trkpt>
      <trkpt lat="57.3696420" lon="-2.0998990">
        <name>Esslemont Circle</name>
      </trkpt>
      <trkpt lat="57.3696600" lon="-2.0999845">
        <name>Esslemont Circle</name>
      </trkpt>
      <trkpt lat="57.3696780" lon="-2.1000700">
        <name>Esslemont Circle</name>
      </trkpt>
      <trkpt lat="57.3697030" lon="-2.1001370">
        <name>Esslemont Circle</name>
      </trkpt>
      <trkpt lat="57.3697160" lon="-2.1001710">
        <name>Esslemont Circle</name>
      </trkpt>
      <trkpt lat="57.3697460" lon="-2.1002210">
        <name>Esslemont Circle</name>
      </trkpt>
      <trkpt lat="57.3698080" lon="-2.1001590">
        <name>Esslemont Circle</name>
      </trkpt>
      <trkpt lat="57.3698950" lon="-2.1001500">
        <name>Esslemont Circle</name>
      </trkpt>
      <trkpt lat="57.3699593" lon="-2.1001503">
        <name>Esslemont Circle</name>
      </trkpt>
      <trkpt lat="57.3700237" lon="-2.1001507">
        <name>Esslemont Circle</name>
      </trkpt>
      <trkpt lat="57.3700880" lon="-2.1001510">
        <name>Esslemont Circle</name>
      </trkpt>
      <trkpt lat="57.3700905" lon="-2.0999895">
        <name>Esslemont Circle</name>
      </trkpt>
      <trkpt lat="57.3700930" lon="-2.0998280">
        <name>Esslemont Circle</name>
      </trkpt>
      <trkpt lat="57.3700955" lon="-2.0996665">
        <name>Esslemont Circle</name>
      </trkpt>
      <trkpt lat="57.3700980" lon="-2.0995050">
        <name>Esslemont Circle</name>
      </trkpt>
      <trkpt lat="57.3700990" lon="-2.0994630">
        <name>Esslemont Circle</name>
      </trkpt>
      <trkpt lat="57.3701678" lon="-2.0994678">
        <name>Esslemont Circle</name>
      </trkpt>
      <trkpt lat="57.3702365" lon="-2.0994725">
        <name>Esslemont Circle</name>
      </trkpt>
      <trkpt lat="57.3703053" lon="-2.0994773">
        <name>Esslemont Circle</name>
      </trkpt>
      <trkpt lat="57.3703740" lon="-2.0994820">
        <name>Esslemont Circle</name>
      </trkpt>
      <trkpt lat="57.3703960" lon="-2.0994840">
        <name>Esslemont Circle</name>
      </trkpt>
      <trkpt lat="57.3703900" lon="-2.0995860">
        <name>Esslemont Circle</name>
      </trkpt>
      <trkpt lat="57.3703760" lon="-2.0996920">
        <name>Esslemont Circle</name>
      </trkpt>
      <trkpt lat="57.3703533" lon="-2.0998408">
        <name>Esslemont Circle</name>
      </trkpt>
      <trkpt lat="57.3703305" lon="-2.0999895">
        <name>Esslemont Circle</name>
      </trkpt>
      <trkpt lat="57.3703078" lon="-2.1001382">
        <name>Esslemont Circle</name>
      </trkpt>
      <trkpt lat="57.3702850" lon="-2.1002870">
        <name>Esslemont Circle</name>
      </trkpt>
      <trkpt lat="57.3702820" lon="-2.1003230">
        <name>Esslemont Circle</name>
      </trkpt>
      <trkpt lat="57.3702790" lon="-2.1003630">
        <name>Esslemont Circle</name>
      </trkpt>
      <trkpt lat="57.3702850" lon="-2.1004330">
        <name>Esslemont Circle</name>
      </trkpt>
      <trkpt lat="57.3702980" lon="-2.1005080">
        <name>Esslemont Circle</name>
      </trkpt>
      <trkpt lat="57.3703200" lon="-2.1005670">
        <name>Esslemont Circle</name>
      </trkpt>
      <trkpt lat="57.3703770" lon="-2.1006685">
        <name>Esslemont Circle</name>
      </trkpt>
      <trkpt lat="57.3704340" lon="-2.1007700">
        <name>Esslemont Circle</name>
      </trkpt>
      <trkpt lat="57.3704965" lon="-2.1008570">
        <name>Esslemont Circle</name>
      </trkpt>
      <trkpt lat="57.3705590" lon="-2.1009440">
        <name>Esslemont Circle</name>
      </trkpt>
      <trkpt lat="57.3706160" lon="-2.1010233">
        <name>Esslemont Circle</name>
      </trkpt>
      <trkpt lat="57.3706730" lon="-2.1011027">
        <name>Esslemont Circle</name>
      </trkpt>
      <trkpt lat="57.3707300" lon="-2.1011820">
        <name>Esslemont Circle</name>
      </trkpt>
      <trkpt lat="57.3707900" lon="-2.1012645">
        <name>Esslemont Circle</name>
      </trkpt>
      <trkpt lat="57.3708500" lon="-2.1013470">
        <name>Esslemont Circle</name>
      </trkpt>
      <trkpt lat="57.3709150" lon="-2.1014357">
        <name>Esslemont Circle</name>
      </trkpt>
      <trkpt lat="57.3709800" lon="-2.1015243">
        <name>Esslemont Circle</name>
      </trkpt>
      <trkpt lat="57.3710450" lon="-2.1016130">
        <name>Esslemont Circle</name>
      </trkpt>
      <trkpt lat="57.3710950" lon="-2.1016470">
        <name>Esslemont Circle</name>
      </trkpt>
      <trkpt lat="57.3711440" lon="-2.1016660">
        <name>Esslemont Circle</name>
      </trkpt>
      <trkpt lat="57.3711530" lon="-2.1016650">
        <name>Esslemont Circle</name>
      </trkpt>
      <trkpt lat="57.3711930" lon="-2.1016590">
        <name>Esslemont Circle</name>
      </trkpt>
      <trkpt lat="57.3712650" lon="-2.1016200">
        <name>Esslemont Circle</name>
      </trkpt>
      <trkpt lat="57.3712825" lon="-2.1017115">
        <name>Esslemont Circle</name>
      </trkpt>
      <trkpt lat="57.3713000" lon="-2.1018030">
        <name>Esslemont Circle</name>
      </trkpt>
      <trkpt lat="57.3713185" lon="-2.1018870">
        <name>Esslemont Circle</name>
      </trkpt>
      <trkpt lat="57.3713370" lon="-2.1019710">
        <name>Esslemont Circle</name>
      </trkpt>
      <trkpt lat="57.3713760" lon="-2.1020670">
        <name>Esslemont Circle</name>
      </trkpt>
      <trkpt lat="57.3714065" lon="-2.1021300">
        <name>Esslemont Circle</name>
      </trkpt>
      <trkpt lat="57.3714370" lon="-2.1021930">
        <name>Esslemont Circle</name>
      </trkpt>
      <trkpt lat="57.3715010" lon="-2.1023060">
        <name>Esslemont Circle</name>
      </trkpt>
      <trkpt lat="57.3715710" lon="-2.1023930">
        <name>Esslemont Circle</name>
      </trkpt>
      <trkpt lat="57.3716420" lon="-2.1024290">
        <name>Esslemont Circle</name>
      </trkpt>
      <trkpt lat="57.3716580" lon="-2.1024370">
        <name>Esslemont Circle</name>
      </trkpt>
      <trkpt lat="57.3717400" lon="-2.1024360">
        <name>Esslemont Circle</name>
      </trkpt>
      <trkpt lat="57.3718200" lon="-2.1024030">
        <name>Esslemont Circle</name>
      </trkpt>
      <trkpt lat="57.3718800" lon="-2.1023420">
        <name>Esslemont Circle</name>
      </trkpt>
      <trkpt lat="57.3719350" lon="-2.1022440">
        <name>Esslemont Circle</name>
      </trkpt>
      <trkpt lat="57.3719660" lon="-2.1021610">
        <name>Esslemont Circle</name>
      </trkpt>
      <trkpt lat="57.3719920" lon="-2.1020670">
        <name>Esslemont Circle</name>
      </trkpt>
      <trkpt lat="57.3720005" lon="-2.1019640">
        <name>Esslemont Circle</name>
      </trkpt>
      <trkpt lat="57.3720090" lon="-2.1018610">
        <name>Esslemont Circle</name>
      </trkpt>
      <trkpt lat="57.3720105" lon="-2.1017480">
        <name>Esslemont Circle</name>
      </trkpt>
      <trkpt lat="57.3720120" lon="-2.1016350">
        <name>Esslemont Circle</name>
      </trkpt>
      <trkpt lat="57.3720160" lon="-2.1014910">
        <name>Esslemont Circle</name>
      </trkpt>
      <trkpt lat="57.3720200" lon="-2.1013470">
        <name>Esslemont Circle</name>
      </trkpt>
      <trkpt lat="57.3720240" lon="-2.1012030">
        <name>Esslemont Circle</name>
      </trkpt>
      <trkpt lat="57.3720282" lon="-2.1010474">
        <name>Esslemont Circle</name>
      </trkpt>
      <trkpt lat="57.3720325" lon="-2.1008917">
        <name>Esslemont Circle</name>
      </trkpt>
      <trkpt lat="57.3720368" lon="-2.1007361">
        <name>Esslemont Circle</name>
      </trkpt>
      <trkpt lat="57.3720410" lon="-2.1005805">
        <name>Esslemont Circle</name>
      </trkpt>
      <trkpt lat="57.3720452" lon="-2.1004249">
        <name>Esslemont Circle</name>
      </trkpt>
      <trkpt lat="57.3720495" lon="-2.1002693">
        <name>Esslemont Circle</name>
      </trkpt>
      <trkpt lat="57.3720538" lon="-2.1001136">
        <name>Esslemont Circle</name>
      </trkpt>
      <trkpt lat="57.3720580" lon="-2.0999580">
        <name>Esslemont Circle</name>
      </trkpt>
      <trkpt lat="57.3720620" lon="-2.0998143">
        <name>Esslemont Circle</name>
      </trkpt>
      <trkpt lat="57.3720660" lon="-2.0996705">
        <name>Esslemont Circle</name>
      </trkpt>
      <trkpt lat="57.3720700" lon="-2.0995267">
        <name>Esslemont Circle</name>
      </trkpt>
      <trkpt lat="57.3720740" lon="-2.0993830">
        <name>Esslemont Circle</name>
      </trkpt>
      <trkpt lat="57.3720870" lon="-2.0993840">
        <name>Esslemont Circle</name>
      </trkpt>
      <trkpt lat="57.3721747" lon="-2.0993918">
        <name>Esslemont Circle</name>
      </trkpt>
      <trkpt lat="57.3722625" lon="-2.0993995">
        <name>Esslemont Circle</name>
      </trkpt>
      <trkpt lat="57.3723503" lon="-2.0994073">
        <name>Esslemont Circle</name>
      </trkpt>
      <trkpt lat="57.3724380" lon="-2.0994150">
        <name>Esslemont Circle</name>
      </trkpt>
      <trkpt lat="57.3724405" lon="-2.0993080">
        <name>Esslemont Circle</name>
      </trkpt>
      <trkpt lat="57.3724430" lon="-2.0992010">
        <name>Esslemont Circle</name>
      </trkpt>
      <trkpt lat="57.3724405" lon="-2.0992985">
        <name>Esslemont Circle</name>
      </trkpt>
      <trkpt lat="57.3724380" lon="-2.0993960">
        <name>Esslemont Circle</name>
      </trkpt>
      <trkpt lat="57.3724380" lon="-2.0994150">
        <name>Esslemont Circle</name>
      </trkpt>
      <trkpt lat="57.3723652" lon="-2.0994086">
        <name>Esslemont Circle</name>
      </trkpt>
      <trkpt lat="57.3722924" lon="-2.0994022">
        <name>Esslemont Circle</name>
      </trkpt>
      <trkpt lat="57.3722196" lon="-2.0993958">
        <name>Esslemont Circle</name>
      </trkpt>
      <trkpt lat="57.3721468" lon="-2.0993894">
        <name>Esslemont Circle</name>
      </trkpt>
      <trkpt lat="57.3720740" lon="-2.0993830">
        <name>Esslemont Circle</name>
      </trkpt>
      <trkpt lat="57.3720699" lon="-2.0995321">
        <name>Esslemont Circle</name>
      </trkpt>
      <trkpt lat="57.3720657" lon="-2.0996813">
        <name>Esslemont Circle</name>
      </trkpt>
      <trkpt lat="57.3720616" lon="-2.0998304">
        <name>Esslemont Circle</name>
      </trkpt>
      <trkpt lat="57.3720574" lon="-2.0999796">
        <name>Esslemont Circle</name>
      </trkpt>
      <trkpt lat="57.3720533" lon="-2.1001287">
        <name>Esslemont Circle</name>
      </trkpt>
      <trkpt lat="57.3720491" lon="-2.1002779">
        <name>Esslemont Circle</name>
      </trkpt>
      <trkpt lat="57.3720450" lon="-2.1004270">
        <name>Esslemont Circle</name>
      </trkpt>
      <trkpt lat="57.3720409" lon="-2.1005780">
        <name>Esslemont Circle</name>
      </trkpt>
      <trkpt lat="57.3720367" lon="-2.1007290">
        <name>Esslemont Circle</name>
      </trkpt>
      <trkpt lat="57.3720326" lon="-2.1008800">
        <name>Esslemont Circle</name>
      </trkpt>
      <trkpt lat="57.3720285" lon="-2.1010310">
        <name>Esslemont Circle</name>
      </trkpt>
      <trkpt lat="57.3720244" lon="-2.1011820">
        <name>Esslemont Circle</name>
      </trkpt>
      <trkpt lat="57.3720202" lon="-2.1013330">
        <name>Esslemont Circle</name>
      </trkpt>
      <trkpt lat="57.3720161" lon="-2.1014840">
        <name>Esslemont Circle</name>
      </trkpt>
      <trkpt lat="57.3720120" lon="-2.1016350">
        <name>Esslemont Circle</name>
      </trkpt>
      <trkpt lat="57.3720105" lon="-2.1017480">
        <name>Esslemont Circle</name>
      </trkpt>
      <trkpt lat="57.3720090" lon="-2.1018610">
        <name>Esslemont Circle</name>
      </trkpt>
      <trkpt lat="57.3720005" lon="-2.1019640">
        <name>Esslemont Circle</name>
      </trkpt>
      <trkpt lat="57.3719920" lon="-2.1020670">
        <name>Esslemont Circle</name>
      </trkpt>
      <trkpt lat="57.3719660" lon="-2.1021610">
        <name>Esslemont Circle</name>
      </trkpt>
      <trkpt lat="57.3719350" lon="-2.1022440">
        <name>Esslemont Circle</name>
      </trkpt>
      <trkpt lat="57.3718870" lon="-2.1023300">
        <name>Esslemont Circle</name>
      </trkpt>
      <trkpt lat="57.3718800" lon="-2.1023420">
        <name>Esslemont Circle</name>
      </trkpt>
      <trkpt lat="57.3718200" lon="-2.1024030">
        <name>Esslemont Circle</name>
      </trkpt>
      <trkpt lat="57.3717400" lon="-2.1024360">
        <name>Esslemont Circle</name>
      </trkpt>
      <trkpt lat="57.3716580" lon="-2.1024370">
        <name>Esslemont Circle</name>
      </trkpt>
      <trkpt lat="57.3716145" lon="-2.1024150">
        <name>Esslemont Circle</name>
      </trkpt>
      <trkpt lat="57.3715710" lon="-2.1023930">
        <name>Esslemont Circle</name>
      </trkpt>
      <trkpt lat="57.3715010" lon="-2.1023060">
        <name>Esslemont Circle</name>
      </trkpt>
      <trkpt lat="57.3714370" lon="-2.1021930">
        <name>Esslemont Circle</name>
      </trkpt>
      <trkpt lat="57.3714065" lon="-2.1021300">
        <name>Esslemont Circle</name>
      </trkpt>
      <trkpt lat="57.3713760" lon="-2.1020670">
        <name>Esslemont Circle</name>
      </trkpt>
      <trkpt lat="57.3713370" lon="-2.1019710">
        <name>Esslemont Circle</name>
      </trkpt>
      <trkpt lat="57.3713185" lon="-2.1018870">
        <name>Esslemont Circle</name>
      </trkpt>
      <trkpt lat="57.3713000" lon="-2.1018030">
        <name>Esslemont Circle</name>
      </trkpt>
      <trkpt lat="57.3712825" lon="-2.1017115">
        <name>Esslemont Circle</name>
      </trkpt>
      <trkpt lat="57.3712650" lon="-2.1016200">
        <name>Esslemont Circle</name>
      </trkpt>
      <trkpt lat="57.3713160" lon="-2.1015640">
        <name>Esslemont Circle</name>
      </trkpt>
      <trkpt lat="57.3713600" lon="-2.1014820">
        <name>Esslemont Circle</name>
      </trkpt>
      <trkpt lat="57.3713950" lon="-2.1013800">
        <name>Esslemont Circle</name>
      </trkpt>
      <trkpt lat="57.3714250" lon="-2.1012360">
        <name>Esslemont Circle</name>
      </trkpt>
      <trkpt lat="57.3714365" lon="-2.1011105">
        <name>Esslemont Circle</name>
      </trkpt>
      <trkpt lat="57.3714480" lon="-2.1009850">
        <name>Esslemont Circle</name>
      </trkpt>
      <trkpt lat="57.3714555" lon="-2.1009020">
        <name>Esslemont Circle</name>
      </trkpt>
      <trkpt lat="57.3714630" lon="-2.1008190">
        <name>Esslemont Circle</name>
      </trkpt>
      <trkpt lat="57.3714690" lon="-2.1007000">
        <name>Esslemont Circle</name>
      </trkpt>
      <trkpt lat="57.3714750" lon="-2.1005810">
        <name>Esslemont Circle</name>
      </trkpt>
      <trkpt lat="57.3714810" lon="-2.1004620">
        <name>Esslemont Circle</name>
      </trkpt>
      <trkpt lat="57.3714867" lon="-2.1003510">
        <name>Esslemont Circle</name>
      </trkpt>
      <trkpt lat="57.3714923" lon="-2.1002400">
        <name>Esslemont Circle</name>
      </trkpt>
      <trkpt lat="57.3714980" lon="-2.1001290">
        <name>Esslemont Circle</name>
      </trkpt>
      <trkpt lat="57.3715017" lon="-2.1000080">
        <name>Esslemont Circle</name>
      </trkpt>
      <trkpt lat="57.3715053" lon="-2.0998870">
        <name>Esslemont Circle</name>
      </trkpt>
      <trkpt lat="57.3715090" lon="-2.0997660">
        <name>Esslemont Circle</name>
      </trkpt>
      <trkpt lat="57.3715143" lon="-2.0996050">
        <name>Esslemont Circle</name>
      </trkpt>
      <trkpt lat="57.3715195" lon="-2.0994440">
        <name>Esslemont Circle</name>
      </trkpt>
      <trkpt lat="57.3715247" lon="-2.0992830">
        <name>Esslemont Circle</name>
      </trkpt>
      <trkpt lat="57.3715300" lon="-2.0991220">
        <name>Esslemont Circle</name>
      </trkpt>
      <trkpt lat="57.3715340" lon="-2.0989860">
        <name>Esslemont Circle</name>
      </trkpt>
      <trkpt lat="57.3715315" lon="-2.0988510">
        <name>Esslemont Circle</name>
      </trkpt>
      <trkpt lat="57.3715290" lon="-2.0987160">
        <name>Esslemont Circle</name>
      </trkpt>
      <trkpt lat="57.3715030" lon="-2.0985700">
        <name>Esslemont Circle</name>
      </trkpt>
      <trkpt lat="57.3714970" lon="-2.0985330">
        <name>Craigs Road</name>
      </trkpt>
      <trkpt lat="57.3714680" lon="-2.0984440">
        <name>Craigs Road</name>
      </trkpt>
      <trkpt lat="57.3714345" lon="-2.0983590">
        <name>Craigs Road</name>
      </trkpt>
      <trkpt lat="57.3714010" lon="-2.0982740">
        <name>Craigs Road</name>
      </trkpt>
      <trkpt lat="57.3713610" lon="-2.0981910">
        <name>Craigs Road</name>
      </trkpt>
      <trkpt lat="57.3713210" lon="-2.0981080">
        <name>Craigs Road</name>
      </trkpt>
      <trkpt lat="57.3712825" lon="-2.0981580">
        <name>Craigs Road</name>
      </trkpt>
      <trkpt lat="57.3712440" lon="-2.0982080">
        <name>Craigs Road</name>
      </trkpt>
      <trkpt lat="57.3711990" lon="-2.0982655">
        <name>Craigs Road</name>
      </trkpt>
      <trkpt lat="57.3711540" lon="-2.0983230">
        <name>Craigs Road</name>
      </trkpt>
      <trkpt lat="57.3711045" lon="-2.0983940">
        <name>Craigpark Circle</name>
      </trkpt>
      <trkpt lat="57.3710550" lon="-2.0984650">
        <name>Craigpark Circle</name>
      </trkpt>
      <trkpt lat="57.3710430" lon="-2.0984990">
        <name>Craigpark Circle</name>
      </trkpt>
      <trkpt lat="57.3710330" lon="-2.0985270">
        <name>Craigpark Circle</name>
      </trkpt>
      <trkpt lat="57.3710140" lon="-2.0985920">
        <name>Craigpark Circle</name>
      </trkpt>
      <trkpt lat="57.3710050" lon="-2.0986800">
        <name>Craigpark Circle</name>
      </trkpt>
      <trkpt lat="57.3710020" lon="-2.0987970">
        <name>Craigpark Circle</name>
      </trkpt>
      <trkpt lat="57.3710035" lon="-2.0989145">
        <name>Craigpark Circle</name>
      </trkpt>
      <trkpt lat="57.3710050" lon="-2.0990320">
        <name>Craigpark Circle</name>
      </trkpt>
      <trkpt lat="57.3710070" lon="-2.0991755">
        <name>Craigpark Circle</name>
      </trkpt>
      <trkpt lat="57.3710090" lon="-2.0993190">
        <name>Craigpark Circle</name>
      </trkpt>
      <trkpt lat="57.3710110" lon="-2.0994625">
        <name>Craigpark Circle</name>
      </trkpt>
      <trkpt lat="57.3710130" lon="-2.0996060">
        <name>Craigpark Circle</name>
      </trkpt>
      <trkpt lat="57.3710120" lon="-2.0996950">
        <name>Craigpark Circle</name>
      </trkpt>
      <trkpt lat="57.3710110" lon="-2.0997840">
        <name>Craigpark Circle</name>
      </trkpt>
      <trkpt lat="57.3710100" lon="-2.0998220">
        <name>Craigpark Circle</name>
      </trkpt>
      <trkpt lat="57.3710015" lon="-2.0999465">
        <name>Craigpark Circle</name>
      </trkpt>
      <trkpt lat="57.3709930" lon="-2.1000710">
        <name>Craigpark Circle</name>
      </trkpt>
      <trkpt lat="57.3709800" lon="-2.1001775">
        <name>Craigpark Circle</name>
      </trkpt>
      <trkpt lat="57.3709670" lon="-2.1002840">
        <name>Craigpark Circle</name>
      </trkpt>
      <trkpt lat="57.3709480" lon="-2.1003875">
        <name>Craigpark Circle</name>
      </trkpt>
      <trkpt lat="57.3709290" lon="-2.1004910">
        <name>Craigpark Circle</name>
      </trkpt>
      <trkpt lat="57.3709060" lon="-2.1006170">
        <name>Craigpark Circle</name>
      </trkpt>
      <trkpt lat="57.3708765" lon="-2.1007370">
        <name>Craigpark Circle</name>
      </trkpt>
      <trkpt lat="57.3708470" lon="-2.1008570">
        <name>Craigpark Circle</name>
      </trkpt>
      <trkpt lat="57.3708180" lon="-2.1009375">
        <name>Craigpark Circle</name>
      </trkpt>
      <trkpt lat="57.3707890" lon="-2.1010180">
        <name>Craigpark Circle</name>
      </trkpt>
      <trkpt lat="57.3707595" lon="-2.1011000">
        <name>Craigpark Circle</name>
      </trkpt>
      <trkpt lat="57.3707300" lon="-2.1011820">
        <name>Craigpark Circle</name>
      </trkpt>
      <trkpt lat="57.3706643" lon="-2.1010905">
        <name>Craigpark Circle</name>
      </trkpt>
      <trkpt lat="57.3705985" lon="-2.1009990">
        <name>Craigpark Circle</name>
      </trkpt>
      <trkpt lat="57.3705327" lon="-2.1009075">
        <name>Craigpark Circle</name>
      </trkpt>
      <trkpt lat="57.3704670" lon="-2.1008160">
        <name>Craigpark Circle</name>
      </trkpt>
      <trkpt lat="57.3704340" lon="-2.1007700">
        <name>Craigpark Circle</name>
      </trkpt>
      <trkpt lat="57.3703770" lon="-2.1006685">
        <name>Craigpark Circle</name>
      </trkpt>
      <trkpt lat="57.3703200" lon="-2.1005670">
        <name>Craigpark Circle</name>
      </trkpt>
      <trkpt lat="57.3702980" lon="-2.1005080">
        <name>Craigpark Circle</name>
      </trkpt>
      <trkpt lat="57.3702850" lon="-2.1004330">
        <name>Craigpark Circle</name>
      </trkpt>
      <trkpt lat="57.3702790" lon="-2.1003630">
        <name>Craigpark Circle</name>
      </trkpt>
      <trkpt lat="57.3702850" lon="-2.1002870">
        <name>Craigpark Circle</name>
      </trkpt>
      <trkpt lat="57.3703078" lon="-2.1001382">
        <name>Craigpark Circle</name>
      </trkpt>
      <trkpt lat="57.3703305" lon="-2.0999895">
        <name>Craigpark Circle</name>
      </trkpt>
      <trkpt lat="57.3703533" lon="-2.0998408">
        <name>Craigpark Circle</name>
      </trkpt>
      <trkpt lat="57.3703760" lon="-2.0996920">
        <name>Craigpark Circle</name>
      </trkpt>
      <trkpt lat="57.3703900" lon="-2.0995860">
        <name>Craigpark Circle</name>
      </trkpt>
      <trkpt lat="57.3703960" lon="-2.0994840">
        <name>Craigpark Circle</name>
      </trkpt>
      <trkpt lat="57.3703930" lon="-2.0993350">
        <name>Craigpark Circle</name>
      </trkpt>
      <trkpt lat="57.3703875" lon="-2.0992480">
        <name>Craigpark Circle</name>
      </trkpt>
      <trkpt lat="57.3703820" lon="-2.0991610">
        <name>Craigpark Circle</name>
      </trkpt>
      <trkpt lat="57.3703760" lon="-2.0990970">
        <name>Craigpark Circle</name>
      </trkpt>
      <trkpt lat="57.3703630" lon="-2.0989675">
        <name>Craigpark Circle</name>
      </trkpt>
      <trkpt lat="57.3703500" lon="-2.0988380">
        <name>Craigpark Circle</name>
      </trkpt>
      <trkpt lat="57.3703370" lon="-2.0987085">
        <name>Craigpark Circle</name>
      </trkpt>
      <trkpt lat="57.3703240" lon="-2.0985790">
        <name>Craigpark Circle</name>
      </trkpt>
      <trkpt lat="57.3703205" lon="-2.0984635">
        <name>Craigpark Circle</name>
      </trkpt>
      <trkpt lat="57.3703170" lon="-2.0983480">
        <name>Craigpark Circle</name>
      </trkpt>
      <trkpt lat="57.3703127" lon="-2.0981910">
        <name>Craigpark Circle</name>
      </trkpt>
      <trkpt lat="57.3703083" lon="-2.0980340">
        <name>Craigpark Circle</name>
      </trkpt>
      <trkpt lat="57.3703040" lon="-2.0978770">
        <name>Craigpark Circle</name>
      </trkpt>
      <trkpt lat="57.3703005" lon="-2.0977515">
        <name>Craigpark Circle</name>
      </trkpt>
      <trkpt lat="57.3702970" lon="-2.0976260">
        <name>Craigpark Circle</name>
      </trkpt>
      <trkpt lat="57.3703070" lon="-2.0975440">
        <name>Craigpark Circle</name>
      </trkpt>
      <trkpt lat="57.3703330" lon="-2.0974870">
        <name>Craigpark Circle</name>
      </trkpt>
      <trkpt lat="57.3703510" lon="-2.0974670">
        <name>Craigpark Circle</name>
      </trkpt>
      <trkpt lat="57.3703610" lon="-2.0974560">
        <name>Craigpark Place</name>
      </trkpt>
      <trkpt lat="57.3703990" lon="-2.0974450">
        <name>Craigpark Place</name>
      </trkpt>
      <trkpt lat="57.3704460" lon="-2.0974340">
        <name>Craigpark Place</name>
      </trkpt>
      <trkpt lat="57.3705317" lon="-2.0974147">
        <name>Craigpark Place</name>
      </trkpt>
      <trkpt lat="57.3706173" lon="-2.0973953">
        <name>Craigpark Place</name>
      </trkpt>
      <trkpt lat="57.3707030" lon="-2.0973760">
        <name>Craigpark Place</name>
      </trkpt>
      <trkpt lat="57.3707450" lon="-2.0973660">
        <name>Craigpark Place</name>
      </trkpt>
      <trkpt lat="57.3708265" lon="-2.0973475">
        <name>Craigpark Place</name>
      </trkpt>
      <trkpt lat="57.3709080" lon="-2.0973290">
        <name>Craigpark Place</name>
      </trkpt>
      <trkpt lat="57.3709330" lon="-2.0973230">
        <name>Craigpark Place</name>
      </trkpt>
      <trkpt lat="57.3709327" lon="-2.0974600">
        <name>Craigpark Place</name>
      </trkpt>
      <trkpt lat="57.3709323" lon="-2.0975970">
        <name>Craigpark Place</name>
      </trkpt>
      <trkpt lat="57.3709320" lon="-2.0977340">
        <name>Craigpark Place</name>
      </trkpt>
      <trkpt lat="57.3709320" lon="-2.0978355">
        <name>Craigpark Place</name>
      </trkpt>
      <trkpt lat="57.3709320" lon="-2.0979370">
        <name>Craigpark Place</name>
      </trkpt>
      <trkpt lat="57.3709350" lon="-2.0979740">
        <name>Craigpark Place</name>
      </trkpt>
      <trkpt lat="57.3709430" lon="-2.0980810">
        <name>Craigpark Place</name>
      </trkpt>
      <trkpt lat="57.3709780" lon="-2.0982300">
        <name>Craigpark Place</name>
      </trkpt>
      <trkpt lat="57.3709970" lon="-2.0983050">
        <name>Craigpark Place</name>
      </trkpt>
      <trkpt lat="57.3710090" lon="-2.0983500">
        <name>Craigpark Place</name>
      </trkpt>
      <trkpt lat="57.3710550" lon="-2.0984650">
        <name>Craigpark Place</name>
      </trkpt>
      <trkpt lat="57.3711045" lon="-2.0983940">
        <name>Craigpark Place</name>
      </trkpt>
      <trkpt lat="57.3711540" lon="-2.0983230">
        <name>Craigpark Place</name>
      </trkpt>
      <trkpt lat="57.3712097" lon="-2.0982513">
        <name>Craigpark Place</name>
      </trkpt>
      <trkpt lat="57.3712653" lon="-2.0981797">
        <name>Craigpark Place</name>
      </trkpt>
      <trkpt lat="57.3713210" lon="-2.0981080">
        <name>Craigpark Place</name>
      </trkpt>
      <trkpt lat="57.3713790" lon="-2.0980040">
        <name>Craigpark Place</name>
      </trkpt>
      <trkpt lat="57.3714050" lon="-2.0979320">
        <name>Craigpark Place</name>
      </trkpt>
      <trkpt lat="57.3714320" lon="-2.0978590">
        <name>Craigpark Place</name>
      </trkpt>
      <trkpt lat="57.3714520" lon="-2.0977705">
        <name>Craigpark Place</name>
      </trkpt>
      <trkpt lat="57.3714720" lon="-2.0976820">
        <name>Craigpark Place</name>
      </trkpt>
      <trkpt lat="57.3714775" lon="-2.0975945">
        <name>Craigpark Place</name>
      </trkpt>
      <trkpt lat="57.3714830" lon="-2.0975070">
        <name>Craigpark Place</name>
      </trkpt>
      <trkpt lat="57.3714900" lon="-2.0974010">
        <name>Craigpark Place</name>
      </trkpt>
      <trkpt lat="57.3714935" lon="-2.0972360">
        <name>Craigpark Place</name>
      </trkpt>
      <trkpt lat="57.3714970" lon="-2.0970710">
        <name>Craigpark Place</name>
      </trkpt>
      <trkpt lat="57.3715005" lon="-2.0969060">
        <name>Craigpark Place</name>
      </trkpt>
      <trkpt lat="57.3715040" lon="-2.0967410">
        <name>Craigpark Place</name>
      </trkpt>
      <trkpt lat="57.3715070" lon="-2.0965967">
        <name>Craigpark Place</name>
      </trkpt>
      <trkpt lat="57.3715100" lon="-2.0964523">
        <name>Craigpark Place</name>
      </trkpt>
      <trkpt lat="57.3715130" lon="-2.0963080">
        <name>Craigpark Place</name>
      </trkpt>
      <trkpt lat="57.3715120" lon="-2.0962220">
        <name>Craigpark Place</name>
      </trkpt>
      <trkpt lat="57.3715110" lon="-2.0960870">
        <name>Craigpark Place</name>
      </trkpt>
      <trkpt lat="57.3715100" lon="-2.0959520">
        <name>Craigpark Place</name>
      </trkpt>
      <trkpt lat="57.3715090" lon="-2.0958170">
        <name>Craigpark Place</name>
      </trkpt>
      <trkpt lat="57.3714900" lon="-2.0957050">
        <name>Craigpark Place</name>
      </trkpt>
      <trkpt lat="57.3714710" lon="-2.0955930">
        <name>Craigpark Place</name>
      </trkpt>
      <trkpt lat="57.3714345" lon="-2.0955055">
        <name>Craigpark Place</name>
      </trkpt>
      <trkpt lat="57.3713980" lon="-2.0954180">
        <name>Craigpark Place</name>
      </trkpt>
      <trkpt lat="57.3713363" lon="-2.0953249">
        <name>Craigpark Place</name>
      </trkpt>
      <trkpt lat="57.3712746" lon="-2.0952317">
        <name>Craigpark Place</name>
      </trkpt>
      <trkpt lat="57.3712129" lon="-2.0951386">
        <name>Craigpark Place</name>
      </trkpt>
      <trkpt lat="57.3711511" lon="-2.0950454">
        <name>Craigpark Place</name>
      </trkpt>
      <trkpt lat="57.3710894" lon="-2.0949523">
        <name>Craigpark Place</name>
      </trkpt>
      <trkpt lat="57.3710277" lon="-2.0948591">
        <name>Craigpark Place</name>
      </trkpt>
      <trkpt lat="57.3709660" lon="-2.0947660">
        <name>Craigpark Place</name>
      </trkpt>
      <trkpt lat="57.3709290" lon="-2.0948475">
        <name>Craigpark Place</name>
      </trkpt>
      <trkpt lat="57.3708920" lon="-2.0949290">
        <name>Craigpark Place</name>
      </trkpt>
      <trkpt lat="57.3708650" lon="-2.0950300">
        <name>Craigpark Place</name>
      </trkpt>
      <trkpt lat="57.3708420" lon="-2.0951310">
        <name>Craigpark Place</name>
      </trkpt>
      <trkpt lat="57.3708340" lon="-2.0952670">
        <name>Craigpark Place</name>
      </trkpt>
      <trkpt lat="57.3708340" lon="-2.0953615">
        <name>Craigpark Place</name>
      </trkpt>
      <trkpt lat="57.3708340" lon="-2.0954560">
        <name>Craigpark Place</name>
      </trkpt>
      <trkpt lat="57.3708400" lon="-2.0955495">
        <name>Craigpark Place</name>
      </trkpt>
      <trkpt lat="57.3708460" lon="-2.0956430">
        <name>Craigpark Place</name>
      </trkpt>
      <trkpt lat="57.3708620" lon="-2.0957967">
        <name>Craigpark Place</name>
      </trkpt>
      <trkpt lat="57.3708780" lon="-2.0959505">
        <name>Craigpark Place</name>
      </trkpt>
      <trkpt lat="57.3708940" lon="-2.0961043">
        <name>Craigpark Place</name>
      </trkpt>
      <trkpt lat="57.3709100" lon="-2.0962580">
        <name>Craigpark Place</name>
      </trkpt>
      <trkpt lat="57.3709185" lon="-2.0963540">
        <name>Craigpark Place</name>
      </trkpt>
      <trkpt lat="57.3709270" lon="-2.0964500">
        <name>Craigpark Place</name>
      </trkpt>
      <trkpt lat="57.3709310" lon="-2.0965725">
        <name>Craigpark Place</name>
      </trkpt>
      <trkpt lat="57.3709350" lon="-2.0966950">
        <name>Craigpark Place</name>
      </trkpt>
      <trkpt lat="57.3709345" lon="-2.0968520">
        <name>Craigpark Place</name>
      </trkpt>
      <trkpt lat="57.3709340" lon="-2.0970090">
        <name>Craigpark Place</name>
      </trkpt>
      <trkpt lat="57.3709335" lon="-2.0971660">
        <name>Craigpark Place</name>
      </trkpt>
      <trkpt lat="57.3709330" lon="-2.0973230">
        <name>Craigpark Place</name>
      </trkpt>
      <trkpt lat="57.3709327" lon="-2.0974600">
        <name>Craigpark Place</name>
      </trkpt>
      <trkpt lat="57.3709323" lon="-2.0975970">
        <name>Craigpark Place</name>
      </trkpt>
      <trkpt lat="57.3709320" lon="-2.0977340">
        <name>Craigpark Place</name>
      </trkpt>
      <trkpt lat="57.3709320" lon="-2.0978355">
        <name>Craigpark Place</name>
      </trkpt>
      <trkpt lat="57.3709320" lon="-2.0979370">
        <name>Craigpark Place</name>
      </trkpt>
      <trkpt lat="57.3709430" lon="-2.0980810">
        <name>Craigpark Place</name>
      </trkpt>
      <trkpt lat="57.3709780" lon="-2.0982300">
        <name>Craigpark Place</name>
      </trkpt>
      <trkpt lat="57.3710090" lon="-2.0983500">
        <name>Craigpark Place</name>
      </trkpt>
      <trkpt lat="57.3710550" lon="-2.0984650">
        <name>Craigpark Place</name>
      </trkpt>
      <trkpt lat="57.3711045" lon="-2.0983940">
        <name>Craigpark Place</name>
      </trkpt>
      <trkpt lat="57.3711540" lon="-2.0983230">
        <name>Craigpark Place</name>
      </trkpt>
      <trkpt lat="57.3712097" lon="-2.0982513">
        <name>Craigpark Place</name>
      </trkpt>
      <trkpt lat="57.3712653" lon="-2.0981797">
        <name>Craigpark Place</name>
      </trkpt>
      <trkpt lat="57.3713210" lon="-2.0981080">
        <name>Craigpark Place</name>
      </trkpt>
      <trkpt lat="57.3713790" lon="-2.0980040">
        <name>Craigpark Place</name>
      </trkpt>
      <trkpt lat="57.3714055" lon="-2.0979315">
        <name>Craigpark Place</name>
      </trkpt>
      <trkpt lat="57.3714320" lon="-2.0978590">
        <name>Craigpark Place</name>
      </trkpt>
      <trkpt lat="57.3714520" lon="-2.0977705">
        <name>Craigpark Place</name>
      </trkpt>
      <trkpt lat="57.3714720" lon="-2.0976820">
        <name>Craigpark Place</name>
      </trkpt>
      <trkpt lat="57.3714810" lon="-2.0975415">
        <name>Craigpark Place</name>
      </trkpt>
      <trkpt lat="57.3714900" lon="-2.0974010">
        <name>Craigpark Place</name>
      </trkpt>
      <trkpt lat="57.3714933" lon="-2.0972449">
        <name>Craigpark Place</name>
      </trkpt>
      <trkpt lat="57.3714966" lon="-2.0970887">
        <name>Craigpark Place</name>
      </trkpt>
      <trkpt lat="57.3714999" lon="-2.0969326">
        <name>Craigpark Place</name>
      </trkpt>
      <trkpt lat="57.3715031" lon="-2.0967764">
        <name>Craigpark Place</name>
      </trkpt>
      <trkpt lat="57.3715064" lon="-2.0966203">
        <name>Craigpark Place</name>
      </trkpt>
      <trkpt lat="57.3715097" lon="-2.0964641">
        <name>Craigpark Place</name>
      </trkpt>
      <trkpt lat="57.3715130" lon="-2.0963080">
        <name>Craigpark Place</name>
      </trkpt>
      <trkpt lat="57.3715880" lon="-2.0963133">
        <name>Craigpark Place</name>
      </trkpt>
      <trkpt lat="57.3716630" lon="-2.0963187">
        <name>Craigpark Place</name>
      </trkpt>
      <trkpt lat="57.3717380" lon="-2.0963240">
        <name>Craigpark Place</name>
      </trkpt>
      <trkpt lat="57.3718080" lon="-2.0963293">
        <name>Craigpark Place</name>
      </trkpt>
      <trkpt lat="57.3718780" lon="-2.0963345">
        <name>Craigpark Place</name>
      </trkpt>
      <trkpt lat="57.3719480" lon="-2.0963397">
        <name>Craigpark Place</name>
      </trkpt>
      <trkpt lat="57.3720180" lon="-2.0963450">
        <name>Craigpark Place</name>
      </trkpt>
      <trkpt lat="57.3720760" lon="-2.0963490">
        <name>Craigpark Place</name>
      </trkpt>
      <trkpt lat="57.3721340" lon="-2.0963530">
        <name>Craigpark Place</name>
      </trkpt>
      <trkpt lat="57.3721313" lon="-2.0964875">
        <name>Craigpark Place</name>
      </trkpt>
      <trkpt lat="57.3721285" lon="-2.0966220">
        <name>Craigpark Place</name>
      </trkpt>
      <trkpt lat="57.3721258" lon="-2.0967565">
        <name>Craigpark Place</name>
      </trkpt>
      <trkpt lat="57.3721230" lon="-2.0968910">
        <name>Craigpark Place</name>
      </trkpt>
      <trkpt lat="57.3721200" lon="-2.0970496">
        <name>Craigpark Place</name>
      </trkpt>
      <trkpt lat="57.3721170" lon="-2.0972081">
        <name>Craigpark Place</name>
      </trkpt>
      <trkpt lat="57.3721140" lon="-2.0973667">
        <name>Craigpark Place</name>
      </trkpt>
      <trkpt lat="57.3721110" lon="-2.0975253">
        <name>Craigpark Place</name>
      </trkpt>
      <trkpt lat="57.3721080" lon="-2.0976839">
        <name>Craigpark Place</name>
      </trkpt>
      <trkpt lat="57.3721050" lon="-2.0978424">
        <name>Craigpark Place</name>
      </trkpt>
      <trkpt lat="57.3721020" lon="-2.0980010">
        <name>Craigpark Place</name>
      </trkpt>
      <trkpt lat="57.3721010" lon="-2.0980280">
        <name>Craigpark Place</name>
      </trkpt>
      <trkpt lat="57.3721040" lon="-2.0980920">
        <name>Craigpark Place</name>
      </trkpt>
      <trkpt lat="57.3721130" lon="-2.0981540">
        <name>Craigpark Place</name>
      </trkpt>
      <trkpt lat="57.3721420" lon="-2.0982570">
        <name>Craigpark Place</name>
      </trkpt>
      <trkpt lat="57.3722030" lon="-2.0983730">
        <name>Craigpark Place</name>
      </trkpt>
      <trkpt lat="57.3722370" lon="-2.0984100">
        <name>Craigpark Place</name>
      </trkpt>
      <trkpt lat="57.3722770" lon="-2.0984410">
        <name>Craigpark Place</name>
      </trkpt>
      <trkpt lat="57.3723020" lon="-2.0984440">
        <name>Craigpark Place</name>
      </trkpt>
      <trkpt lat="57.3723770" lon="-2.0984540">
        <name>Craigpark Place</name>
      </trkpt>
      <trkpt lat="57.3724520" lon="-2.0984640">
        <name>Craigpark Place</name>
      </trkpt>
      <trkpt lat="57.3725360" lon="-2.0984400">
        <name>Craigpark Place</name>
      </trkpt>
      <trkpt lat="57.3725745" lon="-2.0983940">
        <name>Craigpark Place</name>
      </trkpt>
      <trkpt lat="57.3726130" lon="-2.0983480">
        <name>Craigpark Place</name>
      </trkpt>
      <trkpt lat="57.3726600" lon="-2.0982190">
        <name>Craigpark Place</name>
      </trkpt>
      <trkpt lat="57.3727040" lon="-2.0980772">
        <name>Craigpark Place</name>
      </trkpt>
      <trkpt lat="57.3727480" lon="-2.0979354">
        <name>Craigpark Place</name>
      </trkpt>
      <trkpt lat="57.3727920" lon="-2.0977936">
        <name>Craigpark Place</name>
      </trkpt>
      <trkpt lat="57.3728360" lon="-2.0976518">
        <name>Craigpark Place</name>
      </trkpt>
      <trkpt lat="57.3728800" lon="-2.0975100">
        <name>Craigpark Place</name>
      </trkpt>
      <trkpt lat="57.3729180" lon="-2.0973880">
        <name>Craigpark Place</name>
      </trkpt>
      <trkpt lat="57.3729543" lon="-2.0972537">
        <name>Craigpark Place</name>
      </trkpt>
      <trkpt lat="57.3729907" lon="-2.0971193">
        <name>Craigpark Place</name>
      </trkpt>
      <trkpt lat="57.3730270" lon="-2.0969850">
        <name>Craigpark Place</name>
      </trkpt>
      <trkpt lat="57.3730608" lon="-2.0968592">
        <name>Craigpark Circle</name>
      </trkpt>
      <trkpt lat="57.3730947" lon="-2.0967333">
        <name>Craigpark Circle</name>
      </trkpt>
      <trkpt lat="57.3731285" lon="-2.0966075">
        <name>Craigpark Circle</name>
      </trkpt>
      <trkpt lat="57.3731623" lon="-2.0964817">
        <name>Craigpark Circle</name>
      </trkpt>
      <trkpt lat="57.3731962" lon="-2.0963558">
        <name>Craigpark Circle</name>
      </trkpt>
      <trkpt lat="57.3732300" lon="-2.0962300">
        <name>Craigpark Circle</name>
      </trkpt>
      <trkpt lat="57.3732600" lon="-2.0961187">
        <name>Craigpark Circle</name>
      </trkpt>
      <trkpt lat="57.3732900" lon="-2.0960073">
        <name>Craigpark Circle</name>
      </trkpt>
      <trkpt lat="57.3733200" lon="-2.0958960">
        <name>Craigpark Circle</name>
      </trkpt>
      <trkpt lat="57.3733250" lon="-2.0957910">
        <name>Craigpark Circle</name>
      </trkpt>
      <trkpt lat="57.3733300" lon="-2.0956860">
        <name>Craigpark Circle</name>
      </trkpt>
      <trkpt lat="57.3733085" lon="-2.0956030">
        <name>Craigpark Circle</name>
      </trkpt>
      <trkpt lat="57.3732870" lon="-2.0955200">
        <name>Craigpark Circle</name>
      </trkpt>
      <trkpt lat="57.3732760" lon="-2.0955050">
        <name>Craigpark Circle</name>
      </trkpt>
      <trkpt lat="57.3732173" lon="-2.0954213">
        <name>Craigpark Circle</name>
      </trkpt>
      <trkpt lat="57.3731587" lon="-2.0953377">
        <name>Craigpark Circle</name>
      </trkpt>
      <trkpt lat="57.3731000" lon="-2.0952540">
        <name>Craigpark Circle</name>
      </trkpt>
      <trkpt lat="57.3730625" lon="-2.0952005">
        <name>Craigpark Circle</name>
      </trkpt>
      <trkpt lat="57.3730250" lon="-2.0951470">
        <name>Craigpark Circle</name>
      </trkpt>
      <trkpt lat="57.3729850" lon="-2.0950890">
        <name>Craigpark Circle</name>
      </trkpt>
      <trkpt lat="57.3729405" lon="-2.0950345">
        <name>Craigpark Circle</name>
      </trkpt>
      <trkpt lat="57.3728960" lon="-2.0949800">
        <name>Craigpark Circle</name>
      </trkpt>
      <trkpt lat="57.3728235" lon="-2.0948910">
        <name>Craigpark Circle</name>
      </trkpt>
      <trkpt lat="57.3727510" lon="-2.0948020">
        <name>Craigpark Circle</name>
      </trkpt>
      <trkpt lat="57.3726960" lon="-2.0947340">
        <name>Craigpark Circle</name>
      </trkpt>
      <trkpt lat="57.3726570" lon="-2.0947140">
        <name>Craigpark Circle</name>
      </trkpt>
      <trkpt lat="57.3726180" lon="-2.0947050">
        <name>Craigpark Circle</name>
      </trkpt>
      <trkpt lat="57.3725860" lon="-2.0947070">
        <name>Craigpark Circle</name>
      </trkpt>
      <trkpt lat="57.3725550" lon="-2.0947180">
        <name>Craigpark Circle</name>
      </trkpt>
      <trkpt lat="57.3725110" lon="-2.0947420">
        <name>Craigpark Circle</name>
      </trkpt>
      <trkpt lat="57.3724720" lon="-2.0947820">
        <name>Craigpark Circle</name>
      </trkpt>
      <trkpt lat="57.3724350" lon="-2.0948480">
        <name>Craigpark Circle</name>
      </trkpt>
      <trkpt lat="57.3723896" lon="-2.0949564">
        <name>Craigpark Circle</name>
      </trkpt>
      <trkpt lat="57.3723442" lon="-2.0950648">
        <name>Craigpark Circle</name>
      </trkpt>
      <trkpt lat="57.3722988" lon="-2.0951732">
        <name>Craigpark Circle</name>
      </trkpt>
      <trkpt lat="57.3722534" lon="-2.0952816">
        <name>Craigpark Circle</name>
      </trkpt>
      <trkpt lat="57.3722080" lon="-2.0953900">
        <name>Craigpark Circle</name>
      </trkpt>
      <trkpt lat="57.3721770" lon="-2.0954605">
        <name>Craigpark Circle</name>
      </trkpt>
      <trkpt lat="57.3721460" lon="-2.0955310">
        <name>Craigpark Circle</name>
      </trkpt>
      <trkpt lat="57.3721530" lon="-2.0955140">
        <name>Craigpark Circle</name>
      </trkpt>
      <trkpt lat="57.3722080" lon="-2.0953900">
        <name>Craigpark Circle</name>
      </trkpt>
      <trkpt lat="57.3722493" lon="-2.0952910">
        <name>Craigpark Circle</name>
      </trkpt>
      <trkpt lat="57.3722907" lon="-2.0951920">
        <name>Craigpark Circle</name>
      </trkpt>
      <trkpt lat="57.3723320" lon="-2.0950930">
        <name>Craigpark Circle</name>
      </trkpt>
      <trkpt lat="57.3723835" lon="-2.0949705">
        <name>Craigpark Circle</name>
      </trkpt>
      <trkpt lat="57.3724350" lon="-2.0948480">
        <name>Craigpark Circle</name>
      </trkpt>
      <trkpt lat="57.3724720" lon="-2.0947820">
        <name>Craigpark Circle</name>
      </trkpt>
      <trkpt lat="57.3725110" lon="-2.0947420">
        <name>Craigpark Circle</name>
      </trkpt>
      <trkpt lat="57.3725550" lon="-2.0947180">
        <name>Craigpark Circle</name>
      </trkpt>
      <trkpt lat="57.3725860" lon="-2.0947070">
        <name>Craigpark Circle</name>
      </trkpt>
      <trkpt lat="57.3726180" lon="-2.0947050">
        <name>Craigpark Circle</name>
      </trkpt>
      <trkpt lat="57.3726570" lon="-2.0947140">
        <name>Craigpark Circle</name>
      </trkpt>
      <trkpt lat="57.3726960" lon="-2.0947340">
        <name>Craigpark Circle</name>
      </trkpt>
      <trkpt lat="57.3727510" lon="-2.0948020">
        <name>Craigpark Circle</name>
      </trkpt>
      <trkpt lat="57.3728095" lon="-2.0948738">
        <name>Craigpark Circle</name>
      </trkpt>
      <trkpt lat="57.3728680" lon="-2.0949455">
        <name>Craigpark Circle</name>
      </trkpt>
      <trkpt lat="57.3729265" lon="-2.0950173">
        <name>Craigpark Circle</name>
      </trkpt>
      <trkpt lat="57.3729850" lon="-2.0950890">
        <name>Craigpark Circle</name>
      </trkpt>
      <trkpt lat="57.3729370" lon="-2.0952160">
        <name>Craigpark Circle</name>
      </trkpt>
      <trkpt lat="57.3728900" lon="-2.0953260">
        <name>Craigpark Circle</name>
      </trkpt>
      <trkpt lat="57.3728800" lon="-2.0953510">
        <name>Craigpark Circle</name>
      </trkpt>
      <trkpt lat="57.3728317" lon="-2.0954860">
        <name>Craigpark Circle</name>
      </trkpt>
      <trkpt lat="57.3727833" lon="-2.0956210">
        <name>Craigpark Circle</name>
      </trkpt>
      <trkpt lat="57.3727350" lon="-2.0957560">
        <name>Craigpark Circle</name>
      </trkpt>
      <trkpt lat="57.3727150" lon="-2.0958210">
        <name>Craigpark Circle</name>
      </trkpt>
      <trkpt lat="57.3727030" lon="-2.0958860">
        <name>Craigpark Circle</name>
      </trkpt>
      <trkpt lat="57.3726970" lon="-2.0959610">
        <name>Craigend Road</name>
      </trkpt>
      <trkpt lat="57.3726907" lon="-2.0961093">
        <name>Craigend Road</name>
      </trkpt>
      <trkpt lat="57.3726843" lon="-2.0962577">
        <name>Craigend Road</name>
      </trkpt>
      <trkpt lat="57.3726780" lon="-2.0964060">
        <name>Craigend Road</name>
      </trkpt>
      <trkpt lat="57.3726110" lon="-2.0964000">
        <name>Craigend Road</name>
      </trkpt>
      <trkpt lat="57.3725315" lon="-2.0963922">
        <name>Craigend Road</name>
      </trkpt>
      <trkpt lat="57.3724520" lon="-2.0963843">
        <name>Craigend Road</name>
      </trkpt>
      <trkpt lat="57.3723725" lon="-2.0963765">
        <name>Craigend Road</name>
      </trkpt>
      <trkpt lat="57.3722930" lon="-2.0963687">
        <name>Craigend Road</name>
      </trkpt>
      <trkpt lat="57.3722135" lon="-2.0963608">
        <name>Craigend Road</name>
      </trkpt>
      <trkpt lat="57.3721340" lon="-2.0963530">
        <name>Craigend Road</name>
      </trkpt>
      <trkpt lat="57.3721310" lon="-2.0965053">
        <name>Craigend Road</name>
      </trkpt>
      <trkpt lat="57.3721280" lon="-2.0966575">
        <name>Craigend Road</name>
      </trkpt>
      <trkpt lat="57.3721250" lon="-2.0968098">
        <name>Craigend Road</name>
      </trkpt>
      <trkpt lat="57.3721220" lon="-2.0969621">
        <name>Craigend Road</name>
      </trkpt>
      <trkpt lat="57.3721190" lon="-2.0971144">
        <name>Craigend Road</name>
      </trkpt>
      <trkpt lat="57.3721160" lon="-2.0972666">
        <name>Craigend Road</name>
      </trkpt>
      <trkpt lat="57.3721130" lon="-2.0974189">
        <name>Craigend Road</name>
      </trkpt>
      <trkpt lat="57.3721100" lon="-2.0975712">
        <name>Craigend Road</name>
      </trkpt>
      <trkpt lat="57.3721070" lon="-2.0977235">
        <name>Craigend Road</name>
      </trkpt>
      <trkpt lat="57.3721040" lon="-2.0978757">
        <name>Craigend Road</name>
      </trkpt>
      <trkpt lat="57.3721010" lon="-2.0980280">
        <name>Craigend Road</name>
      </trkpt>
      <trkpt lat="57.3721040" lon="-2.0980920">
        <name>Craigend Road</name>
      </trkpt>
      <trkpt lat="57.3721130" lon="-2.0981540">
        <name>Craigend Road</name>
      </trkpt>
      <trkpt lat="57.3721420" lon="-2.0982570">
        <name>Craigend Road</name>
      </trkpt>
      <trkpt lat="57.3722030" lon="-2.0983730">
        <name>Craigend Road</name>
      </trkpt>
      <trkpt lat="57.3722370" lon="-2.0984100">
        <name>Craigend Road</name>
      </trkpt>
      <trkpt lat="57.3722770" lon="-2.0984410">
        <name>Craigend Road</name>
      </trkpt>
      <trkpt lat="57.3723645" lon="-2.0984525">
        <name>Craigend Road</name>
      </trkpt>
      <trkpt lat="57.3724520" lon="-2.0984640">
        <name>Craigend Road</name>
      </trkpt>
      <trkpt lat="57.3725360" lon="-2.0984400">
        <name>Craigend Road</name>
      </trkpt>
      <trkpt lat="57.3725745" lon="-2.0983940">
        <name>Craigend Road</name>
      </trkpt>
      <trkpt lat="57.3726130" lon="-2.0983480">
        <name>Craigend Road</name>
      </trkpt>
      <trkpt lat="57.3726600" lon="-2.0982190">
        <name>Craigend Road</name>
      </trkpt>
      <trkpt lat="57.3727030" lon="-2.0980805">
        <name>Craigend Road</name>
      </trkpt>
      <trkpt lat="57.3727460" lon="-2.0979420">
        <name>Craigend Road</name>
      </trkpt>
      <trkpt lat="57.3727890" lon="-2.0978035">
        <name>Craigend Road</name>
      </trkpt>
      <trkpt lat="57.3728320" lon="-2.0976650">
        <name>Craigend Road</name>
      </trkpt>
      <trkpt lat="57.3728750" lon="-2.0975265">
        <name>Craigend Road</name>
      </trkpt>
      <trkpt lat="57.3729180" lon="-2.0973880">
        <name>Craigend Road</name>
      </trkpt>
      <trkpt lat="57.3728490" lon="-2.0973215">
        <name>Craigend Road</name>
      </trkpt>
      <trkpt lat="57.3727800" lon="-2.0972550">
        <name>Craigend Road</name>
      </trkpt>
      <trkpt lat="57.3727450" lon="-2.0972220">
        <name>Craigend Road</name>
      </trkpt>
      <trkpt lat="57.3727050" lon="-2.0971580">
        <name>Craigend Road</name>
      </trkpt>
      <trkpt lat="57.3726750" lon="-2.0970800">
        <name>Craigend Road</name>
      </trkpt>
      <trkpt lat="57.3726650" lon="-2.0970060">
        <name>Craigend Road</name>
      </trkpt>
      <trkpt lat="57.3726630" lon="-2.0969280">
        <name>Craigend Road</name>
      </trkpt>
      <trkpt lat="57.3726668" lon="-2.0967975">
        <name>Craigend Road</name>
      </trkpt>
      <trkpt lat="57.3726705" lon="-2.0966670">
        <name>Craigend Road</name>
      </trkpt>
      <trkpt lat="57.3726743" lon="-2.0965365">
        <name>Craigend Road</name>
      </trkpt>
      <trkpt lat="57.3726780" lon="-2.0964060">
        <name>Craigend Road</name>
      </trkpt>
      <trkpt lat="57.3726087" lon="-2.0963993">
        <name>Craigend Road</name>
      </trkpt>
      <trkpt lat="57.3725393" lon="-2.0963927">
        <name>Craigend Road</name>
      </trkpt>
      <trkpt lat="57.3724700" lon="-2.0963860">
        <name>Craigend Road</name>
      </trkpt>
      <trkpt lat="57.3723825" lon="-2.0963775">
        <name>Craigend Road</name>
      </trkpt>
      <trkpt lat="57.3722950" lon="-2.0963690">
        <name>Craigend Road</name>
      </trkpt>
      <trkpt lat="57.3722145" lon="-2.0963610">
        <name>Craigend Road</name>
      </trkpt>
      <trkpt lat="57.3721340" lon="-2.0963530">
        <name>Craigend Road</name>
      </trkpt>
      <trkpt lat="57.3720640" lon="-2.0963480">
        <name>Craigend Road</name>
      </trkpt>
      <trkpt lat="57.3719940" lon="-2.0963430">
        <name>Craigend Road</name>
      </trkpt>
      <trkpt lat="57.3719240" lon="-2.0963380">
        <name>Craigend Road</name>
      </trkpt>
      <trkpt lat="57.3718418" lon="-2.0963320">
        <name>Craigend Road</name>
      </trkpt>
      <trkpt lat="57.3717596" lon="-2.0963260">
        <name>Craigend Road</name>
      </trkpt>
      <trkpt lat="57.3716774" lon="-2.0963200">
        <name>Craigend Road</name>
      </trkpt>
      <trkpt lat="57.3715952" lon="-2.0963140">
        <name>Craigend Road</name>
      </trkpt>
      <trkpt lat="57.3715130" lon="-2.0963080">
        <name>Craigend Road</name>
      </trkpt>
      <trkpt lat="57.3715115" lon="-2.0961475">
        <name>Craigend Road</name>
      </trkpt>
      <trkpt lat="57.3715100" lon="-2.0959870">
        <name>Craigend Road</name>
      </trkpt>
      <trkpt lat="57.3715095" lon="-2.0959020">
        <name>Craigend Road</name>
      </trkpt>
      <trkpt lat="57.3715090" lon="-2.0958170">
        <name>Craigend Road</name>
      </trkpt>
      <trkpt lat="57.3714945" lon="-2.0957320">
        <name>Craigend Road</name>
      </trkpt>
      <trkpt lat="57.3714800" lon="-2.0956470">
        <name>Craigend Road</name>
      </trkpt>
      <trkpt lat="57.3714710" lon="-2.0955930">
        <name>Craigend Road</name>
      </trkpt>
      <trkpt lat="57.3714345" lon="-2.0955055">
        <name>Craigend Road</name>
      </trkpt>
      <trkpt lat="57.3713980" lon="-2.0954180">
        <name>Craigend Road</name>
      </trkpt>
      <trkpt lat="57.3713437" lon="-2.0953357">
        <name>Craigend Road</name>
      </trkpt>
      <trkpt lat="57.3712893" lon="-2.0952533">
        <name>Craigend Road</name>
      </trkpt>
      <trkpt lat="57.3712350" lon="-2.0951710">
        <name>Craigend Road</name>
      </trkpt>
      <trkpt lat="57.3711705" lon="-2.0950740">
        <name>Craigend Road</name>
      </trkpt>
      <trkpt lat="57.3711060" lon="-2.0949770">
        <name>Craigend Road</name>
      </trkpt>
      <trkpt lat="57.3710593" lon="-2.0949067">
        <name>Craigend Road</name>
      </trkpt>
      <trkpt lat="57.3710127" lon="-2.0948363">
        <name>Craigend Road</name>
      </trkpt>
      <trkpt lat="57.3709660" lon="-2.0947660">
        <name>Craigend Road</name>
      </trkpt>
      <trkpt lat="57.3709290" lon="-2.0948475">
        <name>Craigend Road</name>
      </trkpt>
      <trkpt lat="57.3708920" lon="-2.0949290">
        <name>Craigend Road</name>
      </trkpt>
      <trkpt lat="57.3708650" lon="-2.0950300">
        <name>Craigend Road</name>
      </trkpt>
      <trkpt lat="57.3708420" lon="-2.0951310">
        <name>Craigpark Circle</name>
      </trkpt>
      <trkpt lat="57.3708340" lon="-2.0952670">
        <name>Craigpark Circle</name>
      </trkpt>
      <trkpt lat="57.3708340" lon="-2.0953615">
        <name>Craigpark Circle</name>
      </trkpt>
      <trkpt lat="57.3708340" lon="-2.0954560">
        <name>Craigpark Circle</name>
      </trkpt>
      <trkpt lat="57.3708400" lon="-2.0955495">
        <name>Craigpark Circle</name>
      </trkpt>
      <trkpt lat="57.3708460" lon="-2.0956430">
        <name>Craigpark Circle</name>
      </trkpt>
      <trkpt lat="57.3708600" lon="-2.0957760">
        <name>Craigpark Circle</name>
      </trkpt>
      <trkpt lat="57.3708767" lon="-2.0959367">
        <name>Craigpark Circle</name>
      </trkpt>
      <trkpt lat="57.3708933" lon="-2.0960973">
        <name>Craigpark Circle</name>
      </trkpt>
      <trkpt lat="57.3709100" lon="-2.0962580">
        <name>Craigpark Circle</name>
      </trkpt>
      <trkpt lat="57.3709185" lon="-2.0963540">
        <name>Craigpark Circle</name>
      </trkpt>
      <trkpt lat="57.3709270" lon="-2.0964500">
        <name>Craigpark Circle</name>
      </trkpt>
      <trkpt lat="57.3709305" lon="-2.0965575">
        <name>Craigpark Circle</name>
      </trkpt>
      <trkpt lat="57.3709340" lon="-2.0966650">
        <name>Craigpark Circle</name>
      </trkpt>
      <trkpt lat="57.3709350" lon="-2.0966950">
        <name>Craigpark Circle</name>
      </trkpt>
      <trkpt lat="57.3709347" lon="-2.0968303">
        <name>Craigpark Circle</name>
      </trkpt>
      <trkpt lat="57.3709343" lon="-2.0969657">
        <name>Craigpark Circle</name>
      </trkpt>
      <trkpt lat="57.3709340" lon="-2.0971010">
        <name>Craigpark Circle</name>
      </trkpt>
      <trkpt lat="57.3709335" lon="-2.0972120">
        <name>Craigpark Circle</name>
      </trkpt>
      <trkpt lat="57.3709330" lon="-2.0973230">
        <name>Craigpark Circle</name>
      </trkpt>
      <trkpt lat="57.3708703" lon="-2.0973373">
        <name>Craigpark Circle</name>
      </trkpt>
      <trkpt lat="57.3708077" lon="-2.0973517">
        <name>Craigpark Circle</name>
      </trkpt>
      <trkpt lat="57.3707450" lon="-2.0973660">
        <name>Craigpark Circle</name>
      </trkpt>
      <trkpt lat="57.3706585" lon="-2.0973857">
        <name>Craigpark Circle</name>
      </trkpt>
      <trkpt lat="57.3705720" lon="-2.0974055">
        <name>Craigpark Circle</name>
      </trkpt>
      <trkpt lat="57.3704855" lon="-2.0974253">
        <name>Craigpark Circle</name>
      </trkpt>
      <trkpt lat="57.3703990" lon="-2.0974450">
        <name>Craigpark Circle</name>
      </trkpt>
      <trkpt lat="57.3703610" lon="-2.0974560">
        <name>Craigpark Circle</name>
      </trkpt>
      <trkpt lat="57.3703510" lon="-2.0974670">
        <name>Craigpark Circle</name>
      </trkpt>
      <trkpt lat="57.3703330" lon="-2.0974870">
        <name>Craigpark Circle</name>
      </trkpt>
      <trkpt lat="57.3703070" lon="-2.0975440">
        <name>Craigpark Circle</name>
      </trkpt>
      <trkpt lat="57.3702970" lon="-2.0976260">
        <name>Craigpark Circle</name>
      </trkpt>
      <trkpt lat="57.3703015" lon="-2.0977848">
        <name>Craigpark Circle</name>
      </trkpt>
      <trkpt lat="57.3703060" lon="-2.0979437">
        <name>Craigpark Circle</name>
      </trkpt>
      <trkpt lat="57.3703105" lon="-2.0981025">
        <name>Craigpark Circle</name>
      </trkpt>
      <trkpt lat="57.3703150" lon="-2.0982613">
        <name>Craigpark Circle</name>
      </trkpt>
      <trkpt lat="57.3703195" lon="-2.0984202">
        <name>Craigpark Circle</name>
      </trkpt>
      <trkpt lat="57.3703240" lon="-2.0985790">
        <name>Craigpark Circle</name>
      </trkpt>
      <trkpt lat="57.3703385" lon="-2.0987245">
        <name>Craigpark Circle</name>
      </trkpt>
      <trkpt lat="57.3703530" lon="-2.0988700">
        <name>Craigpark Circle</name>
      </trkpt>
      <trkpt lat="57.3703675" lon="-2.0990155">
        <name>Craigpark Circle</name>
      </trkpt>
      <trkpt lat="57.3703820" lon="-2.0991610">
        <name>Craigpark Circle</name>
      </trkpt>
      <trkpt lat="57.3703875" lon="-2.0992480">
        <name>Craigpark Circle</name>
      </trkpt>
      <trkpt lat="57.3703930" lon="-2.0993350">
        <name>Craigpark Circle</name>
      </trkpt>
      <trkpt lat="57.3703960" lon="-2.0994840">
        <name>Craigpark Circle</name>
      </trkpt>
      <trkpt lat="57.3703900" lon="-2.0995860">
        <name>Craigpark Circle</name>
      </trkpt>
      <trkpt lat="57.3703760" lon="-2.0996920">
        <name>Craigpark Circle</name>
      </trkpt>
      <trkpt lat="57.3703533" lon="-2.0998408">
        <name>Craigpark Circle</name>
      </trkpt>
      <trkpt lat="57.3703305" lon="-2.0999895">
        <name>Craigpark Circle</name>
      </trkpt>
      <trkpt lat="57.3703078" lon="-2.1001382">
        <name>Craigpark Circle</name>
      </trkpt>
      <trkpt lat="57.3702850" lon="-2.1002870">
        <name>Craigpark Circle</name>
      </trkpt>
      <trkpt lat="57.3702790" lon="-2.1003630">
        <name>Craigpark Circle</name>
      </trkpt>
      <trkpt lat="57.3702850" lon="-2.1004330">
        <name>Craigpark Circle</name>
      </trkpt>
      <trkpt lat="57.3702980" lon="-2.1005080">
        <name>Craigpark Circle</name>
      </trkpt>
      <trkpt lat="57.3703200" lon="-2.1005670">
        <name>Craigpark Circle</name>
      </trkpt>
      <trkpt lat="57.3703770" lon="-2.1006685">
        <name>Craigpark Circle</name>
      </trkpt>
      <trkpt lat="57.3704340" lon="-2.1007700">
        <name>Craigpark Circle</name>
      </trkpt>
      <trkpt lat="57.3704932" lon="-2.1008524">
        <name>Craigpark Circle</name>
      </trkpt>
      <trkpt lat="57.3705524" lon="-2.1009348">
        <name>Craigpark Circle</name>
      </trkpt>
      <trkpt lat="57.3706116" lon="-2.1010172">
        <name>Craigpark Circle</name>
      </trkpt>
      <trkpt lat="57.3706708" lon="-2.1010996">
        <name>Craigpark Circle</name>
      </trkpt>
      <trkpt lat="57.3707300" lon="-2.1011820">
        <name>Craigpark Circle</name>
      </trkpt>
      <trkpt lat="57.3707690" lon="-2.1010737">
        <name>Craigpark Circle</name>
      </trkpt>
      <trkpt lat="57.3708080" lon="-2.1009653">
        <name>Craigpark Circle</name>
      </trkpt>
      <trkpt lat="57.3708470" lon="-2.1008570">
        <name>Craigpark Circle</name>
      </trkpt>
      <trkpt lat="57.3708765" lon="-2.1007370">
        <name>Craigpark Circle</name>
      </trkpt>
      <trkpt lat="57.3709060" lon="-2.1006170">
        <name>Craigpark Circle</name>
      </trkpt>
      <trkpt lat="57.3709263" lon="-2.1005060">
        <name>Craigpark Circle</name>
      </trkpt>
      <trkpt lat="57.3709467" lon="-2.1003950">
        <name>Craigpark Circle</name>
      </trkpt>
      <trkpt lat="57.3709670" lon="-2.1002840">
        <name>Craigpark Circle</name>
      </trkpt>
      <trkpt lat="57.3709800" lon="-2.1001775">
        <name>Craigpark Circle</name>
      </trkpt>
      <trkpt lat="57.3709930" lon="-2.1000710">
        <name>Craigpark Circle</name>
      </trkpt>
      <trkpt lat="57.3710015" lon="-2.0999465">
        <name>Craigpark Circle</name>
      </trkpt>
      <trkpt lat="57.3710100" lon="-2.0998220">
        <name>Craigpark Circle</name>
      </trkpt>
      <trkpt lat="57.3710115" lon="-2.0997140">
        <name>Craigpark Circle</name>
      </trkpt>
      <trkpt lat="57.3710130" lon="-2.0996060">
        <name>Craigpark Circle</name>
      </trkpt>
      <trkpt lat="57.3710108" lon="-2.0994442">
        <name>Craigpark Circle</name>
      </trkpt>
      <trkpt lat="57.3710086" lon="-2.0992824">
        <name>Craigpark Circle</name>
      </trkpt>
      <trkpt lat="57.3710064" lon="-2.0991206">
        <name>Craigpark Circle</name>
      </trkpt>
      <trkpt lat="57.3710042" lon="-2.0989588">
        <name>Craigpark Circle</name>
      </trkpt>
      <trkpt lat="57.3710020" lon="-2.0987970">
        <name>Craigpark Circle</name>
      </trkpt>
      <trkpt lat="57.3710050" lon="-2.0986800">
        <name>Craigpark Circle</name>
      </trkpt>
      <trkpt lat="57.3710140" lon="-2.0985920">
        <name>Craigpark Circle</name>
      </trkpt>
      <trkpt lat="57.3710330" lon="-2.0985270">
        <name>Craigpark Circle</name>
      </trkpt>
      <trkpt lat="57.3710550" lon="-2.0984650">
        <name>Craigpark Circle</name>
      </trkpt>
      <trkpt lat="57.3710090" lon="-2.0983500">
        <name>Craigpark Circle</name>
      </trkpt>
      <trkpt lat="57.3709780" lon="-2.0982300">
        <name>Craigpark Circle</name>
      </trkpt>
      <trkpt lat="57.3709430" lon="-2.0980810">
        <name>Craigpark Circle</name>
      </trkpt>
      <trkpt lat="57.3709320" lon="-2.0979370">
        <name>Craigpark Circle</name>
      </trkpt>
      <trkpt lat="57.3709320" lon="-2.0978355">
        <name>Craigpark Circle</name>
      </trkpt>
      <trkpt lat="57.3709320" lon="-2.0977340">
        <name>Craigpark Circle</name>
      </trkpt>
      <trkpt lat="57.3709323" lon="-2.0975970">
        <name>Craigpark Circle</name>
      </trkpt>
      <trkpt lat="57.3709327" lon="-2.0974600">
        <name>Craigpark Circle</name>
      </trkpt>
      <trkpt lat="57.3709330" lon="-2.0973230">
        <name>Craigpark Circle</name>
      </trkpt>
      <trkpt lat="57.3709335" lon="-2.0971660">
        <name>Craigpark Circle</name>
      </trkpt>
      <trkpt lat="57.3709340" lon="-2.0970090">
        <name>Craigpark Circle</name>
      </trkpt>
      <trkpt lat="57.3709345" lon="-2.0968520">
        <name>Craigpark Circle</name>
      </trkpt>
      <trkpt lat="57.3709350" lon="-2.0966950">
        <name>Craigpark Circle</name>
      </trkpt>
      <trkpt lat="57.3709310" lon="-2.0965725">
        <name>Craigpark Circle</name>
      </trkpt>
      <trkpt lat="57.3709270" lon="-2.0964500">
        <name>Craigpark Circle</name>
      </trkpt>
      <trkpt lat="57.3709180" lon="-2.0963485">
        <name>Craigpark Circle</name>
      </trkpt>
      <trkpt lat="57.3709090" lon="-2.0962470">
        <name>Craigpark Circle</name>
      </trkpt>
      <trkpt lat="57.3708932" lon="-2.0960960">
        <name>Craigpark Circle</name>
      </trkpt>
      <trkpt lat="57.3708775" lon="-2.0959450">
        <name>Craigpark Circle</name>
      </trkpt>
      <trkpt lat="57.3708618" lon="-2.0957940">
        <name>Craigpark Circle</name>
      </trkpt>
      <trkpt lat="57.3708460" lon="-2.0956430">
        <name>Craigpark Circle</name>
      </trkpt>
      <trkpt lat="57.3708400" lon="-2.0955495">
        <name>Craigpark Circle</name>
      </trkpt>
      <trkpt lat="57.3708340" lon="-2.0954560">
        <name>Craigpark Circle</name>
      </trkpt>
      <trkpt lat="57.3708340" lon="-2.0954280">
        <name>Craigpark Circle</name>
      </trkpt>
      <trkpt lat="57.3708340" lon="-2.0952670">
        <name>Craigpark Circle</name>
      </trkpt>
      <trkpt lat="57.3708420" lon="-2.0951310">
        <name>Craigpark Circle</name>
      </trkpt>
      <trkpt lat="57.3708650" lon="-2.0950300">
        <name>Craigpark Circle</name>
      </trkpt>
      <trkpt lat="57.3708920" lon="-2.0949290">
        <name>Craigpark Circle</name>
      </trkpt>
      <trkpt lat="57.3709290" lon="-2.0948475">
        <name>Craigpark Circle</name>
      </trkpt>
      <trkpt lat="57.3709660" lon="-2.0947660">
        <name>Craigpark Circle</name>
      </trkpt>
      <trkpt lat="57.3708990" lon="-2.0946640">
        <name>Craigpark Circle</name>
      </trkpt>
      <trkpt lat="57.3708360" lon="-2.0945680">
        <name>Craigpark Circle</name>
      </trkpt>
      <trkpt lat="57.3707730" lon="-2.0944720">
        <name>Craigpark Circle</name>
      </trkpt>
      <trkpt lat="57.3707100" lon="-2.0943760">
        <name>Craigpark Circle</name>
      </trkpt>
      <trkpt lat="57.3706470" lon="-2.0942800">
        <name>Craigpark Circle</name>
      </trkpt>
      <trkpt lat="57.3705840" lon="-2.0941840">
        <name>Craigpark Circle</name>
      </trkpt>
      <trkpt lat="57.3705450" lon="-2.0941250">
        <name>Craigpark Circle</name>
      </trkpt>
      <trkpt lat="57.3704823" lon="-2.0940587">
        <name>Craigpark Circle</name>
      </trkpt>
      <trkpt lat="57.3704197" lon="-2.0939923">
        <name>Craigpark Circle</name>
      </trkpt>
      <trkpt lat="57.3703570" lon="-2.0939260">
        <name>Craigpark Circle</name>
      </trkpt>
      <trkpt lat="57.3702873" lon="-2.0938937">
        <name>Craigpark Circle</name>
      </trkpt>
      <trkpt lat="57.3702177" lon="-2.0938613">
        <name>Craigpark Circle</name>
      </trkpt>
      <trkpt lat="57.3701480" lon="-2.0938290">
        <name>Craigpark Circle</name>
      </trkpt>
      <trkpt lat="57.3700830" lon="-2.0938177">
        <name>Craigend Road</name>
      </trkpt>
      <trkpt lat="57.3700180" lon="-2.0938063">
        <name>Craigend Road</name>
      </trkpt>
      <trkpt lat="57.3699530" lon="-2.0937950">
        <name>Craigend Road</name>
      </trkpt>
      <trkpt lat="57.3698850" lon="-2.0937830">
        <name>Craigend Road</name>
      </trkpt>
      <trkpt lat="57.3698977" lon="-2.0936293">
        <name>Craigend Road</name>
      </trkpt>
      <trkpt lat="57.3699105" lon="-2.0934755">
        <name>Craigend Road</name>
      </trkpt>
      <trkpt lat="57.3699232" lon="-2.0933217">
        <name>Craigend Road</name>
      </trkpt>
      <trkpt lat="57.3699360" lon="-2.0931680">
        <name>Craigend Road</name>
      </trkpt>
      <trkpt lat="57.3699495" lon="-2.0930050">
        <name>Craigend Road</name>
      </trkpt>
      <trkpt lat="57.3699630" lon="-2.0928420">
        <name>Craigend Road</name>
      </trkpt>
      <trkpt lat="57.3699725" lon="-2.0926955">
        <name>Craigend Road</name>
      </trkpt>
      <trkpt lat="57.3699820" lon="-2.0925490">
        <name>Craigend Road</name>
      </trkpt>
      <trkpt lat="57.3699815" lon="-2.0924435">
        <name>Craigend Road</name>
      </trkpt>
      <trkpt lat="57.3699810" lon="-2.0923380">
        <name>Craigend Road</name>
      </trkpt>
      <trkpt lat="57.3699801" lon="-2.0921877">
        <name>Craigend Road</name>
      </trkpt>
      <trkpt lat="57.3699793" lon="-2.0920375">
        <name>Craigend Road</name>
      </trkpt>
      <trkpt lat="57.3699784" lon="-2.0918873">
        <name>Craigend Road</name>
      </trkpt>
      <trkpt lat="57.3699775" lon="-2.0917370">
        <name>Craigend Road</name>
      </trkpt>
      <trkpt lat="57.3699766" lon="-2.0915867">
        <name>Craigend Road</name>
      </trkpt>
      <trkpt lat="57.3699758" lon="-2.0914365">
        <name>Craigend Road</name>
      </trkpt>
      <trkpt lat="57.3699749" lon="-2.0912863">
        <name>Craigend Road</name>
      </trkpt>
      <trkpt lat="57.3699740" lon="-2.0911360">
        <name>Craigend Road</name>
      </trkpt>
      <trkpt lat="57.3699735" lon="-2.0910505">
        <name>Craigend Road</name>
      </trkpt>
      <trkpt lat="57.3699730" lon="-2.0909650">
        <name>Craigend Road</name>
      </trkpt>
      <trkpt lat="57.3699745" lon="-2.0908535">
        <name>Craigend Road</name>
      </trkpt>
      <trkpt lat="57.3699760" lon="-2.0907420">
        <name>Craigend Road</name>
      </trkpt>
      <trkpt lat="57.3699747" lon="-2.0906017">
        <name>Craigend Road</name>
      </trkpt>
      <trkpt lat="57.3699733" lon="-2.0904613">
        <name>Craigend Road</name>
      </trkpt>
      <trkpt lat="57.3699720" lon="-2.0903210">
        <name>Craigend Road</name>
      </trkpt>
      <trkpt lat="57.3699702" lon="-2.0901602">
        <name>Craigend Road</name>
      </trkpt>
      <trkpt lat="57.3699685" lon="-2.0899995">
        <name>Craigend Road</name>
      </trkpt>
      <trkpt lat="57.3699668" lon="-2.0898388">
        <name>Craigend Road</name>
      </trkpt>
      <trkpt lat="57.3699650" lon="-2.0896780">
        <name>Craigend Road</name>
      </trkpt>
      <trkpt lat="57.3699635" lon="-2.0895290">
        <name>Craigend Road</name>
      </trkpt>
      <trkpt lat="57.3699620" lon="-2.0893800">
        <name>Craigend Road</name>
      </trkpt>
      <trkpt lat="57.3699614" lon="-2.0892290">
        <name>Craigend Road</name>
      </trkpt>
      <trkpt lat="57.3699608" lon="-2.0890780">
        <name>Craigend Road</name>
      </trkpt>
      <trkpt lat="57.3699602" lon="-2.0889270">
        <name>Craigend Road</name>
      </trkpt>
      <trkpt lat="57.3699596" lon="-2.0887760">
        <name>Craigend Road</name>
      </trkpt>
      <trkpt lat="57.3699590" lon="-2.0886250">
        <name>Craigend Road</name>
      </trkpt>
      <trkpt lat="57.3699583" lon="-2.0884760">
        <name>Craigend Road</name>
      </trkpt>
      <trkpt lat="57.3699575" lon="-2.0883270">
        <name>Craigend Road</name>
      </trkpt>
      <trkpt lat="57.3699568" lon="-2.0881780">
        <name>Craigend Road</name>
      </trkpt>
      <trkpt lat="57.3699560" lon="-2.0880290">
        <name>Craigend Road</name>
      </trkpt>
      <trkpt lat="57.3699550" lon="-2.0878810">
        <name>Craigend Road</name>
      </trkpt>
      <trkpt lat="57.3699540" lon="-2.0877330">
        <name>Craigend Road</name>
      </trkpt>
      <trkpt lat="57.3699530" lon="-2.0875850">
        <name>Craigend Road</name>
      </trkpt>
      <trkpt lat="57.3699520" lon="-2.0874370">
        <name>Craigend Road</name>
      </trkpt>
      <trkpt lat="57.3699480" lon="-2.0873360">
        <name>Craigend Road</name>
      </trkpt>
    </trkseg>
  </trk>
</gpx>