<?xml version="1.0" encoding="UTF-8"?>
<gpx version="1.1" creator="TurboSanta Route Planner">
  <trk>
    <name>TurboSanta Route (10m density)</name>
    <trkseg>
      <trkpt lat="57.3623810" lon="-2.0834980">
        <name>Provost Davidson Drive</name>
      </trkpt>
      <trkpt lat="57.3622953" lon="-2.0834717">
        <name>Provost Davidson Drive</name>
      </trkpt>
      <trkpt lat="57.3622097" lon="-2.0834453">
        <name>Provost Davidson Drive</name>
      </trkpt>
      <trkpt lat="57.3621240" lon="-2.0834190">
        <name>Provost Davidson Drive</name>
      </trkpt>
      <trkpt lat="57.3620540" lon="-2.0833930">
        <name>Provost Davidson Drive</name>
      </trkpt>
      <trkpt lat="57.3619840" lon="-2.0833670">
        <name>Provost Davidson Drive</name>
      </trkpt>
      <trkpt lat="57.3619140" lon="-2.0833410">
        <name>Provost Davidson Drive</name>
      </trkpt>
      <trkpt lat="57.3618485" lon="-2.0833095">
        <name>Provost Davidson Drive</name>
      </trkpt>
      <trkpt lat="57.3617830" lon="-2.0832780">
        <name>Provost Davidson Drive</name>
      </trkpt>
      <trkpt lat="57.3617560" lon="-2.0834130">
        <name>Provost Davidson Drive</name>
      </trkpt>
      <trkpt lat="57.3617375" lon="-2.0835075">
        <name>Provost Davidson Drive</name>
      </trkpt>
      <trkpt lat="57.3617190" lon="-2.0836020">
        <name>Provost Davidson Drive</name>
      </trkpt>
      <trkpt lat="57.3616770" lon="-2.0836890">
        <name>Provost Davidson Drive</name>
      </trkpt>
      <trkpt lat="57.3616440" lon="-2.0837460">
        <name>Provost Davidson Drive</name>
      </trkpt>
      <trkpt lat="57.3616350" lon="-2.0837600">
        <name>Provost Davidson Drive</name>
      </trkpt>
      <trkpt lat="57.3615865" lon="-2.0838045">
        <name>Provost Davidson Drive</name>
      </trkpt>
      <trkpt lat="57.3615380" lon="-2.0838490">
        <name>Provost Davidson Drive</name>
      </trkpt>
      <trkpt lat="57.3614640" lon="-2.0839240">
        <name>Provost Davidson Drive</name>
      </trkpt>
      <trkpt lat="57.3613970" lon="-2.0840180">
        <name>Provost Davidson Drive</name>
      </trkpt>
      <trkpt lat="57.3613780" lon="-2.0840740">
        <name>Provost Davidson Drive</name>
      </trkpt>
      <trkpt lat="57.3613405" lon="-2.0841850">
        <name>Provost Davidson Drive</name>
      </trkpt>
      <trkpt lat="57.3613030" lon="-2.0842960">
        <name>Provost Davidson Drive</name>
      </trkpt>
      <trkpt lat="57.3612687" lon="-2.0844407">
        <name>Provost Davidson Drive</name>
      </trkpt>
      <trkpt lat="57.3612343" lon="-2.0845853">
        <name>Provost Davidson Drive</name>
      </trkpt>
      <trkpt lat="57.3612000" lon="-2.0847300">
        <name>Provost Davidson Drive</name>
      </trkpt>
      <trkpt lat="57.3611860" lon="-2.0847880">
        <name>Provost Davidson Drive</name>
      </trkpt>
      <trkpt lat="57.3612153" lon="-2.0846650">
        <name>Provost Davidson Drive</name>
      </trkpt>
      <trkpt lat="57.3612445" lon="-2.0845420">
        <name>Provost Davidson Drive</name>
      </trkpt>
      <trkpt lat="57.3612737" lon="-2.0844190">
        <name>Provost Davidson Drive</name>
      </trkpt>
      <trkpt lat="57.3613030" lon="-2.0842960">
        <name>Provost Davidson Drive</name>
      </trkpt>
      <trkpt lat="57.3613500" lon="-2.0841570">
        <name>Provost Davidson Drive</name>
      </trkpt>
      <trkpt lat="57.3613970" lon="-2.0840180">
        <name>Provost Davidson Drive</name>
      </trkpt>
      <trkpt lat="57.3614640" lon="-2.0839240">
        <name>Provost Davidson Drive</name>
      </trkpt>
      <trkpt lat="57.3615380" lon="-2.0838490">
        <name>Provost Davidson Drive</name>
      </trkpt>
      <trkpt lat="57.3615865" lon="-2.0838045">
        <name>Provost Davidson Drive</name>
      </trkpt>
      <trkpt lat="57.3616350" lon="-2.0837600">
        <name>Provost Davidson Drive</name>
      </trkpt>
      <trkpt lat="57.3616770" lon="-2.0836890">
        <name>Provost Davidson Drive</name>
      </trkpt>
      <trkpt lat="57.3617190" lon="-2.0836020">
        <name>Provost Davidson Drive</name>
      </trkpt>
      <trkpt lat="57.3617230" lon="-2.0835800">
        <name>Provost Davidson Drive</name>
      </trkpt>
      <trkpt lat="57.3617530" lon="-2.0834290">
        <name>Provost Davidson Drive</name>
      </trkpt>
      <trkpt lat="57.3617830" lon="-2.0832780">
        <name>Provost Davidson Drive</name>
      </trkpt>
      <trkpt lat="57.3618650" lon="-2.0833170">
        <name>Provost Davidson Drive</name>
      </trkpt>
      <trkpt lat="57.3619140" lon="-2.0833410">
        <name>Provost Davidson Drive</name>
      </trkpt>
      <trkpt lat="57.3619420" lon="-2.0831940">
        <name>Provost Davidson Drive</name>
      </trkpt>
      <trkpt lat="57.3619550" lon="-2.0831300">
        <name>Provost Davidson Drive</name>
      </trkpt>
      <trkpt lat="57.3619780" lon="-2.0830173">
        <name>Provost Davidson Drive</name>
      </trkpt>
      <trkpt lat="57.3620010" lon="-2.0829047">
        <name>Provost Davidson Drive</name>
      </trkpt>
      <trkpt lat="57.3620240" lon="-2.0827920">
        <name>Provost Davidson Drive</name>
      </trkpt>
      <trkpt lat="57.3620340" lon="-2.0826820">
        <name>Provost Davidson Drive</name>
      </trkpt>
      <trkpt lat="57.3620280" lon="-2.0825670">
        <name>Provost Davidson Drive</name>
      </trkpt>
      <trkpt lat="57.3619980" lon="-2.0824205">
        <name>Provost Davidson Drive</name>
      </trkpt>
      <trkpt lat="57.3619680" lon="-2.0822740">
        <name>Provost Davidson Drive</name>
      </trkpt>
      <trkpt lat="57.3619460" lon="-2.0821850">
        <name>Provost Davidson Drive</name>
      </trkpt>
      <trkpt lat="57.3619137" lon="-2.0820517">
        <name>Provost Davidson Drive</name>
      </trkpt>
      <trkpt lat="57.3618813" lon="-2.0819183">
        <name>Provost Davidson Drive</name>
      </trkpt>
      <trkpt lat="57.3618490" lon="-2.0817850">
        <name>Provost Davidson Drive</name>
      </trkpt>
      <trkpt lat="57.3618230" lon="-2.0817060">
        <name>Provost Davidson Drive</name>
      </trkpt>
      <trkpt lat="57.3618170" lon="-2.0816860">
        <name>Provost Davidson Drive</name>
      </trkpt>
      <trkpt lat="57.3617690" lon="-2.0815920">
        <name>Provost Davidson Drive</name>
      </trkpt>
      <trkpt lat="57.3617030" lon="-2.0816900">
        <name>Provost Davidson Drive</name>
      </trkpt>
      <trkpt lat="57.3616840" lon="-2.0817730">
        <name>Provost Davidson Drive</name>
      </trkpt>
      <trkpt lat="57.3616518" lon="-2.0819135">
        <name>Provost Davidson Drive</name>
      </trkpt>
      <trkpt lat="57.3616195" lon="-2.0820540">
        <name>Provost Davidson Drive</name>
      </trkpt>
      <trkpt lat="57.3615872" lon="-2.0821945">
        <name>Provost Davidson Drive</name>
      </trkpt>
      <trkpt lat="57.3615550" lon="-2.0823350">
        <name>Provost Davidson Drive</name>
      </trkpt>
      <trkpt lat="57.3615370" lon="-2.0824150">
        <name>Provost Davidson Drive</name>
      </trkpt>
      <trkpt lat="57.3615190" lon="-2.0824950">
        <name>Provost Davidson Drive</name>
      </trkpt>
      <trkpt lat="57.3615370" lon="-2.0824150">
        <name>Provost Davidson Drive</name>
      </trkpt>
      <trkpt lat="57.3615550" lon="-2.0823350">
        <name>Provost Davidson Drive</name>
      </trkpt>
      <trkpt lat="57.3616025" lon="-2.0823690">
        <name>Provost Davidson Drive</name>
      </trkpt>
      <trkpt lat="57.3616500" lon="-2.0824030">
        <name>Provost Davidson Drive</name>
      </trkpt>
      <trkpt lat="57.3616730" lon="-2.0824200">
        <name>Provost Davidson Drive</name>
      </trkpt>
      <trkpt lat="57.3616140" lon="-2.0823775">
        <name>Provost Davidson Drive</name>
      </trkpt>
      <trkpt lat="57.3615550" lon="-2.0823350">
        <name>Provost Davidson Drive</name>
      </trkpt>
      <trkpt lat="57.3615827" lon="-2.0822147">
        <name>Provost Davidson Drive</name>
      </trkpt>
      <trkpt lat="57.3616103" lon="-2.0820943">
        <name>Provost Davidson Drive</name>
      </trkpt>
      <trkpt lat="57.3616380" lon="-2.0819740">
        <name>Provost Davidson Drive</name>
      </trkpt>
      <trkpt lat="57.3616705" lon="-2.0818320">
        <name>Provost Davidson Drive</name>
      </trkpt>
      <trkpt lat="57.3617030" lon="-2.0816900">
        <name>Provost Davidson Drive</name>
      </trkpt>
      <trkpt lat="57.3617690" lon="-2.0815920">
        <name>Provost Davidson Drive</name>
      </trkpt>
      <trkpt lat="57.3617280" lon="-2.0815320">
        <name>Provost Davidson Drive</name>
      </trkpt>
      <trkpt lat="57.3617130" lon="-2.0815190">
        <name>Provost Davidson Drive</name>
      </trkpt>
      <trkpt lat="57.3616820" lon="-2.0814940">
        <name>Provost Cordiner Road</name>
      </trkpt>
      <trkpt lat="57.3616070" lon="-2.0814380">
        <name>Provost Cordiner Road</name>
      </trkpt>
      <trkpt lat="57.3615320" lon="-2.0813820">
        <name>Provost Cordiner Road</name>
      </trkpt>
      <trkpt lat="57.3614570" lon="-2.0813260">
        <name>Provost Cordiner Road</name>
      </trkpt>
      <trkpt lat="57.3613937" lon="-2.0812790">
        <name>Provost Cordiner Road</name>
      </trkpt>
      <trkpt lat="57.3613303" lon="-2.0812320">
        <name>Provost Cordiner Road</name>
      </trkpt>
      <trkpt lat="57.3612670" lon="-2.0811850">
        <name>Provost Cordiner Road</name>
      </trkpt>
      <trkpt lat="57.3612560" lon="-2.0811760">
        <name>Provost Cordiner Road</name>
      </trkpt>
      <trkpt lat="57.3612315" lon="-2.0812850">
        <name>Provost Cordiner Road</name>
      </trkpt>
      <trkpt lat="57.3612070" lon="-2.0813940">
        <name>Provost Cordiner Road</name>
      </trkpt>
      <trkpt lat="57.3611788" lon="-2.0815203">
        <name>Provost Cordiner Road</name>
      </trkpt>
      <trkpt lat="57.3611505" lon="-2.0816465">
        <name>Provost Cordiner Road</name>
      </trkpt>
      <trkpt lat="57.3611223" lon="-2.0817727">
        <name>Provost Cordiner Road</name>
      </trkpt>
      <trkpt lat="57.3610940" lon="-2.0818990">
        <name>Provost Cordiner Road</name>
      </trkpt>
      <trkpt lat="57.3610707" lon="-2.0820027">
        <name>Provost Cordiner Road</name>
      </trkpt>
      <trkpt lat="57.3610473" lon="-2.0821063">
        <name>Provost Cordiner Road</name>
      </trkpt>
      <trkpt lat="57.3610240" lon="-2.0822100">
        <name>Provost Cordiner Road</name>
      </trkpt>
      <trkpt lat="57.3609980" lon="-2.0823210">
        <name>Provost Cordiner Road</name>
      </trkpt>
      <trkpt lat="57.3609720" lon="-2.0824320">
        <name>Provost Cordiner Road</name>
      </trkpt>
      <trkpt lat="57.3609570" lon="-2.0824940">
        <name>Provost Cordiner Road</name>
      </trkpt>
      <trkpt lat="57.3610155" lon="-2.0825455">
        <name>Provost Cordiner Road</name>
      </trkpt>
      <trkpt lat="57.3610740" lon="-2.0825970">
        <name>Provost Cordiner Road</name>
      </trkpt>
      <trkpt lat="57.3611210" lon="-2.0826390">
        <name>Provost Cordiner Road</name>
      </trkpt>
      <trkpt lat="57.3611962" lon="-2.0827170">
        <name>Provost Cordiner Road</name>
      </trkpt>
      <trkpt lat="57.3612714" lon="-2.0827950">
        <name>Provost Cordiner Road</name>
      </trkpt>
      <trkpt lat="57.3613466" lon="-2.0828730">
        <name>Provost Cordiner Road</name>
      </trkpt>
      <trkpt lat="57.3614218" lon="-2.0829510">
        <name>Provost Cordiner Road</name>
      </trkpt>
      <trkpt lat="57.3614970" lon="-2.0830290">
        <name>Provost Cordiner Road</name>
      </trkpt>
      <trkpt lat="57.3614573" lon="-2.0831617">
        <name>Provost Cordiner Road</name>
      </trkpt>
      <trkpt lat="57.3614177" lon="-2.0832943">
        <name>Provost Cordiner Road</name>
      </trkpt>
      <trkpt lat="57.3613780" lon="-2.0834270">
        <name>Provost Cordiner Road</name>
      </trkpt>
      <trkpt lat="57.3614177" lon="-2.0832943">
        <name>Provost Cordiner Road</name>
      </trkpt>
      <trkpt lat="57.3614573" lon="-2.0831617">
        <name>Provost Cordiner Road</name>
      </trkpt>
      <trkpt lat="57.3614970" lon="-2.0830290">
        <name>Provost Cordiner Road</name>
      </trkpt>
      <trkpt lat="57.3614218" lon="-2.0829510">
        <name>Provost Cordiner Road</name>
      </trkpt>
      <trkpt lat="57.3613466" lon="-2.0828730">
        <name>Provost Cordiner Road</name>
      </trkpt>
      <trkpt lat="57.3612714" lon="-2.0827950">
        <name>Provost Cordiner Road</name>
      </trkpt>
      <trkpt lat="57.3611962" lon="-2.0827170">
        <name>Provost Cordiner Road</name>
      </trkpt>
      <trkpt lat="57.3611210" lon="-2.0826390">
        <name>Provost Cordiner Road</name>
      </trkpt>
      <trkpt lat="57.3610740" lon="-2.0825970">
        <name>Provost Cordiner Road</name>
      </trkpt>
      <trkpt lat="57.3610155" lon="-2.0825455">
        <name>Provost Cordiner Road</name>
      </trkpt>
      <trkpt lat="57.3609570" lon="-2.0824940">
        <name>Provost Cordiner Road</name>
      </trkpt>
      <trkpt lat="57.3609720" lon="-2.0824320">
        <name>Provost Cordiner Road</name>
      </trkpt>
      <trkpt lat="57.3609820" lon="-2.0823870">
        <name>Provost Cordiner Road</name>
      </trkpt>
      <trkpt lat="57.3610030" lon="-2.0822985">
        <name>Provost Cordiner Road</name>
      </trkpt>
      <trkpt lat="57.3610240" lon="-2.0822100">
        <name>Provost Cordiner Road</name>
      </trkpt>
      <trkpt lat="57.3610435" lon="-2.0821220">
        <name>Provost Cordiner Road</name>
      </trkpt>
      <trkpt lat="57.3610630" lon="-2.0820340">
        <name>Provost Cordiner Road</name>
      </trkpt>
      <trkpt lat="57.3610973" lon="-2.0818817">
        <name>Provost Cordiner Road</name>
      </trkpt>
      <trkpt lat="57.3611317" lon="-2.0817293">
        <name>Provost Cordiner Road</name>
      </trkpt>
      <trkpt lat="57.3611660" lon="-2.0815770">
        <name>Provost Cordiner Road</name>
      </trkpt>
      <trkpt lat="57.3611960" lon="-2.0814433">
        <name>Provost Cordiner Road</name>
      </trkpt>
      <trkpt lat="57.3612260" lon="-2.0813097">
        <name>Provost Cordiner Road</name>
      </trkpt>
      <trkpt lat="57.3612560" lon="-2.0811760">
        <name>Provost Cordiner Road</name>
      </trkpt>
      <trkpt lat="57.3612820" lon="-2.0810610">
        <name>Provost Cordiner Road</name>
      </trkpt>
      <trkpt lat="57.3613080" lon="-2.0809460">
        <name>Provost Cordiner Road</name>
      </trkpt>
      <trkpt lat="57.3613350" lon="-2.0808255">
        <name>Provost Cordiner Road</name>
      </trkpt>
      <trkpt lat="57.3613620" lon="-2.0807050">
        <name>Provost Cordiner Road</name>
      </trkpt>
      <trkpt lat="57.3613890" lon="-2.0805845">
        <name>Provost Cordiner Road</name>
      </trkpt>
      <trkpt lat="57.3614160" lon="-2.0804640">
        <name>Provost Cordiner Road</name>
      </trkpt>
      <trkpt lat="57.3614437" lon="-2.0803413">
        <name>Provost Cordiner Road</name>
      </trkpt>
      <trkpt lat="57.3614713" lon="-2.0802187">
        <name>Provost Cordiner Road</name>
      </trkpt>
      <trkpt lat="57.3614990" lon="-2.0800960">
        <name>Provost Cordiner Road</name>
      </trkpt>
      <trkpt lat="57.3615257" lon="-2.0799773">
        <name>Provost Cordiner Road</name>
      </trkpt>
      <trkpt lat="57.3615523" lon="-2.0798587">
        <name>Provost Cordiner Road</name>
      </trkpt>
      <trkpt lat="57.3615790" lon="-2.0797400">
        <name>Provost Cordiner Road</name>
      </trkpt>
      <trkpt lat="57.3615860" lon="-2.0797040">
        <name>Provost Cordiner Road</name>
      </trkpt>
      <trkpt lat="57.3616070" lon="-2.0795890">
        <name>Provost Cordiner Road</name>
      </trkpt>
      <trkpt lat="57.3616040" lon="-2.0794850">
        <name>Provost Cordiner Road</name>
      </trkpt>
      <trkpt lat="57.3615870" lon="-2.0793760">
        <name>Provost Cordiner Road</name>
      </trkpt>
      <trkpt lat="57.3615390" lon="-2.0792570">
        <name>Provost Cordiner Road</name>
      </trkpt>
      <trkpt lat="57.3615300" lon="-2.0792430">
        <name>Provost Cordiner Road</name>
      </trkpt>
      <trkpt lat="57.3614830" lon="-2.0791670">
        <name>Provost Cordiner Road</name>
      </trkpt>
      <trkpt lat="57.3614150" lon="-2.0791090">
        <name>Provost Cordiner Road</name>
      </trkpt>
      <trkpt lat="57.3613360" lon="-2.0790790">
        <name>Provost Cordiner Road</name>
      </trkpt>
      <trkpt lat="57.3612660" lon="-2.0790760">
        <name>Provost Cordiner Road</name>
      </trkpt>
      <trkpt lat="57.3612490" lon="-2.0790820">
        <name>Provost Cordiner Road</name>
      </trkpt>
      <trkpt lat="57.3611990" lon="-2.0791010">
        <name>Provost Cordiner Road</name>
      </trkpt>
      <trkpt lat="57.3611390" lon="-2.0791950">
        <name>Provost Cordiner Road</name>
      </trkpt>
      <trkpt lat="57.3611145" lon="-2.0792835">
        <name>Provost Cordiner Road</name>
      </trkpt>
      <trkpt lat="57.3610900" lon="-2.0793720">
        <name>Provost Cordiner Road</name>
      </trkpt>
      <trkpt lat="57.3610620" lon="-2.0794980">
        <name>Provost Cordiner Road</name>
      </trkpt>
      <trkpt lat="57.3610325" lon="-2.0796307">
        <name>Provost Cordiner Road</name>
      </trkpt>
      <trkpt lat="57.3610030" lon="-2.0797633">
        <name>Provost Cordiner Road</name>
      </trkpt>
      <trkpt lat="57.3609735" lon="-2.0798960">
        <name>Provost Cordiner Road</name>
      </trkpt>
      <trkpt lat="57.3609440" lon="-2.0800287">
        <name>Provost Cordiner Road</name>
      </trkpt>
      <trkpt lat="57.3609145" lon="-2.0801613">
        <name>Provost Cordiner Road</name>
      </trkpt>
      <trkpt lat="57.3608850" lon="-2.0802940">
        <name>Provost Cordiner Road</name>
      </trkpt>
      <trkpt lat="57.3608620" lon="-2.0803973">
        <name>Provost Cordiner Road</name>
      </trkpt>
      <trkpt lat="57.3608390" lon="-2.0805007">
        <name>Provost Cordiner Road</name>
      </trkpt>
      <trkpt lat="57.3608160" lon="-2.0806040">
        <name>Provost Cordiner Road</name>
      </trkpt>
      <trkpt lat="57.3607913" lon="-2.0807140">
        <name>Provost Cordiner Road</name>
      </trkpt>
      <trkpt lat="57.3607667" lon="-2.0808240">
        <name>Provost Cordiner Road</name>
      </trkpt>
      <trkpt lat="57.3607420" lon="-2.0809340">
        <name>Provost Cordiner Road</name>
      </trkpt>
      <trkpt lat="57.3607088" lon="-2.0810825">
        <name>Provost Cordiner Road</name>
      </trkpt>
      <trkpt lat="57.3606755" lon="-2.0812310">
        <name>Provost Cordiner Road</name>
      </trkpt>
      <trkpt lat="57.3606422" lon="-2.0813795">
        <name>Provost Cordiner Road</name>
      </trkpt>
      <trkpt lat="57.3606090" lon="-2.0815280">
        <name>Provost Cordiner Road</name>
      </trkpt>
      <trkpt lat="57.3605750" lon="-2.0816790">
        <name>Provost Cordiner Road</name>
      </trkpt>
      <trkpt lat="57.3605410" lon="-2.0818300">
        <name>Provost Cordiner Road</name>
      </trkpt>
      <trkpt lat="57.3605070" lon="-2.0819810">
        <name>Provost Cordiner Road</name>
      </trkpt>
      <trkpt lat="57.3604740" lon="-2.0821280">
        <name>Provost Cordiner Road</name>
      </trkpt>
      <trkpt lat="57.3605325" lon="-2.0821725">
        <name>Provost Cordiner Road</name>
      </trkpt>
      <trkpt lat="57.3605910" lon="-2.0822170">
        <name>Provost Cordiner Road</name>
      </trkpt>
      <trkpt lat="57.3606657" lon="-2.0822735">
        <name>Provost Cordiner Road</name>
      </trkpt>
      <trkpt lat="57.3607405" lon="-2.0823300">
        <name>Provost Cordiner Road</name>
      </trkpt>
      <trkpt lat="57.3608153" lon="-2.0823865">
        <name>Provost Cordiner Road</name>
      </trkpt>
      <trkpt lat="57.3608900" lon="-2.0824430">
        <name>Provost Cordiner Road</name>
      </trkpt>
      <trkpt lat="57.3609570" lon="-2.0824940">
        <name>Provost Cordiner Road</name>
      </trkpt>
      <trkpt lat="57.3610155" lon="-2.0825455">
        <name>Provost Cordiner Road</name>
      </trkpt>
      <trkpt lat="57.3610740" lon="-2.0825970">
        <name>Provost Cordiner Road</name>
      </trkpt>
      <trkpt lat="57.3611040" lon="-2.0826240">
        <name>Provost Cordiner Road</name>
      </trkpt>
      <trkpt lat="57.3611210" lon="-2.0826390">
        <name>Provost Cordiner Road</name>
      </trkpt>
      <trkpt lat="57.3610850" lon="-2.0827732">
        <name>Provost Cordiner Road</name>
      </trkpt>
      <trkpt lat="57.3610490" lon="-2.0829075">
        <name>Provost Cordiner Road</name>
      </trkpt>
      <trkpt lat="57.3610130" lon="-2.0830418">
        <name>Provost Cordiner Road</name>
      </trkpt>
      <trkpt lat="57.3609770" lon="-2.0831760">
        <name>Provost Cordiner Road</name>
      </trkpt>
      <trkpt lat="57.3609390" lon="-2.0833160">
        <name>Provost Cordiner Road</name>
      </trkpt>
      <trkpt lat="57.3609240" lon="-2.0833690">
        <name>Provost Cordiner Road</name>
      </trkpt>
      <trkpt lat="57.3608930" lon="-2.0834780">
        <name>Provost Cordiner Road</name>
      </trkpt>
      <trkpt lat="57.3608620" lon="-2.0835870">
        <name>Provost Cordiner Road</name>
      </trkpt>
      <trkpt lat="57.3608410" lon="-2.0836590">
        <name>Provost Cordiner Road</name>
      </trkpt>
      <trkpt lat="57.3608060" lon="-2.0837850">
        <name>Provost Cordiner Road</name>
      </trkpt>
      <trkpt lat="57.3607710" lon="-2.0839110">
        <name>Provost Cordiner Road</name>
      </trkpt>
      <trkpt lat="57.3607390" lon="-2.0840263">
        <name>Provost Cordiner Road</name>
      </trkpt>
      <trkpt lat="57.3607070" lon="-2.0841417">
        <name>Provost Cordiner Road</name>
      </trkpt>
      <trkpt lat="57.3606750" lon="-2.0842570">
        <name>Provost Cordiner Road</name>
      </trkpt>
      <trkpt lat="57.3606510" lon="-2.0843475">
        <name>Provost Cordiner Road</name>
      </trkpt>
      <trkpt lat="57.3606270" lon="-2.0844380">
        <name>Provost Cordiner Road</name>
      </trkpt>
      <trkpt lat="57.3606100" lon="-2.0845270">
        <name>Provost Cordiner Road</name>
      </trkpt>
      <trkpt lat="57.3605910" lon="-2.0846245">
        <name>Provost Cordiner Road</name>
      </trkpt>
      <trkpt lat="57.3605720" lon="-2.0847220">
        <name>Provost Cordiner Road</name>
      </trkpt>
      <trkpt lat="57.3605500" lon="-2.0848520">
        <name>Provost Cordiner Road</name>
      </trkpt>
      <trkpt lat="57.3605280" lon="-2.0849820">
        <name>Provost Cordiner Road</name>
      </trkpt>
      <trkpt lat="57.3605060" lon="-2.0851120">
        <name>Provost Cordiner Road</name>
      </trkpt>
      <trkpt lat="57.3604990" lon="-2.0851540">
        <name>Provost Cordiner Road</name>
      </trkpt>
      <trkpt lat="57.3604810" lon="-2.0852677">
        <name>Provost Cordiner Road</name>
      </trkpt>
      <trkpt lat="57.3604630" lon="-2.0853813">
        <name>Provost Cordiner Road</name>
      </trkpt>
      <trkpt lat="57.3604450" lon="-2.0854950">
        <name>Provost Cordiner Road</name>
      </trkpt>
      <trkpt lat="57.3603600" lon="-2.0854460">
        <name>Bruce Crescent</name>
      </trkpt>
      <trkpt lat="57.3602835" lon="-2.0854020">
        <name>Bruce Crescent</name>
      </trkpt>
      <trkpt lat="57.3602070" lon="-2.0853580">
        <name>Bruce Crescent</name>
      </trkpt>
      <trkpt lat="57.3601490" lon="-2.0853195">
        <name>Bruce Crescent</name>
      </trkpt>
      <trkpt lat="57.3600910" lon="-2.0852810">
        <name>Bruce Crescent</name>
      </trkpt>
      <trkpt lat="57.3600620" lon="-2.0852620">
        <name>Bruce Crescent</name>
      </trkpt>
      <trkpt lat="57.3600170" lon="-2.0852120">
        <name>Bruce Crescent</name>
      </trkpt>
      <trkpt lat="57.3599830" lon="-2.0851500">
        <name>Bruce Crescent</name>
      </trkpt>
      <trkpt lat="57.3599520" lon="-2.0850490">
        <name>Bruce Crescent</name>
      </trkpt>
      <trkpt lat="57.3599340" lon="-2.0849340">
        <name>Bruce Crescent</name>
      </trkpt>
      <trkpt lat="57.3599415" lon="-2.0848480">
        <name>Bruce Crescent</name>
      </trkpt>
      <trkpt lat="57.3599490" lon="-2.0847620">
        <name>Bruce Crescent</name>
      </trkpt>
      <trkpt lat="57.3599740" lon="-2.0846370">
        <name>Bruce Crescent</name>
      </trkpt>
      <trkpt lat="57.3599992" lon="-2.0845080">
        <name>Bruce Crescent</name>
      </trkpt>
      <trkpt lat="57.3600244" lon="-2.0843790">
        <name>Bruce Crescent</name>
      </trkpt>
      <trkpt lat="57.3600496" lon="-2.0842500">
        <name>Bruce Crescent</name>
      </trkpt>
      <trkpt lat="57.3600748" lon="-2.0841210">
        <name>Bruce Crescent</name>
      </trkpt>
      <trkpt lat="57.3601000" lon="-2.0839920">
        <name>Bruce Crescent</name>
      </trkpt>
      <trkpt lat="57.3601110" lon="-2.0839380">
        <name>Bruce Crescent</name>
      </trkpt>
      <trkpt lat="57.3601364" lon="-2.0838128">
        <name>Provost Davidson Drive</name>
      </trkpt>
      <trkpt lat="57.3601618" lon="-2.0836876">
        <name>Provost Davidson Drive</name>
      </trkpt>
      <trkpt lat="57.3601872" lon="-2.0835624">
        <name>Provost Davidson Drive</name>
      </trkpt>
      <trkpt lat="57.3602126" lon="-2.0834372">
        <name>Provost Davidson Drive</name>
      </trkpt>
      <trkpt lat="57.3602380" lon="-2.0833120">
        <name>Provost Davidson Drive</name>
      </trkpt>
      <trkpt lat="57.3602590" lon="-2.0832100">
        <name>Provost Davidson Drive</name>
      </trkpt>
      <trkpt lat="57.3602800" lon="-2.0831080">
        <name>Provost Davidson Drive</name>
      </trkpt>
      <trkpt lat="57.3603390" lon="-2.0830130">
        <name>Provost Davidson Drive</name>
      </trkpt>
      <trkpt lat="57.3604090" lon="-2.0829500">
        <name>Provost Davidson Drive</name>
      </trkpt>
      <trkpt lat="57.3604770" lon="-2.0829340">
        <name>Provost Davidson Drive</name>
      </trkpt>
      <trkpt lat="57.3604870" lon="-2.0829390">
      </trkpt>
      <trkpt lat="57.3605440" lon="-2.0829700">
      </trkpt>
      <trkpt lat="57.3606153" lon="-2.0830327">
      </trkpt>
      <trkpt lat="57.3606867" lon="-2.0830953">
      </trkpt>
      <trkpt lat="57.3607580" lon="-2.0831580">
      </trkpt>
      <trkpt lat="57.3608183" lon="-2.0832107">
        <name>Provost Davidson Drive</name>
      </trkpt>
      <trkpt lat="57.3608787" lon="-2.0832633">
        <name>Provost Davidson Drive</name>
      </trkpt>
      <trkpt lat="57.3609390" lon="-2.0833160">
        <name>Provost Davidson Drive</name>
      </trkpt>
      <trkpt lat="57.3609240" lon="-2.0833690">
        <name>Provost Davidson Drive</name>
      </trkpt>
      <trkpt lat="57.3608910" lon="-2.0834850">
        <name>Provost Davidson Drive</name>
      </trkpt>
      <trkpt lat="57.3608660" lon="-2.0835720">
        <name>Provost Davidson Drive</name>
      </trkpt>
      <trkpt lat="57.3608410" lon="-2.0836590">
        <name>Provost Davidson Drive</name>
      </trkpt>
      <trkpt lat="57.3608200" lon="-2.0837350">
        <name>Bruce Crescent</name>
      </trkpt>
      <trkpt lat="57.3607867" lon="-2.0838547">
        <name>Bruce Crescent</name>
      </trkpt>
      <trkpt lat="57.3607535" lon="-2.0839745">
        <name>Bruce Crescent</name>
      </trkpt>
      <trkpt lat="57.3607202" lon="-2.0840942">
        <name>Bruce Crescent</name>
      </trkpt>
      <trkpt lat="57.3606870" lon="-2.0842140">
        <name>Bruce Crescent</name>
      </trkpt>
      <trkpt lat="57.3606750" lon="-2.0842570">
        <name>Bruce Crescent</name>
      </trkpt>
      <trkpt lat="57.3606510" lon="-2.0843475">
        <name>Bruce Crescent</name>
      </trkpt>
      <trkpt lat="57.3606270" lon="-2.0844380">
        <name>Bruce Crescent</name>
      </trkpt>
      <trkpt lat="57.3605995" lon="-2.0845800">
        <name>Bruce Crescent</name>
      </trkpt>
      <trkpt lat="57.3605720" lon="-2.0847220">
        <name>Bruce Crescent</name>
      </trkpt>
      <trkpt lat="57.3605540" lon="-2.0848285">
        <name>Bruce Crescent</name>
      </trkpt>
      <trkpt lat="57.3605360" lon="-2.0849350">
        <name>Bruce Crescent</name>
      </trkpt>
      <trkpt lat="57.3605210" lon="-2.0850235">
        <name>Bruce Crescent</name>
      </trkpt>
      <trkpt lat="57.3605060" lon="-2.0851120">
        <name>Bruce Crescent</name>
      </trkpt>
      <trkpt lat="57.3604857" lon="-2.0852397">
        <name>Bruce Crescent</name>
      </trkpt>
      <trkpt lat="57.3604653" lon="-2.0853673">
        <name>Bruce Crescent</name>
      </trkpt>
      <trkpt lat="57.3604450" lon="-2.0854950">
        <name>Bruce Crescent</name>
      </trkpt>
      <trkpt lat="57.3604320" lon="-2.0855790">
        <name>Bruce Crescent</name>
      </trkpt>
      <trkpt lat="57.3604190" lon="-2.0856630">
        <name>Bruce Crescent</name>
      </trkpt>
      <trkpt lat="57.3604040" lon="-2.0857600">
        <name>Bruce Crescent</name>
      </trkpt>
      <trkpt lat="57.3603890" lon="-2.0858570">
        <name>Bruce Crescent</name>
      </trkpt>
      <trkpt lat="57.3603723" lon="-2.0859787">
        <name>Bruce Crescent</name>
      </trkpt>
      <trkpt lat="57.3603557" lon="-2.0861003">
        <name>Bruce Crescent</name>
      </trkpt>
      <trkpt lat="57.3603390" lon="-2.0862220">
        <name>Bruce Crescent</name>
      </trkpt>
      <trkpt lat="57.3603260" lon="-2.0863160">
        <name>Bruce Crescent</name>
      </trkpt>
      <trkpt lat="57.3603230" lon="-2.0863440">
        <name>Bruce Crescent</name>
      </trkpt>
      <trkpt lat="57.3603040" lon="-2.0865065">
        <name>Bruce Crescent</name>
      </trkpt>
      <trkpt lat="57.3602850" lon="-2.0866690">
        <name>Bruce Crescent</name>
      </trkpt>
      <trkpt lat="57.3602810" lon="-2.0867645">
        <name>Bruce Crescent</name>
      </trkpt>
      <trkpt lat="57.3602770" lon="-2.0868600">
        <name>Bruce Crescent</name>
      </trkpt>
      <trkpt lat="57.3602750" lon="-2.0868990">
        <name>Bruce Crescent</name>
      </trkpt>
      <trkpt lat="57.3602670" lon="-2.0870514">
        <name>Bruce Crescent</name>
      </trkpt>
      <trkpt lat="57.3602590" lon="-2.0872038">
        <name>Bruce Crescent</name>
      </trkpt>
      <trkpt lat="57.3602510" lon="-2.0873562">
        <name>Bruce Crescent</name>
      </trkpt>
      <trkpt lat="57.3602430" lon="-2.0875086">
        <name>Bruce Crescent</name>
      </trkpt>
      <trkpt lat="57.3602350" lon="-2.0876610">
        <name>Bruce Crescent</name>
      </trkpt>
      <trkpt lat="57.3602265" lon="-2.0878205">
        <name>Bruce Crescent</name>
      </trkpt>
      <trkpt lat="57.3602180" lon="-2.0879800">
        <name>Bruce Crescent</name>
      </trkpt>
      <trkpt lat="57.3602095" lon="-2.0881395">
        <name>Bruce Crescent</name>
      </trkpt>
      <trkpt lat="57.3602010" lon="-2.0882990">
        <name>Bruce Crescent</name>
      </trkpt>
      <trkpt lat="57.3601934" lon="-2.0884394">
        <name>Bruce Crescent</name>
      </trkpt>
      <trkpt lat="57.3601858" lon="-2.0885798">
        <name>Bruce Crescent</name>
      </trkpt>
      <trkpt lat="57.3601782" lon="-2.0887202">
        <name>Bruce Crescent</name>
      </trkpt>
      <trkpt lat="57.3601706" lon="-2.0888606">
        <name>Bruce Crescent</name>
      </trkpt>
      <trkpt lat="57.3601630" lon="-2.0890010">
        <name>Bruce Crescent</name>
      </trkpt>
      <trkpt lat="57.3601590" lon="-2.0890850">
        <name>Bruce Crescent</name>
      </trkpt>
      <trkpt lat="57.3601550" lon="-2.0892260">
        <name>Bruce Crescent</name>
      </trkpt>
      <trkpt lat="57.3602173" lon="-2.0892293">
        <name>Bruce Crescent</name>
      </trkpt>
      <trkpt lat="57.3602797" lon="-2.0892327">
        <name>Bruce Crescent</name>
      </trkpt>
      <trkpt lat="57.3603420" lon="-2.0892360">
        <name>Bruce Crescent</name>
      </trkpt>
      <trkpt lat="57.3604043" lon="-2.0892393">
        <name>Bruce Crescent</name>
      </trkpt>
      <trkpt lat="57.3604667" lon="-2.0892427">
        <name>Bruce Crescent</name>
      </trkpt>
      <trkpt lat="57.3605290" lon="-2.0892460">
        <name>Bruce Crescent</name>
      </trkpt>
      <trkpt lat="57.3605540" lon="-2.0892460">
        <name>Bruce Crescent</name>
      </trkpt>
      <trkpt lat="57.3606000" lon="-2.0892460">
        <name>Bruce Crescent</name>
      </trkpt>
      <trkpt lat="57.3606460" lon="-2.0892460">
        <name>Bruce Crescent</name>
      </trkpt>
      <trkpt lat="57.3607290" lon="-2.0892060">
        <name>Bruce Crescent</name>
      </trkpt>
      <trkpt lat="57.3607870" lon="-2.0891150">
        <name>Bruce Crescent</name>
      </trkpt>
      <trkpt lat="57.3608150" lon="-2.0890315">
        <name>Bruce Crescent</name>
      </trkpt>
      <trkpt lat="57.3608430" lon="-2.0889480">
        <name>Bruce Crescent</name>
      </trkpt>
      <trkpt lat="57.3608628" lon="-2.0888267">
        <name>Bruce Crescent</name>
      </trkpt>
      <trkpt lat="57.3608825" lon="-2.0887055">
        <name>Bruce Crescent</name>
      </trkpt>
      <trkpt lat="57.3609023" lon="-2.0885842">
        <name>Bruce Crescent</name>
      </trkpt>
      <trkpt lat="57.3609220" lon="-2.0884630">
        <name>Bruce Crescent</name>
      </trkpt>
      <trkpt lat="57.3609420" lon="-2.0883450">
        <name>Bruce Crescent</name>
      </trkpt>
      <trkpt lat="57.3609620" lon="-2.0882270">
        <name>Bruce Crescent</name>
      </trkpt>
      <trkpt lat="57.3609765" lon="-2.0881360">
        <name>Bruce Crescent</name>
      </trkpt>
      <trkpt lat="57.3609910" lon="-2.0880450">
        <name>Bruce Crescent</name>
      </trkpt>
      <trkpt lat="57.3610040" lon="-2.0879630">
        <name>Bruce Crescent</name>
      </trkpt>
      <trkpt lat="57.3610170" lon="-2.0878810">
        <name>Bruce Crescent</name>
      </trkpt>
      <trkpt lat="57.3610397" lon="-2.0877423">
        <name>Bruce Crescent</name>
      </trkpt>
      <trkpt lat="57.3610623" lon="-2.0876037">
        <name>Bruce Crescent</name>
      </trkpt>
      <trkpt lat="57.3610850" lon="-2.0874650">
        <name>Bruce Crescent</name>
      </trkpt>
      <trkpt lat="57.3610850" lon="-2.0873800">
        <name>Bruce Crescent</name>
      </trkpt>
      <trkpt lat="57.3610820" lon="-2.0873540">
        <name>Bruce Crescent</name>
      </trkpt>
      <trkpt lat="57.3610750" lon="-2.0872880">
        <name>Bruce Crescent</name>
      </trkpt>
      <trkpt lat="57.3610430" lon="-2.0872050">
        <name>Bruce Crescent</name>
      </trkpt>
      <trkpt lat="57.3609870" lon="-2.0871520">
        <name>Bruce Crescent</name>
      </trkpt>
      <trkpt lat="57.3609320" lon="-2.0871430">
        <name>Bruce Crescent</name>
      </trkpt>
      <trkpt lat="57.3609010" lon="-2.0871630">
        <name>Bruce Crescent</name>
      </trkpt>
      <trkpt lat="57.3608590" lon="-2.0872040">
        <name>Bruce Crescent</name>
      </trkpt>
      <trkpt lat="57.3608250" lon="-2.0872680">
        <name>Bruce Crescent</name>
      </trkpt>
      <trkpt lat="57.3608210" lon="-2.0872840">
        <name>Bruce Crescent</name>
      </trkpt>
      <trkpt lat="57.3607990" lon="-2.0873690">
        <name>Bruce Crescent</name>
      </trkpt>
      <trkpt lat="57.3608060" lon="-2.0875100">
        <name>Bruce Crescent</name>
      </trkpt>
      <trkpt lat="57.3608180" lon="-2.0876407">
        <name>Bruce Crescent</name>
      </trkpt>
      <trkpt lat="57.3608300" lon="-2.0877715">
        <name>Bruce Crescent</name>
      </trkpt>
      <trkpt lat="57.3608420" lon="-2.0879022">
        <name>Bruce Crescent</name>
      </trkpt>
      <trkpt lat="57.3608540" lon="-2.0880330">
        <name>Bruce Crescent</name>
      </trkpt>
      <trkpt lat="57.3608620" lon="-2.0881090">
        <name>Bruce Crescent</name>
      </trkpt>
      <trkpt lat="57.3608760" lon="-2.0882360">
        <name>Bruce Crescent</name>
      </trkpt>
      <trkpt lat="57.3608900" lon="-2.0883630">
        <name>Bruce Crescent</name>
      </trkpt>
      <trkpt lat="57.3609220" lon="-2.0884630">
        <name>Bruce Crescent</name>
      </trkpt>
      <trkpt lat="57.3608985" lon="-2.0886065">
        <name>Bruce Crescent</name>
      </trkpt>
      <trkpt lat="57.3608750" lon="-2.0887500">
        <name>Bruce Crescent</name>
      </trkpt>
      <trkpt lat="57.3608580" lon="-2.0888540">
        <name>Bruce Crescent</name>
      </trkpt>
      <trkpt lat="57.3608410" lon="-2.0889580">
        <name>Bruce Crescent</name>
      </trkpt>
      <trkpt lat="57.3608140" lon="-2.0890365">
        <name>Bruce Crescent</name>
      </trkpt>
      <trkpt lat="57.3607870" lon="-2.0891150">
        <name>Bruce Crescent</name>
      </trkpt>
      <trkpt lat="57.3607290" lon="-2.0892060">
        <name>Bruce Crescent</name>
      </trkpt>
      <trkpt lat="57.3607050" lon="-2.0892180">
        <name>Bruce Crescent</name>
      </trkpt>
      <trkpt lat="57.3606460" lon="-2.0892460">
        <name>Bruce Crescent</name>
      </trkpt>
      <trkpt lat="57.3605875" lon="-2.0892460">
        <name>Bruce Crescent</name>
      </trkpt>
      <trkpt lat="57.3605290" lon="-2.0892460">
        <name>Bruce Crescent</name>
      </trkpt>
      <trkpt lat="57.3604437" lon="-2.0892413">
        <name>Bruce Crescent</name>
      </trkpt>
      <trkpt lat="57.3603583" lon="-2.0892367">
        <name>Bruce Crescent</name>
      </trkpt>
      <trkpt lat="57.3602730" lon="-2.0892320">
        <name>Bruce Crescent</name>
      </trkpt>
      <trkpt lat="57.3602140" lon="-2.0892290">
        <name>Bruce Crescent</name>
      </trkpt>
      <trkpt lat="57.3601550" lon="-2.0892260">
        <name>Bruce Crescent</name>
      </trkpt>
      <trkpt lat="57.3601510" lon="-2.0893150">
        <name>Bruce Crescent</name>
      </trkpt>
      <trkpt lat="57.3601470" lon="-2.0894040">
        <name>Bruce Crescent</name>
      </trkpt>
      <trkpt lat="57.3601395" lon="-2.0895605">
        <name>Bruce Crescent</name>
      </trkpt>
      <trkpt lat="57.3601320" lon="-2.0897170">
        <name>Bruce Crescent</name>
      </trkpt>
      <trkpt lat="57.3600615" lon="-2.0896935">
        <name>Bruce Crescent</name>
      </trkpt>
      <trkpt lat="57.3599910" lon="-2.0896700">
        <name>Bruce Crescent</name>
      </trkpt>
      <trkpt lat="57.3599220" lon="-2.0896467">
        <name>Bruce Crescent</name>
      </trkpt>
      <trkpt lat="57.3598530" lon="-2.0896235">
        <name>Bruce Crescent</name>
      </trkpt>
      <trkpt lat="57.3597840" lon="-2.0896002">
        <name>Bruce Crescent</name>
      </trkpt>
      <trkpt lat="57.3597150" lon="-2.0895770">
        <name>Bruce Crescent</name>
      </trkpt>
      <trkpt lat="57.3596350" lon="-2.0895503">
        <name>Bruce Crescent</name>
      </trkpt>
      <trkpt lat="57.3595550" lon="-2.0895237">
        <name>Bruce Crescent</name>
      </trkpt>
      <trkpt lat="57.3594750" lon="-2.0894970">
        <name>Bruce Crescent</name>
      </trkpt>
      <trkpt lat="57.3594659" lon="-2.0896427">
        <name>Bruce Crescent</name>
      </trkpt>
      <trkpt lat="57.3594567" lon="-2.0897884">
        <name>Bruce Crescent</name>
      </trkpt>
      <trkpt lat="57.3594476" lon="-2.0899341">
        <name>Bruce Crescent</name>
      </trkpt>
      <trkpt lat="57.3594384" lon="-2.0900799">
        <name>Bruce Crescent</name>
      </trkpt>
      <trkpt lat="57.3594293" lon="-2.0902256">
        <name>Bruce Crescent</name>
      </trkpt>
      <trkpt lat="57.3594201" lon="-2.0903713">
        <name>Bruce Crescent</name>
      </trkpt>
      <trkpt lat="57.3594110" lon="-2.0905170">
        <name>Bruce Crescent</name>
      </trkpt>
      <trkpt lat="57.3594110" lon="-2.0906560">
        <name>Bruce Crescent</name>
      </trkpt>
      <trkpt lat="57.3594110" lon="-2.0907950">
        <name>Bruce Crescent</name>
      </trkpt>
      <trkpt lat="57.3594115" lon="-2.0909190">
        <name>Bruce Crescent</name>
      </trkpt>
      <trkpt lat="57.3594120" lon="-2.0910430">
        <name>Bruce Crescent</name>
      </trkpt>
      <trkpt lat="57.3594115" lon="-2.0909500">
        <name>Bruce Crescent</name>
      </trkpt>
      <trkpt lat="57.3594110" lon="-2.0908570">
        <name>Bruce Crescent</name>
      </trkpt>
      <trkpt lat="57.3594110" lon="-2.0907950">
        <name>Bruce Crescent</name>
      </trkpt>
      <trkpt lat="57.3594110" lon="-2.0906560">
        <name>Bruce Crescent</name>
      </trkpt>
      <trkpt lat="57.3594110" lon="-2.0905170">
        <name>Bruce Crescent</name>
      </trkpt>
      <trkpt lat="57.3594201" lon="-2.0903713">
        <name>Bruce Crescent</name>
      </trkpt>
      <trkpt lat="57.3594293" lon="-2.0902256">
        <name>Bruce Crescent</name>
      </trkpt>
      <trkpt lat="57.3594384" lon="-2.0900799">
        <name>Bruce Crescent</name>
      </trkpt>
      <trkpt lat="57.3594476" lon="-2.0899341">
        <name>Bruce Crescent</name>
      </trkpt>
      <trkpt lat="57.3594567" lon="-2.0897884">
        <name>Bruce Crescent</name>
      </trkpt>
      <trkpt lat="57.3594659" lon="-2.0896427">
        <name>Bruce Crescent</name>
      </trkpt>
      <trkpt lat="57.3594750" lon="-2.0894970">
        <name>Bruce Crescent</name>
      </trkpt>
      <trkpt lat="57.3594875" lon="-2.0893323">
        <name>Bruce Crescent</name>
      </trkpt>
      <trkpt lat="57.3595000" lon="-2.0891675">
        <name>Bruce Crescent</name>
      </trkpt>
      <trkpt lat="57.3595125" lon="-2.0890028">
        <name>Bruce Crescent</name>
      </trkpt>
      <trkpt lat="57.3595250" lon="-2.0888380">
        <name>Bruce Crescent</name>
      </trkpt>
      <trkpt lat="57.3595357" lon="-2.0886957">
        <name>Bruce Crescent</name>
      </trkpt>
      <trkpt lat="57.3595463" lon="-2.0885533">
        <name>Bruce Crescent</name>
      </trkpt>
      <trkpt lat="57.3595570" lon="-2.0884110">
        <name>Bruce Crescent</name>
      </trkpt>
      <trkpt lat="57.3595660" lon="-2.0882933">
        <name>Bruce Crescent</name>
      </trkpt>
      <trkpt lat="57.3595750" lon="-2.0881757">
        <name>Bruce Crescent</name>
      </trkpt>
      <trkpt lat="57.3595840" lon="-2.0880580">
        <name>Bruce Crescent</name>
      </trkpt>
      <trkpt lat="57.3595938" lon="-2.0879295">
        <name>Bruce Crescent</name>
      </trkpt>
      <trkpt lat="57.3596035" lon="-2.0878010">
        <name>Bruce Crescent</name>
      </trkpt>
      <trkpt lat="57.3596132" lon="-2.0876725">
        <name>Bruce Crescent</name>
      </trkpt>
      <trkpt lat="57.3596230" lon="-2.0875440">
        <name>Bruce Crescent</name>
      </trkpt>
      <trkpt lat="57.3596340" lon="-2.0874070">
        <name>Provost Davidson Drive</name>
      </trkpt>
      <trkpt lat="57.3596425" lon="-2.0872830">
        <name>Provost Davidson Drive</name>
      </trkpt>
      <trkpt lat="57.3596510" lon="-2.0871590">
        <name>Provost Davidson Drive</name>
      </trkpt>
      <trkpt lat="57.3596640" lon="-2.0870820">
        <name>Provost Davidson Drive</name>
      </trkpt>
      <trkpt lat="57.3596900" lon="-2.0870080">
        <name>Provost Davidson Drive</name>
      </trkpt>
      <trkpt lat="57.3597020" lon="-2.0869890">
        <name>Provost Davidson Drive</name>
      </trkpt>
      <trkpt lat="57.3597430" lon="-2.0869190">
        <name>Provost Davidson Drive</name>
      </trkpt>
      <trkpt lat="57.3597740" lon="-2.0868890">
        <name>Provost Davidson Drive</name>
      </trkpt>
      <trkpt lat="57.3598050" lon="-2.0868640">
        <name>Provost Davidson Drive</name>
      </trkpt>
      <trkpt lat="57.3598410" lon="-2.0868500">
        <name>Provost Davidson Drive</name>
      </trkpt>
      <trkpt lat="57.3598770" lon="-2.0868450">
        <name>Provost Davidson Drive</name>
      </trkpt>
      <trkpt lat="57.3599090" lon="-2.0868490">
        <name>Provost Davidson Drive</name>
      </trkpt>
      <trkpt lat="57.3599715" lon="-2.0868580">
        <name>Provost Davidson Drive</name>
      </trkpt>
      <trkpt lat="57.3600340" lon="-2.0868670">
        <name>Provost Davidson Drive</name>
      </trkpt>
      <trkpt lat="57.3601035" lon="-2.0868765">
        <name>Provost Davidson Drive</name>
      </trkpt>
      <trkpt lat="57.3601730" lon="-2.0868860">
        <name>Provost Davidson Drive</name>
      </trkpt>
      <trkpt lat="57.3602240" lon="-2.0868925">
        <name>Provost Davidson Drive</name>
      </trkpt>
      <trkpt lat="57.3602750" lon="-2.0868990">
        <name>Provost Davidson Drive</name>
      </trkpt>
      <trkpt lat="57.3602673" lon="-2.0870417">
        <name>Provost Davidson Drive</name>
      </trkpt>
      <trkpt lat="57.3602597" lon="-2.0871843">
        <name>Provost Davidson Drive</name>
      </trkpt>
      <trkpt lat="57.3602520" lon="-2.0873270">
        <name>Provost Davidson Drive</name>
      </trkpt>
      <trkpt lat="57.3602446" lon="-2.0874658">
        <name>Provost Davidson Drive</name>
      </trkpt>
      <trkpt lat="57.3602372" lon="-2.0876046">
        <name>Provost Davidson Drive</name>
      </trkpt>
      <trkpt lat="57.3602298" lon="-2.0877434">
        <name>Provost Davidson Drive</name>
      </trkpt>
      <trkpt lat="57.3602224" lon="-2.0878822">
        <name>Provost Davidson Drive</name>
      </trkpt>
      <trkpt lat="57.3602150" lon="-2.0880210">
        <name>Provost Davidson Drive</name>
      </trkpt>
      <trkpt lat="57.3602074" lon="-2.0881644">
        <name>Barratt Drive</name>
      </trkpt>
      <trkpt lat="57.3601998" lon="-2.0883078">
        <name>Barratt Drive</name>
      </trkpt>
      <trkpt lat="57.3601922" lon="-2.0884512">
        <name>Barratt Drive</name>
      </trkpt>
      <trkpt lat="57.3601846" lon="-2.0885946">
        <name>Barratt Drive</name>
      </trkpt>
      <trkpt lat="57.3601770" lon="-2.0887380">
        <name>Barratt Drive</name>
      </trkpt>
      <trkpt lat="57.3601710" lon="-2.0888537">
        <name>Barratt Drive</name>
      </trkpt>
      <trkpt lat="57.3601650" lon="-2.0889693">
        <name>Barratt Drive</name>
      </trkpt>
      <trkpt lat="57.3601590" lon="-2.0890850">
        <name>Barratt Drive</name>
      </trkpt>
      <trkpt lat="57.3601550" lon="-2.0892260">
        <name>Barratt Drive</name>
      </trkpt>
      <trkpt lat="57.3601530" lon="-2.0892590">
        <name>Barratt Drive</name>
      </trkpt>
      <trkpt lat="57.3601460" lon="-2.0894117">
        <name>Barratt Drive</name>
      </trkpt>
      <trkpt lat="57.3601390" lon="-2.0895643">
        <name>Barratt Drive</name>
      </trkpt>
      <trkpt lat="57.3601320" lon="-2.0897170">
        <name>Barratt Drive</name>
      </trkpt>
      <trkpt lat="57.3601250" lon="-2.0898550">
        <name>Barratt Drive</name>
      </trkpt>
      <trkpt lat="57.3601174" lon="-2.0900172">
        <name>Barratt Drive</name>
      </trkpt>
      <trkpt lat="57.3601098" lon="-2.0901794">
        <name>Barratt Drive</name>
      </trkpt>
      <trkpt lat="57.3601022" lon="-2.0903416">
        <name>Barratt Drive</name>
      </trkpt>
      <trkpt lat="57.3600946" lon="-2.0905038">
        <name>Barratt Drive</name>
      </trkpt>
      <trkpt lat="57.3600870" lon="-2.0906660">
        <name>Barratt Drive</name>
      </trkpt>
      <trkpt lat="57.3600860" lon="-2.0906870">
        <name>Barratt Drive</name>
      </trkpt>
      <trkpt lat="57.3601550" lon="-2.0907000">
        <name>Barratt Drive</name>
      </trkpt>
      <trkpt lat="57.3602240" lon="-2.0907130">
        <name>Barratt Drive</name>
      </trkpt>
      <trkpt lat="57.3602930" lon="-2.0907260">
        <name>Barratt Drive</name>
      </trkpt>
      <trkpt lat="57.3603777" lon="-2.0907650">
        <name>Barratt Drive</name>
      </trkpt>
      <trkpt lat="57.3604623" lon="-2.0908040">
        <name>Barratt Drive</name>
      </trkpt>
      <trkpt lat="57.3605470" lon="-2.0908430">
        <name>Barratt Drive</name>
      </trkpt>
      <trkpt lat="57.3606290" lon="-2.0908810">
        <name>Barratt Drive</name>
      </trkpt>
      <trkpt lat="57.3607117" lon="-2.0909160">
        <name>Barratt Drive</name>
      </trkpt>
      <trkpt lat="57.3607943" lon="-2.0909510">
        <name>Barratt Drive</name>
      </trkpt>
      <trkpt lat="57.3608770" lon="-2.0909860">
        <name>Barratt Drive</name>
      </trkpt>
      <trkpt lat="57.3609170" lon="-2.0909870">
        <name>Barratt Drive</name>
      </trkpt>
      <trkpt lat="57.3609580" lon="-2.0909790">
        <name>Barratt Drive</name>
      </trkpt>
      <trkpt lat="57.3609980" lon="-2.0909630">
        <name>Barratt Drive</name>
      </trkpt>
      <trkpt lat="57.3610330" lon="-2.0909360">
        <name>Barratt Drive</name>
      </trkpt>
      <trkpt lat="57.3611010" lon="-2.0908510">
        <name>Barratt Drive</name>
      </trkpt>
      <trkpt lat="57.3611340" lon="-2.0907865">
        <name>Barratt Drive</name>
      </trkpt>
      <trkpt lat="57.3611670" lon="-2.0907220">
        <name>Barratt Drive</name>
      </trkpt>
      <trkpt lat="57.3612040" lon="-2.0906130">
        <name>Barratt Drive</name>
      </trkpt>
      <trkpt lat="57.3612230" lon="-2.0905080">
        <name>Barratt Drive</name>
      </trkpt>
      <trkpt lat="57.3612290" lon="-2.0904760">
        <name>Barratt Drive</name>
      </trkpt>
      <trkpt lat="57.3612440" lon="-2.0903365">
        <name>Barratt Drive</name>
      </trkpt>
      <trkpt lat="57.3612590" lon="-2.0901970">
        <name>Barratt Drive</name>
      </trkpt>
      <trkpt lat="57.3612740" lon="-2.0900575">
        <name>Barratt Drive</name>
      </trkpt>
      <trkpt lat="57.3612890" lon="-2.0899180">
        <name>Barratt Drive</name>
      </trkpt>
      <trkpt lat="57.3613040" lon="-2.0897785">
        <name>Barratt Drive</name>
      </trkpt>
      <trkpt lat="57.3613190" lon="-2.0896390">
        <name>Barratt Drive</name>
      </trkpt>
      <trkpt lat="57.3613357" lon="-2.0894943">
        <name>Barratt Drive</name>
      </trkpt>
      <trkpt lat="57.3613523" lon="-2.0893497">
        <name>Barratt Drive</name>
      </trkpt>
      <trkpt lat="57.3613690" lon="-2.0892050">
        <name>Barratt Drive</name>
      </trkpt>
      <trkpt lat="57.3613710" lon="-2.0891850">
        <name>Barratt Drive</name>
      </trkpt>
      <trkpt lat="57.3613870" lon="-2.0890487">
        <name>Barratt Drive</name>
      </trkpt>
      <trkpt lat="57.3614030" lon="-2.0889123">
        <name>Barratt Drive</name>
      </trkpt>
      <trkpt lat="57.3614190" lon="-2.0887760">
        <name>Barratt Drive</name>
      </trkpt>
      <trkpt lat="57.3614350" lon="-2.0886397">
        <name>Barratt Drive</name>
      </trkpt>
      <trkpt lat="57.3614510" lon="-2.0885033">
        <name>Barratt Drive</name>
      </trkpt>
      <trkpt lat="57.3614670" lon="-2.0883670">
        <name>Barratt Drive</name>
      </trkpt>
      <trkpt lat="57.3614830" lon="-2.0882530">
        <name>Barratt Drive</name>
      </trkpt>
      <trkpt lat="57.3614970" lon="-2.0881447">
        <name>Barratt Drive</name>
      </trkpt>
      <trkpt lat="57.3615110" lon="-2.0880363">
        <name>Barratt Drive</name>
      </trkpt>
      <trkpt lat="57.3615250" lon="-2.0879280">
        <name>Barratt Drive</name>
      </trkpt>
      <trkpt lat="57.3615443" lon="-2.0877802">
        <name>Barratt Drive</name>
      </trkpt>
      <trkpt lat="57.3615637" lon="-2.0876323">
        <name>Barratt Drive</name>
      </trkpt>
      <trkpt lat="57.3615830" lon="-2.0874845">
        <name>Barratt Drive</name>
      </trkpt>
      <trkpt lat="57.3616023" lon="-2.0873367">
        <name>Barratt Drive</name>
      </trkpt>
      <trkpt lat="57.3616217" lon="-2.0871888">
        <name>Barratt Drive</name>
      </trkpt>
      <trkpt lat="57.3616410" lon="-2.0870410">
        <name>Barratt Drive</name>
      </trkpt>
      <trkpt lat="57.3616530" lon="-2.0869430">
        <name>Barratt Drive</name>
      </trkpt>
      <trkpt lat="57.3616650" lon="-2.0868450">
        <name>Barratt Drive</name>
      </trkpt>
      <trkpt lat="57.3616775" lon="-2.0867425">
        <name>Heron Crescent</name>
      </trkpt>
      <trkpt lat="57.3616900" lon="-2.0866400">
        <name>Heron Crescent</name>
      </trkpt>
      <trkpt lat="57.3617030" lon="-2.0865510">
        <name>Heron Crescent</name>
      </trkpt>
      <trkpt lat="57.3617160" lon="-2.0864620">
        <name>Heron Crescent</name>
      </trkpt>
      <trkpt lat="57.3617580" lon="-2.0863240">
        <name>Heron Crescent</name>
      </trkpt>
      <trkpt lat="57.3618110" lon="-2.0862320">
        <name>Heron Crescent</name>
      </trkpt>
      <trkpt lat="57.3618550" lon="-2.0861770">
        <name>Heron Crescent</name>
      </trkpt>
      <trkpt lat="57.3618920" lon="-2.0861530">
        <name>Heron Crescent</name>
      </trkpt>
      <trkpt lat="57.3619340" lon="-2.0861300">
        <name>Heron Crescent</name>
      </trkpt>
      <trkpt lat="57.3619580" lon="-2.0861230">
        <name>Heron Crescent</name>
      </trkpt>
      <trkpt lat="57.3619750" lon="-2.0861190">
        <name>Heron Crescent</name>
      </trkpt>
      <trkpt lat="57.3620170" lon="-2.0861110">
        <name>Heron Crescent</name>
      </trkpt>
      <trkpt lat="57.3620580" lon="-2.0861190">
        <name>Heron Crescent</name>
      </trkpt>
      <trkpt lat="57.3621000" lon="-2.0861340">
        <name>Heron Crescent</name>
      </trkpt>
      <trkpt lat="57.3621340" lon="-2.0861580">
        <name>Heron Crescent</name>
      </trkpt>
      <trkpt lat="57.3621920" lon="-2.0862360">
        <name>Heron Crescent</name>
      </trkpt>
      <trkpt lat="57.3622420" lon="-2.0863260">
        <name>Heron Crescent</name>
      </trkpt>
      <trkpt lat="57.3622570" lon="-2.0863780">
        <name>Heron Crescent</name>
      </trkpt>
      <trkpt lat="57.3622730" lon="-2.0864310">
        <name>Heron Crescent</name>
      </trkpt>
      <trkpt lat="57.3623030" lon="-2.0865480">
        <name>Heron Crescent</name>
      </trkpt>
      <trkpt lat="57.3623020" lon="-2.0866170">
        <name>Heron Crescent</name>
      </trkpt>
      <trkpt lat="57.3623020" lon="-2.0867110">
        <name>Heron Crescent</name>
      </trkpt>
      <trkpt lat="57.3622995" lon="-2.0868420">
        <name>Heron Crescent</name>
      </trkpt>
      <trkpt lat="57.3622970" lon="-2.0869730">
        <name>Heron Crescent</name>
      </trkpt>
      <trkpt lat="57.3622945" lon="-2.0871245">
        <name>Heron Crescent</name>
      </trkpt>
      <trkpt lat="57.3622920" lon="-2.0872760">
        <name>Heron Crescent</name>
      </trkpt>
      <trkpt lat="57.3622910" lon="-2.0873040">
        <name>Heron Crescent</name>
      </trkpt>
      <trkpt lat="57.3622930" lon="-2.0873850">
        <name>Heron Crescent</name>
      </trkpt>
      <trkpt lat="57.3623170" lon="-2.0875360">
        <name>Heron Crescent</name>
      </trkpt>
      <trkpt lat="57.3623410" lon="-2.0876870">
        <name>Heron Crescent</name>
      </trkpt>
      <trkpt lat="57.3623657" lon="-2.0878433">
        <name>Heron Crescent</name>
      </trkpt>
      <trkpt lat="57.3623903" lon="-2.0879997">
        <name>Heron Crescent</name>
      </trkpt>
      <trkpt lat="57.3624150" lon="-2.0881560">
        <name>Heron Crescent</name>
      </trkpt>
      <trkpt lat="57.3624280" lon="-2.0882400">
        <name>Heron Crescent</name>
      </trkpt>
      <trkpt lat="57.3623582" lon="-2.0882760">
        <name>Heron Crescent</name>
      </trkpt>
      <trkpt lat="57.3622885" lon="-2.0883120">
        <name>Heron Crescent</name>
      </trkpt>
      <trkpt lat="57.3622188" lon="-2.0883480">
        <name>Heron Crescent</name>
      </trkpt>
      <trkpt lat="57.3621490" lon="-2.0883840">
        <name>Heron Crescent</name>
      </trkpt>
      <trkpt lat="57.3621220" lon="-2.0883900">
        <name>Heron Crescent</name>
      </trkpt>
      <trkpt lat="57.3620770" lon="-2.0883885">
        <name>Heron Crescent</name>
      </trkpt>
      <trkpt lat="57.3620320" lon="-2.0883870">
        <name>Heron Crescent</name>
      </trkpt>
      <trkpt lat="57.3619457" lon="-2.0883837">
        <name>Heron Crescent</name>
      </trkpt>
      <trkpt lat="57.3618593" lon="-2.0883803">
        <name>Heron Crescent</name>
      </trkpt>
      <trkpt lat="57.3617730" lon="-2.0883770">
        <name>Heron Crescent</name>
      </trkpt>
      <trkpt lat="57.3616950" lon="-2.0883435">
        <name>Heron Crescent</name>
      </trkpt>
      <trkpt lat="57.3616170" lon="-2.0883100">
        <name>Heron Crescent</name>
      </trkpt>
      <trkpt lat="57.3615500" lon="-2.0882815">
        <name>Heron Crescent</name>
      </trkpt>
      <trkpt lat="57.3614830" lon="-2.0882530">
        <name>Heron Crescent</name>
      </trkpt>
      <trkpt lat="57.3615027" lon="-2.0881015">
        <name>Heron Crescent</name>
      </trkpt>
      <trkpt lat="57.3615225" lon="-2.0879500">
        <name>Heron Crescent</name>
      </trkpt>
      <trkpt lat="57.3615422" lon="-2.0877985">
        <name>Heron Crescent</name>
      </trkpt>
      <trkpt lat="57.3615620" lon="-2.0876470">
        <name>Heron Crescent</name>
      </trkpt>
      <trkpt lat="57.3615817" lon="-2.0874955">
        <name>Heron Crescent</name>
      </trkpt>
      <trkpt lat="57.3616015" lon="-2.0873440">
        <name>Heron Crescent</name>
      </trkpt>
      <trkpt lat="57.3616212" lon="-2.0871925">
        <name>Heron Crescent</name>
      </trkpt>
      <trkpt lat="57.3616410" lon="-2.0870410">
        <name>Heron Crescent</name>
      </trkpt>
      <trkpt lat="57.3616573" lon="-2.0869073">
        <name>Heron Crescent</name>
      </trkpt>
      <trkpt lat="57.3616737" lon="-2.0867737">
        <name>Heron Crescent</name>
      </trkpt>
      <trkpt lat="57.3616900" lon="-2.0866400">
        <name>Heron Crescent</name>
      </trkpt>
      <trkpt lat="57.3617030" lon="-2.0865510">
        <name>Heron Crescent</name>
      </trkpt>
      <trkpt lat="57.3617160" lon="-2.0864620">
        <name>Heron Crescent</name>
      </trkpt>
      <trkpt lat="57.3617580" lon="-2.0863240">
        <name>Heron Crescent</name>
      </trkpt>
      <trkpt lat="57.3618110" lon="-2.0862320">
        <name>Heron Crescent</name>
      </trkpt>
      <trkpt lat="57.3618550" lon="-2.0861770">
        <name>Heron Crescent</name>
      </trkpt>
      <trkpt lat="57.3618920" lon="-2.0861530">
        <name>Heron Crescent</name>
      </trkpt>
      <trkpt lat="57.3619340" lon="-2.0861300">
        <name>Heron Crescent</name>
      </trkpt>
      <trkpt lat="57.3619750" lon="-2.0861190">
        <name>Heron Crescent</name>
      </trkpt>
      <trkpt lat="57.3620170" lon="-2.0861110">
        <name>Heron Crescent</name>
      </trkpt>
      <trkpt lat="57.3620580" lon="-2.0861190">
        <name>Barratt Drive</name>
      </trkpt>
      <trkpt lat="57.3621000" lon="-2.0861340">
        <name>Barratt Drive</name>
      </trkpt>
      <trkpt lat="57.3621340" lon="-2.0861580">
        <name>Barratt Drive</name>
      </trkpt>
      <trkpt lat="57.3621920" lon="-2.0862360">
        <name>Barratt Drive</name>
      </trkpt>
      <trkpt lat="57.3622420" lon="-2.0863260">
        <name>Barratt Drive</name>
      </trkpt>
      <trkpt lat="57.3622730" lon="-2.0864310">
        <name>Barratt Drive</name>
      </trkpt>
      <trkpt lat="57.3623030" lon="-2.0865480">
        <name>Barratt Drive</name>
      </trkpt>
      <trkpt lat="57.3623020" lon="-2.0866170">
        <name>Barratt Drive</name>
      </trkpt>
      <trkpt lat="57.3623020" lon="-2.0867110">
        <name>Barratt Drive</name>
      </trkpt>
      <trkpt lat="57.3622995" lon="-2.0868420">
        <name>Barratt Drive</name>
      </trkpt>
      <trkpt lat="57.3622970" lon="-2.0869730">
        <name>Barratt Drive</name>
      </trkpt>
      <trkpt lat="57.3622940" lon="-2.0871385">
        <name>Barratt Drive</name>
      </trkpt>
      <trkpt lat="57.3622910" lon="-2.0873040">
        <name>Barratt Drive</name>
      </trkpt>
      <trkpt lat="57.3622930" lon="-2.0873850">
        <name>Barratt Drive</name>
      </trkpt>
      <trkpt lat="57.3623170" lon="-2.0875360">
        <name>Barratt Drive</name>
      </trkpt>
      <trkpt lat="57.3623410" lon="-2.0876870">
        <name>Barratt Drive</name>
      </trkpt>
      <trkpt lat="57.3623628" lon="-2.0878252">
        <name>Barratt Drive</name>
      </trkpt>
      <trkpt lat="57.3623845" lon="-2.0879635">
        <name>Barratt Drive</name>
      </trkpt>
      <trkpt lat="57.3624062" lon="-2.0881017">
        <name>Barratt Drive</name>
      </trkpt>
      <trkpt lat="57.3624280" lon="-2.0882400">
        <name>Barratt Drive</name>
      </trkpt>
      <trkpt lat="57.3623660" lon="-2.0882720">
        <name>Barratt Drive</name>
      </trkpt>
      <trkpt lat="57.3623040" lon="-2.0883040">
        <name>Barratt Drive</name>
      </trkpt>
      <trkpt lat="57.3622420" lon="-2.0883360">
        <name>Barratt Drive</name>
      </trkpt>
      <trkpt lat="57.3621955" lon="-2.0883600">
        <name>Barratt Drive</name>
      </trkpt>
      <trkpt lat="57.3621490" lon="-2.0883840">
        <name>Barratt Drive</name>
      </trkpt>
      <trkpt lat="57.3621220" lon="-2.0883900">
        <name>Barratt Drive</name>
      </trkpt>
      <trkpt lat="57.3620347" lon="-2.0883867">
        <name>Barratt Drive</name>
      </trkpt>
      <trkpt lat="57.3619475" lon="-2.0883835">
        <name>Barratt Drive</name>
      </trkpt>
      <trkpt lat="57.3618602" lon="-2.0883803">
        <name>Barratt Drive</name>
      </trkpt>
      <trkpt lat="57.3617730" lon="-2.0883770">
        <name>Barratt Drive</name>
      </trkpt>
      <trkpt lat="57.3617005" lon="-2.0883460">
        <name>Barratt Drive</name>
      </trkpt>
      <trkpt lat="57.3616280" lon="-2.0883150">
        <name>Barratt Drive</name>
      </trkpt>
      <trkpt lat="57.3615555" lon="-2.0882840">
        <name>Barratt Drive</name>
      </trkpt>
      <trkpt lat="57.3614830" lon="-2.0882530">
        <name>Barratt Drive</name>
      </trkpt>
      <trkpt lat="57.3615027" lon="-2.0881015">
        <name>Barratt Drive</name>
      </trkpt>
      <trkpt lat="57.3615225" lon="-2.0879500">
        <name>Barratt Drive</name>
      </trkpt>
      <trkpt lat="57.3615422" lon="-2.0877985">
        <name>Barratt Drive</name>
      </trkpt>
      <trkpt lat="57.3615620" lon="-2.0876470">
        <name>Barratt Drive</name>
      </trkpt>
      <trkpt lat="57.3615817" lon="-2.0874955">
        <name>Barratt Drive</name>
      </trkpt>
      <trkpt lat="57.3616015" lon="-2.0873440">
        <name>Barratt Drive</name>
      </trkpt>
      <trkpt lat="57.3616212" lon="-2.0871925">
        <name>Barratt Drive</name>
      </trkpt>
      <trkpt lat="57.3616410" lon="-2.0870410">
        <name>Barratt Drive</name>
      </trkpt>
      <trkpt lat="57.3616573" lon="-2.0869073">
        <name>Barratt Drive</name>
      </trkpt>
      <trkpt lat="57.3616737" lon="-2.0867737">
        <name>Barratt Drive</name>
      </trkpt>
      <trkpt lat="57.3616900" lon="-2.0866400">
        <name>Barratt Drive</name>
      </trkpt>
      <trkpt lat="57.3617030" lon="-2.0865510">
        <name>Barratt Drive</name>
      </trkpt>
      <trkpt lat="57.3617160" lon="-2.0864620">
        <name>Barratt Drive</name>
      </trkpt>
      <trkpt lat="57.3617580" lon="-2.0863240">
        <name>Barratt Drive</name>
      </trkpt>
      <trkpt lat="57.3618110" lon="-2.0862320">
        <name>Barratt Drive</name>
      </trkpt>
      <trkpt lat="57.3618550" lon="-2.0861770">
        <name>Barratt Drive</name>
      </trkpt>
      <trkpt lat="57.3618920" lon="-2.0861530">
        <name>Barratt Drive</name>
      </trkpt>
      <trkpt lat="57.3619340" lon="-2.0861300">
        <name>Barratt Drive</name>
      </trkpt>
      <trkpt lat="57.3619750" lon="-2.0861190">
        <name>Barratt Drive</name>
      </trkpt>
      <trkpt lat="57.3620170" lon="-2.0861110">
        <name>Barratt Drive</name>
      </trkpt>
      <trkpt lat="57.3620580" lon="-2.0861190">
        <name>Barratt Drive</name>
      </trkpt>
      <trkpt lat="57.3621000" lon="-2.0861340">
        <name>Barratt Drive</name>
      </trkpt>
      <trkpt lat="57.3621340" lon="-2.0861580">
        <name>Barratt Drive</name>
      </trkpt>
      <trkpt lat="57.3621920" lon="-2.0862360">
        <name>Barratt Drive</name>
      </trkpt>
      <trkpt lat="57.3622420" lon="-2.0863260">
        <name>Barratt Drive</name>
      </trkpt>
      <trkpt lat="57.3622730" lon="-2.0864310">
        <name>Barratt Drive</name>
      </trkpt>
      <trkpt lat="57.3623030" lon="-2.0865480">
        <name>Barratt Drive</name>
      </trkpt>
      <trkpt lat="57.3623020" lon="-2.0866170">
        <name>Barratt Drive</name>
      </trkpt>
      <trkpt lat="57.3623020" lon="-2.0867110">
        <name>Barratt Drive</name>
      </trkpt>
      <trkpt lat="57.3622995" lon="-2.0868420">
        <name>Barratt Drive</name>
      </trkpt>
      <trkpt lat="57.3622970" lon="-2.0869730">
        <name>Barratt Drive</name>
      </trkpt>
      <trkpt lat="57.3622940" lon="-2.0871385">
        <name>Barratt Drive</name>
      </trkpt>
      <trkpt lat="57.3622910" lon="-2.0873040">
        <name>Barratt Drive</name>
      </trkpt>
      <trkpt lat="57.3622930" lon="-2.0873850">
        <name>Barratt Drive</name>
      </trkpt>
      <trkpt lat="57.3623170" lon="-2.0875360">
        <name>Barratt Drive</name>
      </trkpt>
      <trkpt lat="57.3623410" lon="-2.0876870">
        <name>Barratt Drive</name>
      </trkpt>
      <trkpt lat="57.3623628" lon="-2.0878252">
        <name>Barratt Drive</name>
      </trkpt>
      <trkpt lat="57.3623845" lon="-2.0879635">
        <name>Barratt Drive</name>
      </trkpt>
      <trkpt lat="57.3624062" lon="-2.0881017">
        <name>Barratt Drive</name>
      </trkpt>
      <trkpt lat="57.3624280" lon="-2.0882400">
        <name>Barratt Drive</name>
      </trkpt>
      <trkpt lat="57.3624500" lon="-2.0884005">
        <name>Barratt Drive</name>
      </trkpt>
      <trkpt lat="57.3624720" lon="-2.0885610">
        <name>Barratt Drive</name>
      </trkpt>
      <trkpt lat="57.3624940" lon="-2.0887085">
        <name>Barratt Drive</name>
      </trkpt>
      <trkpt lat="57.3625160" lon="-2.0888560">
        <name>Barratt Drive</name>
      </trkpt>
      <trkpt lat="57.3625373" lon="-2.0889982">
        <name>Barratt Drive</name>
      </trkpt>
      <trkpt lat="57.3625585" lon="-2.0891405">
        <name>Barratt Drive</name>
      </trkpt>
      <trkpt lat="57.3625797" lon="-2.0892827">
        <name>Barratt Drive</name>
      </trkpt>
      <trkpt lat="57.3626010" lon="-2.0894250">
        <name>Barratt Drive</name>
      </trkpt>
      <trkpt lat="57.3626010" lon="-2.0895700">
        <name>Barratt Drive</name>
      </trkpt>
      <trkpt lat="57.3625860" lon="-2.0897060">
        <name>Barratt Drive</name>
      </trkpt>
      <trkpt lat="57.3625690" lon="-2.0897800">
        <name>Barratt Drive</name>
      </trkpt>
      <trkpt lat="57.3625660" lon="-2.0897960">
        <name>Barratt Drive</name>
      </trkpt>
      <trkpt lat="57.3625420" lon="-2.0898830">
        <name>Barratt Drive</name>
      </trkpt>
      <trkpt lat="57.3625150" lon="-2.0899610">
        <name>Barratt Drive</name>
      </trkpt>
      <trkpt lat="57.3624667" lon="-2.0900307">
        <name>Barratt Drive</name>
      </trkpt>
      <trkpt lat="57.3624183" lon="-2.0901003">
        <name>Barratt Drive</name>
      </trkpt>
      <trkpt lat="57.3623700" lon="-2.0901700">
        <name>Barratt Drive</name>
      </trkpt>
      <trkpt lat="57.3623260" lon="-2.0900467">
        <name>Barratt Drive</name>
      </trkpt>
      <trkpt lat="57.3622820" lon="-2.0899235">
        <name>Barratt Drive</name>
      </trkpt>
      <trkpt lat="57.3622380" lon="-2.0898003">
        <name>Barratt Drive</name>
      </trkpt>
      <trkpt lat="57.3621940" lon="-2.0896770">
        <name>Barratt Drive</name>
      </trkpt>
      <trkpt lat="57.3621800" lon="-2.0896370">
        <name>Barratt Drive</name>
      </trkpt>
      <trkpt lat="57.3621430" lon="-2.0895560">
        <name>Teal Street</name>
      </trkpt>
      <trkpt lat="57.3621090" lon="-2.0895110">
        <name>Teal Street</name>
      </trkpt>
      <trkpt lat="57.3620655" lon="-2.0894835">
        <name>Teal Street</name>
      </trkpt>
      <trkpt lat="57.3620220" lon="-2.0894560">
        <name>Teal Street</name>
      </trkpt>
      <trkpt lat="57.3619655" lon="-2.0894370">
        <name>Teal Street</name>
      </trkpt>
      <trkpt lat="57.3619090" lon="-2.0894180">
        <name>Teal Street</name>
      </trkpt>
      <trkpt lat="57.3618810" lon="-2.0894090">
        <name>Teal Street</name>
      </trkpt>
      <trkpt lat="57.3618702" lon="-2.0895342">
        <name>Teal Street</name>
      </trkpt>
      <trkpt lat="57.3618595" lon="-2.0896595">
        <name>Teal Street</name>
      </trkpt>
      <trkpt lat="57.3618488" lon="-2.0897848">
        <name>Teal Street</name>
      </trkpt>
      <trkpt lat="57.3618380" lon="-2.0899100">
        <name>Teal Street</name>
      </trkpt>
      <trkpt lat="57.3618300" lon="-2.0899980">
        <name>Teal Street</name>
      </trkpt>
      <trkpt lat="57.3618427" lon="-2.0898508">
        <name>Teal Street</name>
      </trkpt>
      <trkpt lat="57.3618555" lon="-2.0897035">
        <name>Teal Street</name>
      </trkpt>
      <trkpt lat="57.3618683" lon="-2.0895562">
        <name>Teal Street</name>
      </trkpt>
      <trkpt lat="57.3618810" lon="-2.0894090">
        <name>Teal Street</name>
      </trkpt>
      <trkpt lat="57.3619515" lon="-2.0894325">
        <name>Teal Street</name>
      </trkpt>
      <trkpt lat="57.3620220" lon="-2.0894560">
        <name>Teal Street</name>
      </trkpt>
      <trkpt lat="57.3620655" lon="-2.0894835">
        <name>Teal Street</name>
      </trkpt>
      <trkpt lat="57.3621090" lon="-2.0895110">
        <name>Teal Street</name>
      </trkpt>
      <trkpt lat="57.3621430" lon="-2.0895560">
        <name>Teal Street</name>
      </trkpt>
      <trkpt lat="57.3621800" lon="-2.0896370">
        <name>Teal Street</name>
      </trkpt>
      <trkpt lat="57.3622250" lon="-2.0897635">
        <name>Teal Street</name>
      </trkpt>
      <trkpt lat="57.3622700" lon="-2.0898900">
        <name>Teal Street</name>
      </trkpt>
      <trkpt lat="57.3623033" lon="-2.0899833">
        <name>Teal Street</name>
      </trkpt>
      <trkpt lat="57.3623367" lon="-2.0900767">
        <name>Teal Street</name>
      </trkpt>
      <trkpt lat="57.3623700" lon="-2.0901700">
        <name>Teal Street</name>
      </trkpt>
      <trkpt lat="57.3623180" lon="-2.0902307">
        <name>Teal Street</name>
      </trkpt>
      <trkpt lat="57.3622660" lon="-2.0902913">
        <name>Teal Street</name>
      </trkpt>
      <trkpt lat="57.3622140" lon="-2.0903520">
        <name>Teal Street</name>
      </trkpt>
      <trkpt lat="57.3621615" lon="-2.0904425">
        <name>Teal Street</name>
      </trkpt>
      <trkpt lat="57.3621090" lon="-2.0905330">
        <name>Teal Street</name>
      </trkpt>
      <trkpt lat="57.3620535" lon="-2.0906290">
        <name>Teal Street</name>
      </trkpt>
      <trkpt lat="57.3619980" lon="-2.0907250">
        <name>Teal Street</name>
      </trkpt>
      <trkpt lat="57.3619425" lon="-2.0908210">
        <name>Teal Street</name>
      </trkpt>
      <trkpt lat="57.3618870" lon="-2.0909170">
        <name>Teal Street</name>
      </trkpt>
      <trkpt lat="57.3618357" lon="-2.0910037">
        <name>Teal Street</name>
      </trkpt>
      <trkpt lat="57.3617843" lon="-2.0910903">
        <name>Teal Street</name>
      </trkpt>
      <trkpt lat="57.3617330" lon="-2.0911770">
        <name>Teal Street</name>
      </trkpt>
      <trkpt lat="57.3616745" lon="-2.0912560">
        <name>Teal Street</name>
      </trkpt>
      <trkpt lat="57.3616160" lon="-2.0913350">
        <name>Teal Street</name>
      </trkpt>
      <trkpt lat="57.3615500" lon="-2.0914237">
        <name>Teal Street</name>
      </trkpt>
      <trkpt lat="57.3614840" lon="-2.0915123">
        <name>Teal Street</name>
      </trkpt>
      <trkpt lat="57.3614180" lon="-2.0916010">
        <name>Teal Street</name>
      </trkpt>
      <trkpt lat="57.3613613" lon="-2.0916773">
        <name>Teal Street</name>
      </trkpt>
      <trkpt lat="57.3613045" lon="-2.0917535">
        <name>Teal Street</name>
      </trkpt>
      <trkpt lat="57.3612477" lon="-2.0918297">
        <name>Teal Street</name>
      </trkpt>
      <trkpt lat="57.3611910" lon="-2.0919060">
        <name>Teal Street</name>
      </trkpt>
      <trkpt lat="57.3611790" lon="-2.0919230">
        <name>Teal Street</name>
      </trkpt>
      <trkpt lat="57.3611180" lon="-2.0920065">
        <name>Teal Street</name>
      </trkpt>
      <trkpt lat="57.3610570" lon="-2.0920900">
        <name>Teal Street</name>
      </trkpt>
      <trkpt lat="57.3609933" lon="-2.0921807">
        <name>Teal Street</name>
      </trkpt>
      <trkpt lat="57.3609297" lon="-2.0922713">
        <name>Teal Street</name>
      </trkpt>
      <trkpt lat="57.3608660" lon="-2.0923620">
        <name>Teal Street</name>
      </trkpt>
      <trkpt lat="57.3608105" lon="-2.0924730">
        <name>Teal Street</name>
      </trkpt>
      <trkpt lat="57.3607550" lon="-2.0925840">
        <name>Teal Street</name>
      </trkpt>
      <trkpt lat="57.3607058" lon="-2.0926822">
        <name>Teal Street</name>
      </trkpt>
      <trkpt lat="57.3606566" lon="-2.0927804">
        <name>Teal Street</name>
      </trkpt>
      <trkpt lat="57.3606074" lon="-2.0928786">
        <name>Teal Street</name>
      </trkpt>
      <trkpt lat="57.3605582" lon="-2.0929768">
        <name>Teal Street</name>
      </trkpt>
      <trkpt lat="57.3605090" lon="-2.0930750">
        <name>Teal Street</name>
      </trkpt>
      <trkpt lat="57.3604528" lon="-2.0931817">
        <name>Teal Street</name>
      </trkpt>
      <trkpt lat="57.3603965" lon="-2.0932885">
        <name>Teal Street</name>
      </trkpt>
      <trkpt lat="57.3603403" lon="-2.0933952">
        <name>Teal Street</name>
      </trkpt>
      <trkpt lat="57.3602840" lon="-2.0935020">
        <name>Teal Street</name>
      </trkpt>
      <trkpt lat="57.3602445" lon="-2.0934330">
        <name>Teal Street</name>
      </trkpt>
      <trkpt lat="57.3602050" lon="-2.0933640">
        <name>Teal Street</name>
      </trkpt>
      <trkpt lat="57.3601715" lon="-2.0932780">
        <name>Teal Street</name>
      </trkpt>
      <trkpt lat="57.3601380" lon="-2.0931920">
        <name>Teal Street</name>
      </trkpt>
      <trkpt lat="57.3601185" lon="-2.0931130">
        <name>Teal Street</name>
      </trkpt>
      <trkpt lat="57.3600990" lon="-2.0930340">
        <name>Teal Street</name>
      </trkpt>
      <trkpt lat="57.3600850" lon="-2.0929280">
        <name>Teal Street</name>
      </trkpt>
      <trkpt lat="57.3600710" lon="-2.0928220">
        <name>Teal Street</name>
      </trkpt>
      <trkpt lat="57.3600635" lon="-2.0926670">
        <name>Teal Street</name>
      </trkpt>
      <trkpt lat="57.3600560" lon="-2.0925120">
        <name>Teal Street</name>
      </trkpt>
      <trkpt lat="57.3600485" lon="-2.0923570">
        <name>Teal Street</name>
      </trkpt>
      <trkpt lat="57.3600410" lon="-2.0922020">
        <name>Teal Street</name>
      </trkpt>
      <trkpt lat="57.3600335" lon="-2.0920470">
        <name>Teal Street</name>
      </trkpt>
      <trkpt lat="57.3600260" lon="-2.0918920">
        <name>Teal Street</name>
      </trkpt>
      <trkpt lat="57.3600290" lon="-2.0917320">
        <name>Teal Street</name>
      </trkpt>
      <trkpt lat="57.3600350" lon="-2.0916153">
        <name>Teal Street</name>
      </trkpt>
      <trkpt lat="57.3600410" lon="-2.0914987">
        <name>Teal Street</name>
      </trkpt>
      <trkpt lat="57.3600470" lon="-2.0913820">
        <name>Teal Street</name>
      </trkpt>
      <trkpt lat="57.3599658" lon="-2.0913630">
        <name>Teal Street</name>
      </trkpt>
      <trkpt lat="57.3598846" lon="-2.0913440">
        <name>Teal Street</name>
      </trkpt>
      <trkpt lat="57.3598034" lon="-2.0913250">
        <name>Teal Street</name>
      </trkpt>
      <trkpt lat="57.3597222" lon="-2.0913060">
        <name>Teal Street</name>
      </trkpt>
      <trkpt lat="57.3596410" lon="-2.0912870">
        <name>Teal Street</name>
      </trkpt>
      <trkpt lat="57.3595570" lon="-2.0912690">
        <name>Teal Street</name>
      </trkpt>
      <trkpt lat="57.3595060" lon="-2.0912570">
        <name>Teal Street</name>
      </trkpt>
      <trkpt lat="57.3594988" lon="-2.0914025">
        <name>Teal Street</name>
      </trkpt>
      <trkpt lat="57.3594915" lon="-2.0915480">
        <name>Teal Street</name>
      </trkpt>
      <trkpt lat="57.3594843" lon="-2.0916935">
        <name>Teal Street</name>
      </trkpt>
      <trkpt lat="57.3594770" lon="-2.0918390">
        <name>Teal Street</name>
      </trkpt>
      <trkpt lat="57.3594870" lon="-2.0920000">
        <name>Teal Street</name>
      </trkpt>
      <trkpt lat="57.3594970" lon="-2.0921610">
        <name>Teal Street</name>
      </trkpt>
      <trkpt lat="57.3595070" lon="-2.0923220">
        <name>Teal Street</name>
      </trkpt>
      <trkpt lat="57.3595170" lon="-2.0924830">
        <name>Teal Street</name>
      </trkpt>
      <trkpt lat="57.3595243" lon="-2.0926267">
        <name>Teal Street</name>
      </trkpt>
      <trkpt lat="57.3595317" lon="-2.0927703">
        <name>Teal Street</name>
      </trkpt>
      <trkpt lat="57.3595390" lon="-2.0929140">
        <name>Teal Street</name>
      </trkpt>
      <trkpt lat="57.3595463" lon="-2.0930577">
        <name>Teal Street</name>
      </trkpt>
      <trkpt lat="57.3595537" lon="-2.0932013">
        <name>Teal Street</name>
      </trkpt>
      <trkpt lat="57.3595610" lon="-2.0933450">
        <name>Teal Street</name>
      </trkpt>
      <trkpt lat="57.3595710" lon="-2.0934545">
        <name>Teal Street</name>
      </trkpt>
      <trkpt lat="57.3595810" lon="-2.0935640">
        <name>Teal Street</name>
      </trkpt>
      <trkpt lat="57.3596070" lon="-2.0936515">
        <name>Teal Street</name>
      </trkpt>
      <trkpt lat="57.3596330" lon="-2.0937390">
        <name>Teal Street</name>
      </trkpt>
      <trkpt lat="57.3596880" lon="-2.0938370">
        <name>Teal Street</name>
      </trkpt>
      <trkpt lat="57.3597570" lon="-2.0939040">
        <name>Teal Street</name>
      </trkpt>
      <trkpt lat="57.3598430" lon="-2.0939400">
        <name>Teal Street</name>
      </trkpt>
      <trkpt lat="57.3599300" lon="-2.0939390">
        <name>Teal Street</name>
      </trkpt>
      <trkpt lat="57.3599835" lon="-2.0939065">
        <name>Teal Street</name>
      </trkpt>
      <trkpt lat="57.3600370" lon="-2.0938740">
        <name>Teal Street</name>
      </trkpt>
      <trkpt lat="57.3600925" lon="-2.0938000">
        <name>Teal Street</name>
      </trkpt>
      <trkpt lat="57.3601480" lon="-2.0937260">
        <name>Teal Street</name>
      </trkpt>
      <trkpt lat="57.3601985" lon="-2.0936425">
        <name>Teal Street</name>
      </trkpt>
      <trkpt lat="57.3602490" lon="-2.0935590">
        <name>Teal Street</name>
      </trkpt>
      <trkpt lat="57.3602840" lon="-2.0935020">
        <name>Teal Street</name>
      </trkpt>
      <trkpt lat="57.3602445" lon="-2.0934330">
        <name>Teal Street</name>
      </trkpt>
      <trkpt lat="57.3602050" lon="-2.0933640">
        <name>Teal Street</name>
      </trkpt>
      <trkpt lat="57.3601715" lon="-2.0932780">
        <name>Teal Street</name>
      </trkpt>
      <trkpt lat="57.3601380" lon="-2.0931920">
        <name>Teal Street</name>
      </trkpt>
      <trkpt lat="57.3601250" lon="-2.0931400">
        <name>Teal Street</name>
      </trkpt>
      <trkpt lat="57.3600990" lon="-2.0930340">
        <name>Teal Street</name>
      </trkpt>
      <trkpt lat="57.3600850" lon="-2.0929280">
        <name>Teal Street</name>
      </trkpt>
      <trkpt lat="57.3600710" lon="-2.0928220">
        <name>Teal Street</name>
      </trkpt>
      <trkpt lat="57.3600633" lon="-2.0926660">
        <name>Teal Street</name>
      </trkpt>
      <trkpt lat="57.3600557" lon="-2.0925100">
        <name>Teal Street</name>
      </trkpt>
      <trkpt lat="57.3600480" lon="-2.0923540">
        <name>Teal Street</name>
      </trkpt>
      <trkpt lat="57.3600407" lon="-2.0922000">
        <name>Teal Street</name>
      </trkpt>
      <trkpt lat="57.3600333" lon="-2.0920460">
        <name>Teal Street</name>
      </trkpt>
      <trkpt lat="57.3600260" lon="-2.0918920">
        <name>Teal Street</name>
      </trkpt>
      <trkpt lat="57.3600290" lon="-2.0917320">
        <name>Teal Street</name>
      </trkpt>
      <trkpt lat="57.3600350" lon="-2.0916153">
        <name>Teal Street</name>
      </trkpt>
      <trkpt lat="57.3600410" lon="-2.0914987">
        <name>Teal Street</name>
      </trkpt>
      <trkpt lat="57.3600470" lon="-2.0913820">
        <name>Teal Street</name>
      </trkpt>
      <trkpt lat="57.3600548" lon="-2.0912430">
        <name>Teal Street</name>
      </trkpt>
      <trkpt lat="57.3600626" lon="-2.0911040">
        <name>Teal Street</name>
      </trkpt>
      <trkpt lat="57.3600704" lon="-2.0909650">
        <name>Teal Street</name>
      </trkpt>
      <trkpt lat="57.3600782" lon="-2.0908260">
        <name>Teal Street</name>
      </trkpt>
      <trkpt lat="57.3600860" lon="-2.0906870">
        <name>Teal Street</name>
      </trkpt>
      <trkpt lat="57.3600937" lon="-2.0905253">
        <name>Teal Street</name>
      </trkpt>
      <trkpt lat="57.3601013" lon="-2.0903637">
        <name>Teal Street</name>
      </trkpt>
      <trkpt lat="57.3601090" lon="-2.0902020">
        <name>Teal Street</name>
      </trkpt>
      <trkpt lat="57.3601167" lon="-2.0900403">
        <name>Teal Street</name>
      </trkpt>
      <trkpt lat="57.3601243" lon="-2.0898787">
        <name>Teal Street</name>
      </trkpt>
      <trkpt lat="57.3601320" lon="-2.0897170">
        <name>Teal Street</name>
      </trkpt>
      <trkpt lat="57.3601397" lon="-2.0895533">
        <name>Teal Street</name>
      </trkpt>
      <trkpt lat="57.3601473" lon="-2.0893897">
        <name>Teal Street</name>
      </trkpt>
      <trkpt lat="57.3601550" lon="-2.0892260">
        <name>Teal Street</name>
      </trkpt>
      <trkpt lat="57.3602298" lon="-2.0892300">
        <name>Teal Street</name>
      </trkpt>
      <trkpt lat="57.3603046" lon="-2.0892340">
        <name>Teal Street</name>
      </trkpt>
      <trkpt lat="57.3603794" lon="-2.0892380">
        <name>Teal Street</name>
      </trkpt>
      <trkpt lat="57.3604542" lon="-2.0892420">
        <name>Teal Street</name>
      </trkpt>
      <trkpt lat="57.3605290" lon="-2.0892460">
        <name>Teal Street</name>
      </trkpt>
      <trkpt lat="57.3605875" lon="-2.0892460">
        <name>Teal Street</name>
      </trkpt>
      <trkpt lat="57.3606460" lon="-2.0892460">
        <name>Teal Street</name>
      </trkpt>
      <trkpt lat="57.3607290" lon="-2.0892060">
        <name>Teal Street</name>
      </trkpt>
      <trkpt lat="57.3607870" lon="-2.0891150">
        <name>Teal Street</name>
      </trkpt>
      <trkpt lat="57.3608140" lon="-2.0890365">
        <name>Teal Street</name>
      </trkpt>
      <trkpt lat="57.3608410" lon="-2.0889580">
        <name>Teal Street</name>
      </trkpt>
      <trkpt lat="57.3608612" lon="-2.0888342">
        <name>Teal Street</name>
      </trkpt>
      <trkpt lat="57.3608815" lon="-2.0887105">
        <name>Teal Street</name>
      </trkpt>
      <trkpt lat="57.3609018" lon="-2.0885868">
        <name>Teal Street</name>
      </trkpt>
      <trkpt lat="57.3609220" lon="-2.0884630">
        <name>Teal Street</name>
      </trkpt>
      <trkpt lat="57.3608900" lon="-2.0883630">
        <name>Barratt Drive</name>
      </trkpt>
      <trkpt lat="57.3608780" lon="-2.0882530">
        <name>Barratt Drive</name>
      </trkpt>
      <trkpt lat="57.3608660" lon="-2.0881430">
        <name>Barratt Drive</name>
      </trkpt>
      <trkpt lat="57.3608540" lon="-2.0880330">
        <name>Barratt Drive</name>
      </trkpt>
      <trkpt lat="57.3608420" lon="-2.0879022">
        <name>Barratt Drive</name>
      </trkpt>
      <trkpt lat="57.3608300" lon="-2.0877715">
        <name>Barratt Drive</name>
      </trkpt>
      <trkpt lat="57.3608180" lon="-2.0876407">
        <name>Barratt Drive</name>
      </trkpt>
      <trkpt lat="57.3608060" lon="-2.0875100">
        <name>Barratt Drive</name>
      </trkpt>
      <trkpt lat="57.3607990" lon="-2.0873690">
        <name>Barratt Drive</name>
      </trkpt>
      <trkpt lat="57.3608250" lon="-2.0872680">
        <name>Barratt Drive</name>
      </trkpt>
      <trkpt lat="57.3608590" lon="-2.0872040">
        <name>Barratt Drive</name>
      </trkpt>
      <trkpt lat="57.3609010" lon="-2.0871630">
        <name>Barratt Drive</name>
      </trkpt>
      <trkpt lat="57.3609320" lon="-2.0871430">
      </trkpt>
      <trkpt lat="57.3609870" lon="-2.0871520">
      </trkpt>
      <trkpt lat="57.3610430" lon="-2.0872050">
      </trkpt>
      <trkpt lat="57.3610750" lon="-2.0872880">
      </trkpt>
      <trkpt lat="57.3610850" lon="-2.0873800">
      </trkpt>
      <trkpt lat="57.3610850" lon="-2.0874650">
      </trkpt>
      <trkpt lat="57.3610623" lon="-2.0876037">
      </trkpt>
      <trkpt lat="57.3610397" lon="-2.0877423">
      </trkpt>
      <trkpt lat="57.3610170" lon="-2.0878810">
      </trkpt>
      <trkpt lat="57.3609987" lon="-2.0879963">
      </trkpt>
      <trkpt lat="57.3609803" lon="-2.0881117">
      </trkpt>
      <trkpt lat="57.3609620" lon="-2.0882270">
      </trkpt>
      <trkpt lat="57.3609420" lon="-2.0883450">
      </trkpt>
      <trkpt lat="57.3609220" lon="-2.0884630">
      </trkpt>
      <trkpt lat="57.3609018" lon="-2.0885868">
        <name>Swan Road</name>
      </trkpt>
      <trkpt lat="57.3608815" lon="-2.0887105">
        <name>Swan Road</name>
      </trkpt>
      <trkpt lat="57.3608612" lon="-2.0888342">
        <name>Swan Road</name>
      </trkpt>
      <trkpt lat="57.3608410" lon="-2.0889580">
        <name>Swan Road</name>
      </trkpt>
      <trkpt lat="57.3608140" lon="-2.0890365">
        <name>Swan Road</name>
      </trkpt>
      <trkpt lat="57.3607870" lon="-2.0891150">
        <name>Swan Road</name>
      </trkpt>
      <trkpt lat="57.3607290" lon="-2.0892060">
        <name>Swan Road</name>
      </trkpt>
      <trkpt lat="57.3606460" lon="-2.0892460">
        <name>Swan Road</name>
      </trkpt>
      <trkpt lat="57.3605875" lon="-2.0892460">
        <name>Swan Road</name>
      </trkpt>
      <trkpt lat="57.3605290" lon="-2.0892460">
        <name>Swan Road</name>
      </trkpt>
      <trkpt lat="57.3604542" lon="-2.0892420">
        <name>Swan Road</name>
      </trkpt>
      <trkpt lat="57.3603794" lon="-2.0892380">
        <name>Swan Road</name>
      </trkpt>
      <trkpt lat="57.3603046" lon="-2.0892340">
        <name>Swan Road</name>
      </trkpt>
      <trkpt lat="57.3602298" lon="-2.0892300">
        <name>Swan Road</name>
      </trkpt>
      <trkpt lat="57.3601550" lon="-2.0892260">
        <name>Swan Road</name>
      </trkpt>
      <trkpt lat="57.3601473" lon="-2.0893897">
        <name>Swan Road</name>
      </trkpt>
      <trkpt lat="57.3601397" lon="-2.0895533">
        <name>Swan Road</name>
      </trkpt>
      <trkpt lat="57.3601320" lon="-2.0897170">
        <name>Swan Road</name>
      </trkpt>
      <trkpt lat="57.3601243" lon="-2.0898787">
        <name>Swan Road</name>
      </trkpt>
      <trkpt lat="57.3601167" lon="-2.0900403">
        <name>Swan Road</name>
      </trkpt>
      <trkpt lat="57.3601090" lon="-2.0902020">
        <name>Swan Road</name>
      </trkpt>
      <trkpt lat="57.3601013" lon="-2.0903637">
        <name>Swan Road</name>
      </trkpt>
      <trkpt lat="57.3600937" lon="-2.0905253">
        <name>Swan Road</name>
      </trkpt>
      <trkpt lat="57.3600860" lon="-2.0906870">
        <name>Swan Road</name>
      </trkpt>
      <trkpt lat="57.3600782" lon="-2.0908260">
        <name>Swan Road</name>
      </trkpt>
      <trkpt lat="57.3600704" lon="-2.0909650">
        <name>Swan Road</name>
      </trkpt>
      <trkpt lat="57.3600626" lon="-2.0911040">
        <name>Swan Road</name>
      </trkpt>
      <trkpt lat="57.3600548" lon="-2.0912430">
        <name>Swan Road</name>
      </trkpt>
      <trkpt lat="57.3600470" lon="-2.0913820">
        <name>Swan Road</name>
      </trkpt>
      <trkpt lat="57.3600425" lon="-2.0914660">
        <name>Swan Road</name>
      </trkpt>
      <trkpt lat="57.3600380" lon="-2.0915500">
        <name>Swan Road</name>
      </trkpt>
      <trkpt lat="57.3600335" lon="-2.0916410">
        <name>Swan Road</name>
      </trkpt>
      <trkpt lat="57.3600290" lon="-2.0917320">
        <name>Swan Road</name>
      </trkpt>
      <trkpt lat="57.3600260" lon="-2.0918920">
        <name>Swan Road</name>
      </trkpt>
      <trkpt lat="57.3600335" lon="-2.0920470">
        <name>Swan Road</name>
      </trkpt>
      <trkpt lat="57.3600410" lon="-2.0922020">
        <name>Swan Road</name>
      </trkpt>
      <trkpt lat="57.3600485" lon="-2.0923570">
        <name>Swan Road</name>
      </trkpt>
      <trkpt lat="57.3600560" lon="-2.0925120">
        <name>Swan Road</name>
      </trkpt>
      <trkpt lat="57.3600635" lon="-2.0926670">
        <name>Swan Road</name>
      </trkpt>
      <trkpt lat="57.3600710" lon="-2.0928220">
        <name>Swan Road</name>
      </trkpt>
      <trkpt lat="57.3600740" lon="-2.0928480">
        <name>Swan Road</name>
      </trkpt>
      <trkpt lat="57.3600865" lon="-2.0929410">
        <name>Swan Road</name>
      </trkpt>
      <trkpt lat="57.3600990" lon="-2.0930340">
        <name>Swan Road</name>
      </trkpt>
      <trkpt lat="57.3601185" lon="-2.0931130">
        <name>Swan Road</name>
      </trkpt>
      <trkpt lat="57.3601380" lon="-2.0931920">
        <name>Swan Road</name>
      </trkpt>
      <trkpt lat="57.3601715" lon="-2.0932780">
        <name>Swan Road</name>
      </trkpt>
      <trkpt lat="57.3602050" lon="-2.0933640">
        <name>Swan Road</name>
      </trkpt>
      <trkpt lat="57.3602445" lon="-2.0934330">
        <name>Swan Road</name>
      </trkpt>
      <trkpt lat="57.3602840" lon="-2.0935020">
        <name>Swan Road</name>
      </trkpt>
      <trkpt lat="57.3602387" lon="-2.0935767">
        <name>Swan Road</name>
      </trkpt>
      <trkpt lat="57.3601933" lon="-2.0936513">
        <name>Swan Road</name>
      </trkpt>
      <trkpt lat="57.3601480" lon="-2.0937260">
        <name>Swan Road</name>
      </trkpt>
      <trkpt lat="57.3601030" lon="-2.0937865">
        <name>Swan Road</name>
      </trkpt>
      <trkpt lat="57.3600580" lon="-2.0938470">
        <name>Swan Road</name>
      </trkpt>
      <trkpt lat="57.3600370" lon="-2.0938740">
        <name>Swan Road</name>
      </trkpt>
      <trkpt lat="57.3599835" lon="-2.0939065">
        <name>Swan Road</name>
      </trkpt>
      <trkpt lat="57.3599300" lon="-2.0939390">
        <name>Swan Road</name>
      </trkpt>
      <trkpt lat="57.3598430" lon="-2.0939400">
        <name>Swan Road</name>
      </trkpt>
      <trkpt lat="57.3597570" lon="-2.0939040">
        <name>Swan Road</name>
      </trkpt>
      <trkpt lat="57.3596880" lon="-2.0938370">
        <name>Swan Road</name>
      </trkpt>
      <trkpt lat="57.3596330" lon="-2.0937390">
        <name>Swan Road</name>
      </trkpt>
      <trkpt lat="57.3595990" lon="-2.0936250">
        <name>Swan Road</name>
      </trkpt>
      <trkpt lat="57.3595810" lon="-2.0935640">
        <name>Swan Road</name>
      </trkpt>
      <trkpt lat="57.3595710" lon="-2.0934545">
        <name>Swan Road</name>
      </trkpt>
      <trkpt lat="57.3595610" lon="-2.0933450">
        <name>Swan Road</name>
      </trkpt>
      <trkpt lat="57.3595537" lon="-2.0932013">
        <name>Swan Road</name>
      </trkpt>
      <trkpt lat="57.3595463" lon="-2.0930577">
        <name>Swan Road</name>
      </trkpt>
      <trkpt lat="57.3595390" lon="-2.0929140">
        <name>Swan Road</name>
      </trkpt>
      <trkpt lat="57.3595317" lon="-2.0927703">
        <name>Swan Road</name>
      </trkpt>
      <trkpt lat="57.3595243" lon="-2.0926267">
        <name>Swan Road</name>
      </trkpt>
      <trkpt lat="57.3595170" lon="-2.0924830">
        <name>Swan Road</name>
      </trkpt>
      <trkpt lat="57.3595070" lon="-2.0923223">
        <name>Swan Road</name>
      </trkpt>
      <trkpt lat="57.3594970" lon="-2.0921617">
        <name>Swan Road</name>
      </trkpt>
      <trkpt lat="57.3594870" lon="-2.0920010">
        <name>Swan Road</name>
      </trkpt>
      <trkpt lat="57.3594770" lon="-2.0918390">
        <name>Swan Road</name>
      </trkpt>
      <trkpt lat="57.3594843" lon="-2.0916935">
        <name>Swan Road</name>
      </trkpt>
      <trkpt lat="57.3594915" lon="-2.0915480">
        <name>Swan Road</name>
      </trkpt>
      <trkpt lat="57.3594988" lon="-2.0914025">
        <name>Swan Road</name>
      </trkpt>
      <trkpt lat="57.3595060" lon="-2.0912570">
        <name>Swan Road</name>
      </trkpt>
      <trkpt lat="57.3594740" lon="-2.0912570">
        <name>Swan Road</name>
      </trkpt>
      <trkpt lat="57.3594070" lon="-2.0912560">
        <name>Swan Road</name>
      </trkpt>
      <trkpt lat="57.3593360" lon="-2.0912670">
        <name>Swan Road</name>
      </trkpt>
      <trkpt lat="57.3592650" lon="-2.0912780">
        <name>Swan Road</name>
      </trkpt>
      <trkpt lat="57.3591940" lon="-2.0912890">
        <name>Swan Road</name>
      </trkpt>
      <trkpt lat="57.3591290" lon="-2.0912990">
        <name>Swan Road</name>
      </trkpt>
    </trkseg>
  </trk>
</gpx>