<?xml version="1.0" encoding="UTF-8"?>
<gpx creator="https://gpx.studio" version="1.1" xmlns="http://www.topografix.com/GPX/1/1" xmlns:xsi="http://www.w3.org/2001/XMLSchema-instance" xsi:schemaLocation="http://www.topografix.com/GPX/1/1 http://www.topografix.com/GPX/1/1/gpx.xsd http://www.garmin.com/xmlschemas/GpxExtensions/v3 http://www.garmin.com/xmlschemas/GpxExtensionsv3.xsd http://www.garmin.com/xmlschemas/TrackPointExtension/v1 http://www.garmin.com/xmlschemas/TrackPointExtensionv1.xsd http://www.garmin.com/xmlschemas/PowerExtension/v1 http://www.garmin.com/xmlschemas/PowerExtensionv1.xsd http://www.topografix.com/GPX/gpx_style/0/2 http://www.topografix.com/GPX/gpx_style/0/2/gpx_style.xsd" xmlns:gpxtpx="http://www.garmin.com/xmlschemas/TrackPointExtension/v1" xmlns:gpxx="http://www.garmin.com/xmlschemas/GpxExtensions/v3" xmlns:gpxpx="http://www.garmin.com/xmlschemas/PowerExtension/v1" xmlns:gpx_style="http://www.topografix.com/GPX/gpx_style/0/2">
  <metadata>
    <name>New file 1</name>
    <author>
      <name>gpx.studio</name>
      <link href="https://gpx.studio"/>
    </author>
  </metadata>
  <trk>
    <name>New file 1</name>
    <trkseg>
      <trkpt lat="57.370691" lon="-2.086361">
        <ele>25</ele>
      </trkpt>
      <trkpt lat="57.37072197551197" lon="-2.086341504922539">
        <ele>25</ele>
      </trkpt>
      <trkpt lat="57.37078709951489" lon="-2.0863005177878313">
        <ele>25</ele>
      </trkpt>
      <trkpt lat="57.370834" lon="-2.086271">
        <ele>25</ele>
      </trkpt>
      <trkpt lat="57.370906" lon="-2.086267">
        <ele>24.75</ele>
      </trkpt>
      <trkpt lat="57.370996328497554" lon="-2.0862626986429738">
        <ele>24.431699580010637</ele>
      </trkpt>
      <trkpt lat="57.371011" lon="-2.086262">
        <ele>24.38</ele>
      </trkpt>
      <trkpt lat="57.371048434600425" lon="-2.0862696920411827">
        <ele>24.333847752642193</ele>
      </trkpt>
      <trkpt lat="57.371084" lon="-2.086277">
        <ele>24.29</ele>
      </trkpt>
      <trkpt lat="57.37112533522884" lon="-2.0862971465821203">
        <ele>24.342103233183238</ele>
      </trkpt>
      <trkpt lat="57.371203" lon="-2.086335">
        <ele>24.44</ele>
      </trkpt>
      <trkpt lat="57.371282362996425" lon="-2.0863733847172217">
        <ele>24.538555361333998</ele>
      </trkpt>
      <trkpt lat="57.371356" lon="-2.086409">
        <ele>24.63</ele>
      </trkpt>
      <trkpt lat="57.371428884376584" lon="-2.086444219296071">
        <ele>24.720494042280798</ele>
      </trkpt>
      <trkpt lat="57.371654" lon="-2.086553">
        <ele>25</ele>
      </trkpt>
      <trkpt lat="57.37174146323028" lon="-2.086594830240569">
        <ele>25.10774456366482</ele>
      </trkpt>
      <trkpt lat="57.371792" lon="-2.086619">
        <ele>25.17</ele>
      </trkpt>
      <trkpt lat="57.371818619125136" lon="-2.086634501725811">
        <ele>25.235764908925187</ele>
      </trkpt>
      <trkpt lat="57.371962" lon="-2.086718">
        <ele>25.59</ele>
      </trkpt>
      <trkpt lat="57.372112" lon="-2.086809">
        <ele>26</ele>
      </trkpt>
      <trkpt lat="57.37231" lon="-2.086928">
        <ele>26.55</ele>
      </trkpt>
      <trkpt lat="57.372411" lon="-2.08699">
        <ele>26.82</ele>
      </trkpt>
      <trkpt lat="57.37255" lon="-2.087106">
        <ele>27.07</ele>
      </trkpt>
      <trkpt lat="57.372644" lon="-2.087222">
        <ele>27.12</ele>
      </trkpt>
      <trkpt lat="57.372718" lon="-2.087322">
        <ele>27.13</ele>
      </trkpt>
      <trkpt lat="57.372783" lon="-2.087491">
        <ele>27.72</ele>
      </trkpt>
      <trkpt lat="57.372782" lon="-2.087487">
        <ele>27.7</ele>
      </trkpt>
      <trkpt lat="57.372844" lon="-2.087715">
        <ele>28.21</ele>
      </trkpt>
      <trkpt lat="57.372871" lon="-2.087822">
        <ele>28.34</ele>
      </trkpt>
      <trkpt lat="57.372899" lon="-2.087931">
        <ele>28.47</ele>
      </trkpt>
      <trkpt lat="57.372861" lon="-2.087962">
        <ele>28.61</ele>
      </trkpt>
      <trkpt lat="57.372789" lon="-2.088019">
        <ele>28.88</ele>
      </trkpt>
      <trkpt lat="57.372755" lon="-2.088046">
        <ele>29</ele>
      </trkpt>
      <trkpt lat="57.372747696897925" lon="-2.088055520115208">
        <ele>29.054773253511975</ele>
      </trkpt>
      <trkpt lat="57.372699" lon="-2.088119">
        <ele>29.42</ele>
      </trkpt>
      <trkpt lat="57.372669" lon="-2.088157">
        <ele>29.64</ele>
      </trkpt>
      <trkpt lat="57.372644" lon="-2.088217">
        <ele>29.98</ele>
      </trkpt>
      <trkpt lat="57.37262620925909" lon="-2.088293104836107">
        <ele>30.02447684297706</ele>
      </trkpt>
      <trkpt lat="57.372608" lon="-2.088371">
        <ele>30.07</ele>
      </trkpt>
      <trkpt lat="57.372598" lon="-2.08843">
        <ele>30.22</ele>
      </trkpt>
      <trkpt lat="57.372589" lon="-2.088491">
        <ele>30.38</ele>
      </trkpt>
      <trkpt lat="57.372584" lon="-2.088524">
        <ele>30.47</ele>
      </trkpt>
      <trkpt lat="57.372645" lon="-2.08855">
        <ele>30.07</ele>
      </trkpt>
      <trkpt lat="57.37252" lon="-2.088498">
        <ele>30.57</ele>
      </trkpt>
      <trkpt lat="57.372584" lon="-2.088524">
        <ele>30.47</ele>
      </trkpt>
      <trkpt lat="57.372612" lon="-2.088344">
        <ele>30</ele>
      </trkpt>
      <trkpt lat="57.372644" lon="-2.088215">
        <ele>29.97</ele>
      </trkpt>
      <trkpt lat="57.372669" lon="-2.088157">
        <ele>29.64</ele>
      </trkpt>
      <trkpt lat="57.372755" lon="-2.088046">
        <ele>29</ele>
      </trkpt>
      <trkpt lat="57.372826" lon="-2.08799">
        <ele>28.74</ele>
      </trkpt>
      <trkpt lat="57.372899" lon="-2.087931">
        <ele>28.47</ele>
      </trkpt>
      <trkpt lat="57.37294000409074" lon="-2.0879537800504067">
        <ele>28.5445528971157</ele>
      </trkpt>
      <trkpt lat="57.372998" lon="-2.087986">
        <ele>28.65</ele>
      </trkpt>
      <trkpt lat="57.37306" lon="-2.087993">
        <ele>28.85</ele>
      </trkpt>
      <trkpt lat="57.373089" lon="-2.087996">
        <ele>28.95</ele>
      </trkpt>
      <trkpt lat="57.373128" lon="-2.088045">
        <ele>28.99</ele>
      </trkpt>
      <trkpt lat="57.373172" lon="-2.088099">
        <ele>29.03</ele>
      </trkpt>
      <trkpt lat="57.373089" lon="-2.087996">
        <ele>28.95</ele>
      </trkpt>
      <trkpt lat="57.372998" lon="-2.087986">
        <ele>28.65</ele>
      </trkpt>
      <trkpt lat="57.372899" lon="-2.087931">
        <ele>28.47</ele>
      </trkpt>
      <trkpt lat="57.372917" lon="-2.088001">
        <ele>28.63</ele>
      </trkpt>
      <trkpt lat="57.372934" lon="-2.088064">
        <ele>28.78</ele>
      </trkpt>
      <trkpt lat="57.372963" lon="-2.088174">
        <ele>29.05</ele>
      </trkpt>
      <trkpt lat="57.373008" lon="-2.088321">
        <ele>29.51</ele>
      </trkpt>
      <trkpt lat="57.373046" lon="-2.088422">
        <ele>29.96</ele>
      </trkpt>
      <trkpt lat="57.373064" lon="-2.08847">
        <ele>30.17</ele>
      </trkpt>
      <trkpt lat="57.373116" lon="-2.088587">
        <ele>30.56</ele>
      </trkpt>
      <trkpt lat="57.373139" lon="-2.088638">
        <ele>30.73</ele>
      </trkpt>
      <trkpt lat="57.373174" lon="-2.088707">
        <ele>30.99</ele>
      </trkpt>
      <trkpt lat="57.373262" lon="-2.088861">
        <ele>31.69</ele>
      </trkpt>
      <trkpt lat="57.373312" lon="-2.088949">
        <ele>32.09</ele>
      </trkpt>
      <trkpt lat="57.37335" lon="-2.089014">
        <ele>32.4</ele>
      </trkpt>
      <trkpt lat="57.373409" lon="-2.089093">
        <ele>32.89</ele>
      </trkpt>
      <trkpt lat="57.373459" lon="-2.089152">
        <ele>33</ele>
      </trkpt>
      <trkpt lat="57.373539" lon="-2.089241">
        <ele>33</ele>
      </trkpt>
      <trkpt lat="57.373562" lon="-2.089261">
        <ele>33.16</ele>
      </trkpt>
      <trkpt lat="57.373602" lon="-2.089293">
        <ele>33.45</ele>
      </trkpt>
      <trkpt lat="57.373645" lon="-2.089328">
        <ele>33.76</ele>
      </trkpt>
      <trkpt lat="57.373679" lon="-2.089356">
        <ele>34</ele>
      </trkpt>
      <trkpt lat="57.37368" lon="-2.08935">
        <ele>33.98</ele>
      </trkpt>
      <trkpt lat="57.373705" lon="-2.089192">
        <ele>33.55</ele>
      </trkpt>
      <trkpt lat="57.373718477716146" lon="-2.0891086378297423">
        <ele>33.32537135951871</ele>
      </trkpt>
      <trkpt lat="57.373732" lon="-2.089025">
        <ele>33.1</ele>
      </trkpt>
      <trkpt lat="57.373749" lon="-2.088925">
        <ele>32.82</ele>
      </trkpt>
      <trkpt lat="57.373768" lon="-2.088808">
        <ele>32.5</ele>
      </trkpt>
      <trkpt lat="57.373779314148045" lon="-2.088737286574713">
        <ele>32.306716606830555</ele>
      </trkpt>
      <trkpt lat="57.373792" lon="-2.088658">
        <ele>32.09</ele>
      </trkpt>
      <trkpt lat="57.373801" lon="-2.088603">
        <ele>31.94</ele>
      </trkpt>
      <trkpt lat="57.373815046666785" lon="-2.0885084191103105">
        <ele>31.705888839591353</ele>
      </trkpt>
      <trkpt lat="57.373831" lon="-2.088401">
        <ele>31.44</ele>
      </trkpt>
      <trkpt lat="57.37384" lon="-2.088345">
        <ele>31.3</ele>
      </trkpt>
      <trkpt lat="57.373853" lon="-2.088258">
        <ele>31.08</ele>
      </trkpt>
      <trkpt lat="57.373855" lon="-2.088245">
        <ele>31.05</ele>
      </trkpt>
      <trkpt lat="57.373797" lon="-2.088625">
        <ele>32</ele>
      </trkpt>
      <trkpt lat="57.373829" lon="-2.088643">
        <ele>32.02</ele>
      </trkpt>
      <trkpt lat="57.373872" lon="-2.088668">
        <ele>32.04</ele>
      </trkpt>
      <trkpt lat="57.373903" lon="-2.088685">
        <ele>32.06</ele>
      </trkpt>
      <trkpt lat="57.373932" lon="-2.088702">
        <ele>32.08</ele>
      </trkpt>
      <trkpt lat="57.373971" lon="-2.088724">
        <ele>32.1</ele>
      </trkpt>
      <trkpt lat="57.374006" lon="-2.088744">
        <ele>32.12</ele>
      </trkpt>
      <trkpt lat="57.373797" lon="-2.088625">
        <ele>32</ele>
      </trkpt>
      <trkpt lat="57.373679" lon="-2.089356">
        <ele>34</ele>
      </trkpt>
      <trkpt lat="57.37372" lon="-2.089374">
        <ele>34.01</ele>
      </trkpt>
      <trkpt lat="57.373755" lon="-2.089389">
        <ele>34.02</ele>
      </trkpt>
      <trkpt lat="57.373821" lon="-2.089418">
        <ele>34.04</ele>
      </trkpt>
      <trkpt lat="57.373679" lon="-2.089356">
        <ele>34</ele>
      </trkpt>
      <trkpt lat="57.373797" lon="-2.088625">
        <ele>32</ele>
      </trkpt>
      <trkpt lat="57.374033" lon="-2.088759">
        <ele>32.14</ele>
      </trkpt>
      <trkpt lat="57.373797" lon="-2.088625">
        <ele>32</ele>
      </trkpt>
      <trkpt lat="57.373679" lon="-2.089356">
        <ele>34</ele>
      </trkpt>
      <trkpt lat="57.373888" lon="-2.089442">
        <ele>34.11</ele>
      </trkpt>
      <trkpt lat="57.373977" lon="-2.089468">
        <ele>34.26</ele>
      </trkpt>
      <trkpt lat="57.374043" lon="-2.089487">
        <ele>34.37</ele>
      </trkpt>
      <trkpt lat="57.374125" lon="-2.089511">
        <ele>34.51</ele>
      </trkpt>
      <trkpt lat="57.374186" lon="-2.089531">
        <ele>34.59</ele>
      </trkpt>
      <trkpt lat="57.37425" lon="-2.089554">
        <ele>34.66</ele>
      </trkpt>
      <trkpt lat="57.374341" lon="-2.089585">
        <ele>34.77</ele>
      </trkpt>
      <trkpt lat="57.374398" lon="-2.089605">
        <ele>34.84</ele>
      </trkpt>
      <trkpt lat="57.374446" lon="-2.089622">
        <ele>34.9</ele>
      </trkpt>
      <trkpt lat="57.374551" lon="-2.089659">
        <ele>35</ele>
      </trkpt>
      <trkpt lat="57.374588" lon="-2.089671">
        <ele>35.01</ele>
      </trkpt>
      <trkpt lat="57.374638" lon="-2.089688">
        <ele>35.02</ele>
      </trkpt>
      <trkpt lat="57.374667" lon="-2.089698">
        <ele>35.02</ele>
      </trkpt>
      <trkpt lat="57.374814" lon="-2.089748">
        <ele>35.05</ele>
      </trkpt>
      <trkpt lat="57.374895" lon="-2.089776">
        <ele>35.06</ele>
      </trkpt>
      <trkpt lat="57.375001" lon="-2.089835">
        <ele>35.38</ele>
      </trkpt>
      <trkpt lat="57.375067" lon="-2.089903">
        <ele>35.77</ele>
      </trkpt>
      <trkpt lat="57.37511" lon="-2.089956">
        <ele>36.07</ele>
      </trkpt>
      <trkpt lat="57.375133" lon="-2.089984">
        <ele>36.23</ele>
      </trkpt>
      <trkpt lat="57.375201" lon="-2.090128">
        <ele>36.98</ele>
      </trkpt>
      <trkpt lat="57.375229" lon="-2.090202">
        <ele>37.02</ele>
      </trkpt>
      <trkpt lat="57.375242" lon="-2.090236">
        <ele>37.04</ele>
      </trkpt>
      <trkpt lat="57.375232" lon="-2.090246">
        <ele>37.06</ele>
      </trkpt>
      <trkpt lat="57.375213" lon="-2.090264">
        <ele>37.09</ele>
      </trkpt>
      <trkpt lat="57.375205" lon="-2.090271">
        <ele>37.1</ele>
      </trkpt>
      <trkpt lat="57.375184" lon="-2.090292">
        <ele>37.14</ele>
      </trkpt>
      <trkpt lat="57.375173" lon="-2.090302">
        <ele>37.15</ele>
      </trkpt>
      <trkpt lat="57.375157" lon="-2.090317">
        <ele>37.18</ele>
      </trkpt>
      <trkpt lat="57.37514" lon="-2.090334">
        <ele>37.21</ele>
      </trkpt>
      <trkpt lat="57.375127" lon="-2.090346">
        <ele>37.23</ele>
      </trkpt>
      <trkpt lat="57.375113" lon="-2.09036">
        <ele>37.25</ele>
      </trkpt>
      <trkpt lat="57.375092" lon="-2.09038">
        <ele>37.29</ele>
      </trkpt>
      <trkpt lat="57.375077" lon="-2.090394">
        <ele>37.31</ele>
      </trkpt>
      <trkpt lat="57.375064" lon="-2.090407">
        <ele>37.33</ele>
      </trkpt>
      <trkpt lat="57.375045" lon="-2.090425">
        <ele>37.36</ele>
      </trkpt>
      <trkpt lat="57.375013" lon="-2.090456">
        <ele>37.42</ele>
      </trkpt>
      <trkpt lat="57.374992" lon="-2.090475">
        <ele>37.45</ele>
      </trkpt>
      <trkpt lat="57.37497626221321" lon="-2.090490323634505">
        <ele>37.474849135407894</ele>
      </trkpt>
      <trkpt lat="57.374964743184684" lon="-2.0905015395307016">
        <ele>37.493037075456925</ele>
      </trkpt>
      <trkpt lat="57.374954" lon="-2.090512">
        <ele>37.51</ele>
      </trkpt>
      <trkpt lat="57.374936" lon="-2.090529">
        <ele>37.54</ele>
      </trkpt>
      <trkpt lat="57.374916" lon="-2.090548">
        <ele>37.57</ele>
      </trkpt>
      <trkpt lat="57.374908" lon="-2.090556">
        <ele>37.59</ele>
      </trkpt>
      <trkpt lat="57.37491685306613" lon="-2.0905864938944414">
        <ele>37.65393881710585</ele>
      </trkpt>
      <trkpt lat="57.374926" lon="-2.090618">
        <ele>37.72</ele>
      </trkpt>
      <trkpt lat="57.374926" lon="-2.090618">
        <ele>37.72</ele>
      </trkpt>
      <trkpt lat="57.374937" lon="-2.090656">
        <ele>37.8</ele>
      </trkpt>
      <trkpt lat="57.374955" lon="-2.090716">
        <ele>37.92</ele>
      </trkpt>
      <trkpt lat="57.374955" lon="-2.090716">
        <ele>37.92</ele>
      </trkpt>
      <trkpt lat="57.374961" lon="-2.090737">
        <ele>37.97</ele>
      </trkpt>
      <trkpt lat="57.37490745887091" lon="-2.0905554257361105">
        <ele>37.51994420525302</ele>
      </trkpt>
      <trkpt lat="57.37490001871767" lon="-2.0905301939120724">
        <ele>37.457403756833266</ele>
      </trkpt>
      <trkpt lat="57.374892" lon="-2.090503">
        <ele>37.39</ele>
      </trkpt>
      <trkpt lat="57.374881" lon="-2.090465">
        <ele>37.25</ele>
      </trkpt>
      <trkpt lat="57.374872" lon="-2.090434">
        <ele>37.14</ele>
      </trkpt>
      <trkpt lat="57.374863" lon="-2.090406">
        <ele>37.03</ele>
      </trkpt>
      <trkpt lat="57.374858" lon="-2.090388">
        <ele>36.97</ele>
      </trkpt>
      <trkpt lat="57.374856" lon="-2.090388">
        <ele>36.96</ele>
      </trkpt>
      <trkpt lat="57.374858" lon="-2.090388">
        <ele>36.97</ele>
      </trkpt>
      <trkpt lat="57.374887" lon="-2.090486">
        <ele>37.33</ele>
      </trkpt>
      <trkpt lat="57.374908" lon="-2.090556">
        <ele>37.59</ele>
      </trkpt>
      <trkpt lat="57.375031" lon="-2.090438">
        <ele>37.39</ele>
      </trkpt>
      <trkpt lat="57.375101" lon="-2.090371">
        <ele>37.27</ele>
      </trkpt>
      <trkpt lat="57.375242" lon="-2.090236">
        <ele>37.04</ele>
      </trkpt>
      <trkpt lat="57.37525" lon="-2.090274">
        <ele>37.22</ele>
      </trkpt>
      <trkpt lat="57.375264" lon="-2.090335">
        <ele>37.52</ele>
      </trkpt>
      <trkpt lat="57.375274" lon="-2.090383">
        <ele>37.72</ele>
      </trkpt>
      <trkpt lat="57.375276" lon="-2.090405">
        <ele>37.75</ele>
      </trkpt>
      <trkpt lat="57.375281" lon="-2.09045">
        <ele>37.8</ele>
      </trkpt>
      <trkpt lat="57.375285" lon="-2.090491">
        <ele>37.85</ele>
      </trkpt>
      <trkpt lat="57.375287" lon="-2.090505">
        <ele>37.87</ele>
      </trkpt>
      <trkpt lat="57.375291" lon="-2.090547">
        <ele>37.92</ele>
      </trkpt>
      <trkpt lat="57.375293" lon="-2.090566">
        <ele>37.94</ele>
      </trkpt>
      <trkpt lat="57.375296" lon="-2.090598">
        <ele>37.98</ele>
      </trkpt>
      <trkpt lat="57.375297" lon="-2.090637">
        <ele>38.12</ele>
      </trkpt>
      <trkpt lat="57.375297" lon="-2.090649">
        <ele>38.17</ele>
      </trkpt>
      <trkpt lat="57.375296" lon="-2.090689">
        <ele>38.36</ele>
      </trkpt>
      <trkpt lat="57.375295" lon="-2.090726">
        <ele>38.53</ele>
      </trkpt>
      <trkpt lat="57.375295" lon="-2.090739">
        <ele>38.59</ele>
      </trkpt>
      <trkpt lat="57.375294" lon="-2.09078">
        <ele>38.78</ele>
      </trkpt>
      <trkpt lat="57.375294" lon="-2.090787">
        <ele>38.81</ele>
      </trkpt>
      <trkpt lat="57.375293" lon="-2.090828">
        <ele>39</ele>
      </trkpt>
      <trkpt lat="57.375298" lon="-2.09083">
        <ele>39</ele>
      </trkpt>
      <trkpt lat="57.3753344224164" lon="-2.0908478800953247">
        <ele>39</ele>
      </trkpt>
      <trkpt lat="57.375353" lon="-2.090857">
        <ele>39</ele>
      </trkpt>
      <trkpt lat="57.375364627911786" lon="-2.090862426358833">
        <ele>39</ele>
      </trkpt>
      <trkpt lat="57.375383" lon="-2.090871">
        <ele>39</ele>
      </trkpt>
      <trkpt lat="57.37540804290849" lon="-2.090882925194517">
        <ele>39</ele>
      </trkpt>
      <trkpt lat="57.375425" lon="-2.090891">
        <ele>39</ele>
      </trkpt>
      <trkpt lat="57.37543865796638" lon="-2.090897555823861">
        <ele>39</ele>
      </trkpt>
      <trkpt lat="57.37545" lon="-2.090903">
        <ele>39</ele>
      </trkpt>
      <trkpt lat="57.3754697846578" lon="-2.0909125925613563">
        <ele>39</ele>
      </trkpt>
      <trkpt lat="57.375483" lon="-2.090919">
        <ele>39</ele>
      </trkpt>
      <trkpt lat="57.375501971536" lon="-2.0909281797754846">
        <ele>39</ele>
      </trkpt>
      <trkpt lat="57.375514" lon="-2.090934">
        <ele>39</ele>
      </trkpt>
      <trkpt lat="57.375539" lon="-2.090946">
        <ele>39</ele>
      </trkpt>
      <trkpt lat="57.375542" lon="-2.090947">
        <ele>39</ele>
      </trkpt>
      <trkpt lat="57.37553628198408" lon="-2.09098650629179">
        <ele>39</ele>
      </trkpt>
      <trkpt lat="57.375531" lon="-2.091023">
        <ele>39</ele>
      </trkpt>
      <trkpt lat="57.375527" lon="-2.091047">
        <ele>39</ele>
      </trkpt>
      <trkpt lat="57.375545" lon="-2.090923">
        <ele>38.93</ele>
      </trkpt>
      <trkpt lat="57.37554972951368" lon="-2.0908909444072856">
        <ele>38.845919752268706</ele>
      </trkpt>
      <trkpt lat="57.375554" lon="-2.090862">
        <ele>38.77</ele>
      </trkpt>
      <trkpt lat="57.37555969585856" lon="-2.090821179680352">
        <ele>38.65608281098081</ele>
      </trkpt>
      <trkpt lat="57.375572" lon="-2.090733">
        <ele>38.41</ele>
      </trkpt>
      <trkpt lat="57.375582" lon="-2.090667">
        <ele>38.23</ele>
      </trkpt>
      <trkpt lat="57.375564" lon="-2.090789">
        <ele>38.57</ele>
      </trkpt>
      <trkpt lat="57.375542" lon="-2.090947">
        <ele>39</ele>
      </trkpt>
      <trkpt lat="57.375293" lon="-2.090828">
        <ele>39</ele>
      </trkpt>
      <trkpt lat="57.375282" lon="-2.090885">
        <ele>39.08</ele>
      </trkpt>
      <trkpt lat="57.375269" lon="-2.090956">
        <ele>39.19</ele>
      </trkpt>
      <trkpt lat="57.375255" lon="-2.091029">
        <ele>39.3</ele>
      </trkpt>
      <trkpt lat="57.375237" lon="-2.091125">
        <ele>39.44</ele>
      </trkpt>
      <trkpt lat="57.375221" lon="-2.091211">
        <ele>39.56</ele>
      </trkpt>
      <trkpt lat="57.375203" lon="-2.091306">
        <ele>39.7</ele>
      </trkpt>
      <trkpt lat="57.375192" lon="-2.091361">
        <ele>39.79</ele>
      </trkpt>
      <trkpt lat="57.375179" lon="-2.091432">
        <ele>39.89</ele>
      </trkpt>
      <trkpt lat="57.375163" lon="-2.091524">
        <ele>40.02</ele>
      </trkpt>
      <trkpt lat="57.375152" lon="-2.091619">
        <ele>40.13</ele>
      </trkpt>
      <trkpt lat="57.375143" lon="-2.091701">
        <ele>40.24</ele>
      </trkpt>
      <trkpt lat="57.375143" lon="-2.091701">
        <ele>40.24</ele>
      </trkpt>
      <trkpt lat="57.375143" lon="-2.091697">
        <ele>40.23</ele>
      </trkpt>
      <trkpt lat="57.375052" lon="-2.091656">
        <ele>40.98</ele>
      </trkpt>
      <trkpt lat="57.375052" lon="-2.091656">
        <ele>40.98</ele>
      </trkpt>
      <trkpt lat="57.37503442510272" lon="-2.091646536593772">
        <ele>40.98</ele>
      </trkpt>
      <trkpt lat="57.374987" lon="-2.091621">
        <ele>40.98</ele>
      </trkpt>
      <trkpt lat="57.374935" lon="-2.091593">
        <ele>40.98</ele>
      </trkpt>
      <trkpt lat="57.374898587126275" lon="-2.0915736314501467">
        <ele>40.98774741985713</ele>
      </trkpt>
      <trkpt lat="57.374888" lon="-2.091568">
        <ele>40.99</ele>
      </trkpt>
      <trkpt lat="57.374847" lon="-2.091546">
        <ele>40.99</ele>
      </trkpt>
      <trkpt lat="57.37481656516504" lon="-2.0915296553664118">
        <ele>40.99</ele>
      </trkpt>
      <trkpt lat="57.374793" lon="-2.091517">
        <ele>40.99</ele>
      </trkpt>
      <trkpt lat="57.374757" lon="-2.091497">
        <ele>40.99</ele>
      </trkpt>
      <trkpt lat="57.374735003553745" lon="-2.09148535482257">
        <ele>40.99</ele>
      </trkpt>
      <trkpt lat="57.374723" lon="-2.091479">
        <ele>40.99</ele>
      </trkpt>
      <trkpt lat="57.37468" lon="-2.091456">
        <ele>41</ele>
      </trkpt>
      <trkpt lat="57.37466415561186" lon="-2.09144702151339">
        <ele>41</ele>
      </trkpt>
      <trkpt lat="57.37465" lon="-2.091439">
        <ele>41</ele>
      </trkpt>
      <trkpt lat="57.374618" lon="-2.091422">
        <ele>41</ele>
      </trkpt>
      <trkpt lat="57.374625" lon="-2.091426">
        <ele>41</ele>
      </trkpt>
      <trkpt lat="57.3746190417127" lon="-2.0914682496735466">
        <ele>41.119165738251205</ele>
      </trkpt>
      <trkpt lat="57.374614" lon="-2.091504">
        <ele>41.22</ele>
      </trkpt>
      <trkpt lat="57.374604" lon="-2.091571">
        <ele>41.4</ele>
      </trkpt>
      <trkpt lat="57.374594" lon="-2.09164">
        <ele>41.6</ele>
      </trkpt>
      <trkpt lat="57.374585" lon="-2.091704">
        <ele>41.78</ele>
      </trkpt>
      <trkpt lat="57.374579" lon="-2.091747">
        <ele>41.89</ele>
      </trkpt>
      <trkpt lat="57.374573" lon="-2.091786">
        <ele>42</ele>
      </trkpt>
      <trkpt lat="57.374625" lon="-2.091426">
        <ele>41</ele>
      </trkpt>
      <trkpt lat="57.374598" lon="-2.091411">
        <ele>41</ele>
      </trkpt>
      <trkpt lat="57.374567" lon="-2.091394">
        <ele>41</ele>
      </trkpt>
      <trkpt lat="57.374537" lon="-2.091378">
        <ele>41</ele>
      </trkpt>
      <trkpt lat="57.374514" lon="-2.091365">
        <ele>41</ele>
      </trkpt>
      <trkpt lat="57.375052" lon="-2.091656">
        <ele>40.98</ele>
      </trkpt>
      <trkpt lat="57.375143" lon="-2.091697">
        <ele>40.23</ele>
      </trkpt>
      <trkpt lat="57.375141" lon="-2.091756">
        <ele>40.4</ele>
      </trkpt>
      <trkpt lat="57.375139" lon="-2.091801">
        <ele>40.54</ele>
      </trkpt>
      <trkpt lat="57.375136" lon="-2.091887">
        <ele>40.8</ele>
      </trkpt>
      <trkpt lat="57.375134" lon="-2.091936">
        <ele>40.95</ele>
      </trkpt>
      <trkpt lat="57.375141" lon="-2.092182">
        <ele>41.86</ele>
      </trkpt>
      <trkpt lat="57.375138" lon="-2.092264">
        <ele>41.97</ele>
      </trkpt>
      <trkpt lat="57.375112" lon="-2.092442">
        <ele>42.58</ele>
      </trkpt>
      <trkpt lat="57.375104" lon="-2.09249">
        <ele>42.77</ele>
      </trkpt>
      <trkpt lat="57.37509" lon="-2.092562">
        <ele>43.02</ele>
      </trkpt>
      <trkpt lat="57.37505" lon="-2.092654">
        <ele>43.19</ele>
      </trkpt>
      <trkpt lat="57.375019" lon="-2.092725">
        <ele>43.31</ele>
      </trkpt>
      <trkpt lat="57.374964" lon="-2.09281">
        <ele>43.59</ele>
      </trkpt>
      <trkpt lat="57.374888" lon="-2.092907">
        <ele>43.99</ele>
      </trkpt>
      <trkpt lat="57.374865" lon="-2.092922">
        <ele>44.18</ele>
      </trkpt>
      <trkpt lat="57.374829" lon="-2.092942">
        <ele>44.48</ele>
      </trkpt>
      <trkpt lat="57.374787" lon="-2.092966">
        <ele>44.82</ele>
      </trkpt>
      <trkpt lat="57.374748" lon="-2.09298">
        <ele>45</ele>
      </trkpt>
      <trkpt lat="57.374718" lon="-2.092984">
        <ele>45</ele>
      </trkpt>
      <trkpt lat="57.374689" lon="-2.092987">
        <ele>45</ele>
      </trkpt>
      <trkpt lat="57.374689" lon="-2.092996">
        <ele>45</ele>
      </trkpt>
      <trkpt lat="57.374684" lon="-2.093049">
        <ele>45</ele>
      </trkpt>
      <trkpt lat="57.37468" lon="-2.093103">
        <ele>45.01</ele>
      </trkpt>
      <trkpt lat="57.374675520282906" lon="-2.0931322499174265">
        <ele>45.13385098218531</ele>
      </trkpt>
      <trkpt lat="57.374671056149936" lon="-2.0931613980798245">
        <ele>45.25727112367777</ele>
      </trkpt>
      <trkpt lat="57.374663" lon="-2.093214">
        <ele>45.48</ele>
      </trkpt>
      <trkpt lat="57.374652655753295" lon="-2.0932817548159086">
        <ele>45.78515524056276</ele>
      </trkpt>
      <trkpt lat="57.374643" lon="-2.093345">
        <ele>46.07</ele>
      </trkpt>
      <trkpt lat="57.37462921156561" lon="-2.0934335362628786">
        <ele>46.46913886384923</ele>
      </trkpt>
      <trkpt lat="57.374624" lon="-2.093467">
        <ele>46.62</ele>
      </trkpt>
      <trkpt lat="57.37461824862805" lon="-2.0935038087804423">
        <ele>46.78678977747802</ele>
      </trkpt>
      <trkpt lat="57.374614" lon="-2.093531">
        <ele>46.91</ele>
      </trkpt>
      <trkpt lat="57.37461" lon="-2.093555">
        <ele>47.02</ele>
      </trkpt>
      <trkpt lat="57.37461" lon="-2.093555">
        <ele>47.02</ele>
      </trkpt>
      <trkpt lat="57.374624" lon="-2.093562">
        <ele>47.01</ele>
      </trkpt>
      <trkpt lat="57.374664" lon="-2.093581">
        <ele>47.01</ele>
      </trkpt>
      <trkpt lat="57.374689" lon="-2.093594">
        <ele>47</ele>
      </trkpt>
      <trkpt lat="57.37459244360055" lon="-2.0935469812315692">
        <ele>47.016792417024405</ele>
      </trkpt>
      <trkpt lat="57.374574" lon="-2.093538">
        <ele>47.02</ele>
      </trkpt>
      <trkpt lat="57.374543" lon="-2.093524">
        <ele>47.03</ele>
      </trkpt>
      <trkpt lat="57.37451" lon="-2.093508">
        <ele>47.04</ele>
      </trkpt>
      <trkpt lat="57.374489" lon="-2.093498">
        <ele>47.05</ele>
      </trkpt>
      <trkpt lat="57.37461" lon="-2.093555">
        <ele>47.02</ele>
      </trkpt>
      <trkpt lat="57.37468" lon="-2.093109">
        <ele>45.01</ele>
      </trkpt>
      <trkpt lat="57.374687" lon="-2.09302">
        <ele>45</ele>
      </trkpt>
      <trkpt lat="57.374689" lon="-2.092987">
        <ele>45</ele>
      </trkpt>
      <trkpt lat="57.374653" lon="-2.092978">
        <ele>45.34</ele>
      </trkpt>
      <trkpt lat="57.374612" lon="-2.092967">
        <ele>45.7</ele>
      </trkpt>
      <trkpt lat="57.374541" lon="-2.092926">
        <ele>45.84</ele>
      </trkpt>
      <trkpt lat="57.374513" lon="-2.09291">
        <ele>45.89</ele>
      </trkpt>
      <trkpt lat="57.374464" lon="-2.092882">
        <ele>45.99</ele>
      </trkpt>
      <trkpt lat="57.374439" lon="-2.092864">
        <ele>46</ele>
      </trkpt>
      <trkpt lat="57.374403" lon="-2.092837">
        <ele>46</ele>
      </trkpt>
      <trkpt lat="57.374371" lon="-2.092812">
        <ele>46</ele>
      </trkpt>
      <trkpt lat="57.374347" lon="-2.092794">
        <ele>46</ele>
      </trkpt>
      <trkpt lat="57.374311" lon="-2.092765">
        <ele>46</ele>
      </trkpt>
      <trkpt lat="57.37429" lon="-2.092744">
        <ele>46</ele>
      </trkpt>
      <trkpt lat="57.374244" lon="-2.092697">
        <ele>46</ele>
      </trkpt>
      <trkpt lat="57.374203" lon="-2.092655">
        <ele>46</ele>
      </trkpt>
      <trkpt lat="57.374172" lon="-2.092615">
        <ele>46</ele>
      </trkpt>
      <trkpt lat="57.374151" lon="-2.092576">
        <ele>46</ele>
      </trkpt>
      <trkpt lat="57.374131" lon="-2.092539">
        <ele>46</ele>
      </trkpt>
      <trkpt lat="57.374103" lon="-2.092481">
        <ele>45.85</ele>
      </trkpt>
      <trkpt lat="57.374086" lon="-2.09244">
        <ele>45.65</ele>
      </trkpt>
      <trkpt lat="57.374073" lon="-2.092407">
        <ele>45.49</ele>
      </trkpt>
      <trkpt lat="57.374042" lon="-2.092331">
        <ele>45.12</ele>
      </trkpt>
      <trkpt lat="57.374032" lon="-2.092291">
        <ele>45.07</ele>
      </trkpt>
      <trkpt lat="57.374017" lon="-2.092235">
        <ele>45</ele>
      </trkpt>
      <trkpt lat="57.373993" lon="-2.092143">
        <ele>44.89</ele>
      </trkpt>
      <trkpt lat="57.373989" lon="-2.092126">
        <ele>44.87</ele>
      </trkpt>
      <trkpt lat="57.373963" lon="-2.092141">
        <ele>44.7</ele>
      </trkpt>
      <trkpt lat="57.37393" lon="-2.09216">
        <ele>44.48</ele>
      </trkpt>
      <trkpt lat="57.37391296470607" lon="-2.092170440986603">
        <ele>44.36459962389881</ele>
      </trkpt>
      <trkpt lat="57.373899" lon="-2.092179">
        <ele>44.27</ele>
      </trkpt>
      <trkpt lat="57.373856" lon="-2.092204">
        <ele>43.98</ele>
      </trkpt>
      <trkpt lat="57.373856" lon="-2.092204">
        <ele>43.98</ele>
      </trkpt>
      <trkpt lat="57.373827" lon="-2.092221">
        <ele>43.79</ele>
      </trkpt>
      <trkpt lat="57.373782" lon="-2.092248">
        <ele>43.49</ele>
      </trkpt>
      <trkpt lat="57.373782" lon="-2.092248">
        <ele>43.49</ele>
      </trkpt>
      <trkpt lat="57.373757" lon="-2.092262">
        <ele>43.32</ele>
      </trkpt>
      <trkpt lat="57.37373958533354" lon="-2.0922725404560163">
        <ele>43.20542982899936</ele>
      </trkpt>
      <trkpt lat="57.373719" lon="-2.092285">
        <ele>43.07</ele>
      </trkpt>
      <trkpt lat="57.373686" lon="-2.092304">
        <ele>42.85</ele>
      </trkpt>
      <trkpt lat="57.3736572950031" lon="-2.092346007312542">
        <ele>42.84299878169345</ele>
      </trkpt>
      <trkpt lat="57.373645" lon="-2.092364">
        <ele>42.84</ele>
      </trkpt>
      <trkpt lat="57.373614" lon="-2.092435">
        <ele>42.81</ele>
      </trkpt>
      <trkpt lat="57.373588" lon="-2.092519">
        <ele>43</ele>
      </trkpt>
      <trkpt lat="57.37358604205053" lon="-2.092534663595737">
        <ele>43.00734230992728</ele>
      </trkpt>
      <trkpt lat="57.37358" lon="-2.092583">
        <ele>43.03</ele>
      </trkpt>
      <trkpt lat="57.373575717224284" lon="-2.092613758116542">
        <ele>43.04168029641798</ele>
      </trkpt>
      <trkpt lat="57.373569" lon="-2.092662">
        <ele>43.06</ele>
      </trkpt>
      <trkpt lat="57.37356045626679" lon="-2.0927290683057302">
        <ele>43.08990306182616</ele>
      </trkpt>
      <trkpt lat="57.37355679044923" lon="-2.0927578449736015">
        <ele>43.10273342342069</ele>
      </trkpt>
      <trkpt lat="57.373549" lon="-2.092819">
        <ele>43.13</ele>
      </trkpt>
      <trkpt lat="57.37354385090019" lon="-2.092857618248569">
        <ele>43.15059639795389</ele>
      </trkpt>
      <trkpt lat="57.373539" lon="-2.092894">
        <ele>43.17</ele>
      </trkpt>
      <trkpt lat="57.373537" lon="-2.092908">
        <ele>43.17</ele>
      </trkpt>
      <trkpt lat="57.37355718571176" lon="-2.0929178781142648">
        <ele>43.32461396609676</ele>
      </trkpt>
      <trkpt lat="57.373584" lon="-2.092931">
        <ele>43.53</ele>
      </trkpt>
      <trkpt lat="57.373619" lon="-2.092949">
        <ele>43.79</ele>
      </trkpt>
      <trkpt lat="57.373662" lon="-2.092971">
        <ele>44.11</ele>
      </trkpt>
      <trkpt lat="57.37369" lon="-2.092985">
        <ele>44.32</ele>
      </trkpt>
      <trkpt lat="57.373725" lon="-2.093002">
        <ele>44.59</ele>
      </trkpt>
      <trkpt lat="57.373756" lon="-2.093018">
        <ele>44.82</ele>
      </trkpt>
      <trkpt lat="57.373515" lon="-2.092896">
        <ele>43.14</ele>
      </trkpt>
      <trkpt lat="57.373474" lon="-2.092875">
        <ele>43.07</ele>
      </trkpt>
      <trkpt lat="57.373441" lon="-2.092858">
        <ele>43.01</ele>
      </trkpt>
      <trkpt lat="57.373537" lon="-2.092908">
        <ele>43.17</ele>
      </trkpt>
      <trkpt lat="57.373588" lon="-2.092519">
        <ele>43</ele>
      </trkpt>
      <trkpt lat="57.373624" lon="-2.092402">
        <ele>42.73</ele>
      </trkpt>
      <trkpt lat="57.373682" lon="-2.092307">
        <ele>42.82</ele>
      </trkpt>
      <trkpt lat="57.373989" lon="-2.092126">
        <ele>44.87</ele>
      </trkpt>
      <trkpt lat="57.373985" lon="-2.092091">
        <ele>44.73</ele>
      </trkpt>
      <trkpt lat="57.373977" lon="-2.092006">
        <ele>44.39</ele>
      </trkpt>
      <trkpt lat="57.373963" lon="-2.091869">
        <ele>43.83</ele>
      </trkpt>
      <trkpt lat="57.373955" lon="-2.091797">
        <ele>43.54</ele>
      </trkpt>
      <trkpt lat="57.373943" lon="-2.091678">
        <ele>43.06</ele>
      </trkpt>
      <trkpt lat="57.373935" lon="-2.09162">
        <ele>42.76</ele>
      </trkpt>
      <trkpt lat="57.373925" lon="-2.091543">
        <ele>42.36</ele>
      </trkpt>
      <trkpt lat="57.373917" lon="-2.09149">
        <ele>42.08</ele>
      </trkpt>
      <trkpt lat="57.3739" lon="-2.091427">
        <ele>41.79</ele>
      </trkpt>
      <trkpt lat="57.373873" lon="-2.091348">
        <ele>41.46</ele>
      </trkpt>
      <trkpt lat="57.373861" lon="-2.091313">
        <ele>41.31</ele>
      </trkpt>
      <trkpt lat="57.373835" lon="-2.091235">
        <ele>40.98</ele>
      </trkpt>
      <trkpt lat="57.373827" lon="-2.091212">
        <ele>40.89</ele>
      </trkpt>
      <trkpt lat="57.373822" lon="-2.091198">
        <ele>40.83</ele>
      </trkpt>
      <trkpt lat="57.37383" lon="-2.091185">
        <ele>40.78</ele>
      </trkpt>
      <trkpt lat="57.37383" lon="-2.091185">
        <ele>40.78</ele>
      </trkpt>
      <trkpt lat="57.373859" lon="-2.091137">
        <ele>40.6</ele>
      </trkpt>
      <trkpt lat="57.373881" lon="-2.091101">
        <ele>40.48</ele>
      </trkpt>
      <trkpt lat="57.373881" lon="-2.091101">
        <ele>40.48</ele>
      </trkpt>
      <trkpt lat="57.37389" lon="-2.091087">
        <ele>40.42</ele>
      </trkpt>
      <trkpt lat="57.37391504253089" lon="-2.0910450920911696">
        <ele>40.271789081190256</ele>
      </trkpt>
      <trkpt lat="57.373939" lon="-2.091005">
        <ele>40.13</ele>
      </trkpt>
      <trkpt lat="57.373967" lon="-2.090942">
        <ele>39.98</ele>
      </trkpt>
      <trkpt lat="57.373967" lon="-2.090942">
        <ele>39.98</ele>
      </trkpt>
      <trkpt lat="57.374021" lon="-2.090754">
        <ele>39.74</ele>
      </trkpt>
      <trkpt lat="57.374031" lon="-2.090681">
        <ele>39.31</ele>
      </trkpt>
      <trkpt lat="57.374031" lon="-2.090681">
        <ele>39.31</ele>
      </trkpt>
      <trkpt lat="57.374044" lon="-2.090596">
        <ele>38.82</ele>
      </trkpt>
      <trkpt lat="57.374075" lon="-2.09061">
        <ele>38.73</ele>
      </trkpt>
      <trkpt lat="57.37421" lon="-2.090672">
        <ele>38.35</ele>
      </trkpt>
      <trkpt lat="57.37423890316409" lon="-2.090685194922735">
        <ele>38.2683171438707</ele>
      </trkpt>
      <trkpt lat="57.374256" lon="-2.090693">
        <ele>38.22</ele>
      </trkpt>
      <trkpt lat="57.374307" lon="-2.090682">
        <ele>38.03</ele>
      </trkpt>
      <trkpt lat="57.37434" lon="-2.090656">
        <ele>38</ele>
      </trkpt>
      <trkpt lat="57.374348254985605" lon="-2.0906373176641617">
        <ele>37.91745012393006</ele>
      </trkpt>
      <trkpt lat="57.374378" lon="-2.09057">
        <ele>37.62</ele>
      </trkpt>
      <trkpt lat="57.374393" lon="-2.090536">
        <ele>37.47</ele>
      </trkpt>
      <trkpt lat="57.37439844552448" lon="-2.0905024192656905">
        <ele>37.27486866077076</ele>
      </trkpt>
      <trkpt lat="57.374417" lon="-2.090388">
        <ele>36.61</ele>
      </trkpt>
      <trkpt lat="57.374444" lon="-2.09021">
        <ele>35.98</ele>
      </trkpt>
      <trkpt lat="57.374393" lon="-2.090536">
        <ele>37.47</ele>
      </trkpt>
      <trkpt lat="57.37434" lon="-2.090656">
        <ele>38</ele>
      </trkpt>
      <trkpt lat="57.374299" lon="-2.090689">
        <ele>38.04</ele>
      </trkpt>
      <trkpt lat="57.374256" lon="-2.090693">
        <ele>38.22</ele>
      </trkpt>
      <trkpt lat="57.374148" lon="-2.090644">
        <ele>38.52</ele>
      </trkpt>
      <trkpt lat="57.374044" lon="-2.090596">
        <ele>38.82</ele>
      </trkpt>
      <trkpt lat="57.374045" lon="-2.090583">
        <ele>38.77</ele>
      </trkpt>
      <trkpt lat="57.374051107744" lon="-2.0905152595665193">
        <ele>38.497927749517046</ele>
      </trkpt>
      <trkpt lat="57.374056" lon="-2.090461">
        <ele>38.28</ele>
      </trkpt>
      <trkpt lat="57.374064" lon="-2.090365">
        <ele>37.9</ele>
      </trkpt>
      <trkpt lat="57.37406815743579" lon="-2.0903170295869717">
        <ele>37.711316353254404</ele>
      </trkpt>
      <trkpt lat="57.374077" lon="-2.090215">
        <ele>37.31</ele>
      </trkpt>
      <trkpt lat="57.37408261683779" lon="-2.090152350655445">
        <ele>37.05940259722881</ele>
      </trkpt>
      <trkpt lat="57.37409" lon="-2.09007">
        <ele>36.73</ele>
      </trkpt>
      <trkpt lat="57.374117" lon="-2.08977">
        <ele>35.54</ele>
      </trkpt>
      <trkpt lat="57.374122" lon="-2.089704">
        <ele>35.28</ele>
      </trkpt>
      <trkpt lat="57.374134" lon="-2.089579">
        <ele>34.79</ele>
      </trkpt>
      <trkpt lat="57.374112" lon="-2.089826">
        <ele>35.76</ele>
      </trkpt>
      <trkpt lat="57.374044" lon="-2.090596">
        <ele>38.82</ele>
      </trkpt>
      <trkpt lat="57.374021" lon="-2.090754">
        <ele>39.74</ele>
      </trkpt>
      <trkpt lat="57.37401673475847" lon="-2.0907687642975965">
        <ele>39.758592071620804</ele>
      </trkpt>
      <trkpt lat="57.373982" lon="-2.090889">
        <ele>39.91</ele>
      </trkpt>
      <trkpt lat="57.373958" lon="-2.090974">
        <ele>40.02</ele>
      </trkpt>
      <trkpt lat="57.373822" lon="-2.091198">
        <ele>40.83</ele>
      </trkpt>
      <trkpt lat="57.373786" lon="-2.091145">
        <ele>40.54</ele>
      </trkpt>
      <trkpt lat="57.373718" lon="-2.091046">
        <ele>40</ele>
      </trkpt>
      <trkpt lat="57.373669" lon="-2.091006">
        <ele>39.88</ele>
      </trkpt>
      <trkpt lat="57.373635" lon="-2.090979">
        <ele>39.74</ele>
      </trkpt>
      <trkpt lat="57.373592" lon="-2.090945">
        <ele>39.25</ele>
      </trkpt>
      <trkpt lat="57.373498" lon="-2.090919">
        <ele>39</ele>
      </trkpt>
      <trkpt lat="57.373372" lon="-2.090953">
        <ele>39</ele>
      </trkpt>
      <trkpt lat="57.373318" lon="-2.090972">
        <ele>39</ele>
      </trkpt>
      <trkpt lat="57.373314" lon="-2.090974">
        <ele>39</ele>
      </trkpt>
      <trkpt lat="57.373327265462606" lon="-2.091066858238268">
        <ele>39</ele>
      </trkpt>
      <trkpt lat="57.373333" lon="-2.091107">
        <ele>39</ele>
      </trkpt>
      <trkpt lat="57.373336" lon="-2.091212">
        <ele>39</ele>
      </trkpt>
      <trkpt lat="57.373332" lon="-2.091283">
        <ele>39.11</ele>
      </trkpt>
      <trkpt lat="57.37332437165347" lon="-2.091339667717092">
        <ele>39.26801573665959</ele>
      </trkpt>
      <trkpt lat="57.373318" lon="-2.091387">
        <ele>39.4</ele>
      </trkpt>
      <trkpt lat="57.373302" lon="-2.091504">
        <ele>39.72</ele>
      </trkpt>
      <trkpt lat="57.37329419170547" lon="-2.091559215797066">
        <ele>39.87616587836452</ele>
      </trkpt>
      <trkpt lat="57.373288" lon="-2.091603">
        <ele>40</ele>
      </trkpt>
      <trkpt lat="57.37327725555877" lon="-2.0916817925690196">
        <ele>40.22085793809312</ele>
      </trkpt>
      <trkpt lat="57.37327" lon="-2.091735">
        <ele>40.37</ele>
      </trkpt>
      <trkpt lat="57.37326027378837" lon="-2.0918079465872306">
        <ele>40.558445335161835</ele>
      </trkpt>
      <trkpt lat="57.373254" lon="-2.091855">
        <ele>40.68</ele>
      </trkpt>
      <trkpt lat="57.373216" lon="-2.092124">
        <ele>41</ele>
      </trkpt>
      <trkpt lat="57.373216" lon="-2.092127">
        <ele>41</ele>
      </trkpt>
      <trkpt lat="57.373216" lon="-2.092124">
        <ele>41</ele>
      </trkpt>
      <trkpt lat="57.373256" lon="-2.091837">
        <ele>40.66</ele>
      </trkpt>
      <trkpt lat="57.373232" lon="-2.091824">
        <ele>40.58</ele>
      </trkpt>
      <trkpt lat="57.373039" lon="-2.091717">
        <ele>40</ele>
      </trkpt>
      <trkpt lat="57.373256" lon="-2.091837">
        <ele>40.66</ele>
      </trkpt>
      <trkpt lat="57.373309" lon="-2.091448">
        <ele>39.57</ele>
      </trkpt>
      <trkpt lat="57.373337" lon="-2.091245">
        <ele>39</ele>
      </trkpt>
      <trkpt lat="57.373333" lon="-2.091107">
        <ele>39</ele>
      </trkpt>
      <trkpt lat="57.373314" lon="-2.090974">
        <ele>39</ele>
      </trkpt>
      <trkpt lat="57.373248" lon="-2.091015">
        <ele>38.72</ele>
      </trkpt>
      <trkpt lat="57.37319" lon="-2.091051">
        <ele>38.47</ele>
      </trkpt>
      <trkpt lat="57.373116" lon="-2.091087">
        <ele>38.12</ele>
      </trkpt>
      <trkpt lat="57.373071" lon="-2.091088">
        <ele>38</ele>
      </trkpt>
      <trkpt lat="57.373028" lon="-2.091072">
        <ele>38</ele>
      </trkpt>
      <trkpt lat="57.372962" lon="-2.091029">
        <ele>38</ele>
      </trkpt>
      <trkpt lat="57.372938" lon="-2.091014">
        <ele>38</ele>
      </trkpt>
      <trkpt lat="57.372935085096046" lon="-2.091008947499811">
        <ele>37.99999999999999</ele>
      </trkpt>
      <trkpt lat="57.372908" lon="-2.090962">
        <ele>38</ele>
      </trkpt>
      <trkpt lat="57.37287720094279" lon="-2.090908418078554">
        <ele>38</ele>
      </trkpt>
      <trkpt lat="57.372835" lon="-2.090835">
        <ele>38</ele>
      </trkpt>
      <trkpt lat="57.372784" lon="-2.090648">
        <ele>37.18</ele>
      </trkpt>
      <trkpt lat="57.372780271757215" lon="-2.0906018629955323">
        <ele>37.10543514854111</ele>
      </trkpt>
      <trkpt lat="57.372776" lon="-2.090549">
        <ele>37.02</ele>
      </trkpt>
      <trkpt lat="57.372775" lon="-2.090534">
        <ele>37</ele>
      </trkpt>
      <trkpt lat="57.37273349092384" lon="-2.0905440807756386">
        <ele>37</ele>
      </trkpt>
      <trkpt lat="57.372705" lon="-2.090551">
        <ele>37</ele>
      </trkpt>
      <trkpt lat="57.372624" lon="-2.09057">
        <ele>37</ele>
      </trkpt>
      <trkpt lat="57.372568" lon="-2.090569">
        <ele>37</ele>
      </trkpt>
      <trkpt lat="57.37253457883347" lon="-2.0905573025917144">
        <ele>37</ele>
      </trkpt>
      <trkpt lat="57.372508" lon="-2.090548">
        <ele>37</ele>
      </trkpt>
      <trkpt lat="57.372466" lon="-2.09053">
        <ele>37</ele>
      </trkpt>
      <trkpt lat="57.37244108209142" lon="-2.090518978617359">
        <ele>37</ele>
      </trkpt>
      <trkpt lat="57.372414" lon="-2.090507">
        <ele>37</ele>
      </trkpt>
      <trkpt lat="57.37239200056836" lon="-2.090497500245431">
        <ele>37</ele>
      </trkpt>
      <trkpt lat="57.37237" lon="-2.090488">
        <ele>37</ele>
      </trkpt>
      <trkpt lat="57.372361" lon="-2.090484">
        <ele>37</ele>
      </trkpt>
      <trkpt lat="57.372327" lon="-2.090722">
        <ele>37</ele>
      </trkpt>
      <trkpt lat="57.372361" lon="-2.090484">
        <ele>37</ele>
      </trkpt>
      <trkpt lat="57.372354" lon="-2.090481">
        <ele>36.99</ele>
      </trkpt>
      <trkpt lat="57.37225" lon="-2.09043">
        <ele>36.85</ele>
      </trkpt>
      <trkpt lat="57.372555" lon="-2.090569">
        <ele>37</ele>
      </trkpt>
      <trkpt lat="57.372655" lon="-2.090564">
        <ele>37</ele>
      </trkpt>
      <trkpt lat="57.372775" lon="-2.090534">
        <ele>37</ele>
      </trkpt>
      <trkpt lat="57.372775" lon="-2.090461">
        <ele>36.83</ele>
      </trkpt>
      <trkpt lat="57.372777" lon="-2.090344">
        <ele>36.57</ele>
      </trkpt>
      <trkpt lat="57.372778" lon="-2.090242">
        <ele>36.34</ele>
      </trkpt>
      <trkpt lat="57.372778" lon="-2.090177">
        <ele>36.19</ele>
      </trkpt>
      <trkpt lat="57.372778" lon="-2.090168">
        <ele>36.17</ele>
      </trkpt>
      <trkpt lat="57.372808597928966" lon="-2.0901725896893444">
        <ele>36.14595876986575</ele>
      </trkpt>
      <trkpt lat="57.372853090172065" lon="-2.090179263525809">
        <ele>36.11100057875734</ele>
      </trkpt>
      <trkpt lat="57.372918" lon="-2.090189">
        <ele>36.06</ele>
      </trkpt>
      <trkpt lat="57.37296414699099" lon="-2.0901937001564894">
        <ele>36.03436278272284</ele>
      </trkpt>
      <trkpt lat="57.373026" lon="-2.0902">
        <ele>36</ele>
      </trkpt>
      <trkpt lat="57.37306660766705" lon="-2.0901960954166294">
        <ele>36</ele>
      </trkpt>
      <trkpt lat="57.373078" lon="-2.090195">
        <ele>36</ele>
      </trkpt>
      <trkpt lat="57.373116" lon="-2.09017">
        <ele>36</ele>
      </trkpt>
      <trkpt lat="57.373128" lon="-2.090163">
        <ele>36</ele>
      </trkpt>
      <trkpt lat="57.373148997502824" lon="-2.09012283086416">
        <ele>35.92240051941796</ele>
      </trkpt>
      <trkpt lat="57.373174" lon="-2.090075">
        <ele>35.83</ele>
      </trkpt>
      <trkpt lat="57.37320566691034" lon="-2.089979999268996">
        <ele>35.36132964229955</ele>
      </trkpt>
      <trkpt lat="57.373224" lon="-2.089925">
        <ele>35.09</ele>
      </trkpt>
      <trkpt lat="57.373258" lon="-2.089666">
        <ele>34.41</ele>
      </trkpt>
      <trkpt lat="57.373257" lon="-2.089656">
        <ele>34.35</ele>
      </trkpt>
      <trkpt lat="57.373258" lon="-2.089666">
        <ele>34.41</ele>
      </trkpt>
      <trkpt lat="57.37323" lon="-2.089908">
        <ele>35</ele>
      </trkpt>
      <trkpt lat="57.373243" lon="-2.089914">
        <ele>35.01</ele>
      </trkpt>
      <trkpt lat="57.373316" lon="-2.089944">
        <ele>35.04</ele>
      </trkpt>
      <trkpt lat="57.37323" lon="-2.089908">
        <ele>35</ele>
      </trkpt>
      <trkpt lat="57.373167" lon="-2.090096">
        <ele>35.94</ele>
      </trkpt>
      <trkpt lat="57.373128" lon="-2.090163">
        <ele>36</ele>
      </trkpt>
      <trkpt lat="57.373078" lon="-2.090195">
        <ele>36</ele>
      </trkpt>
      <trkpt lat="57.373005" lon="-2.090202">
        <ele>36</ele>
      </trkpt>
      <trkpt lat="57.372778" lon="-2.090168">
        <ele>36.17</ele>
      </trkpt>
      <trkpt lat="57.37278" lon="-2.090121">
        <ele>36</ele>
      </trkpt>
      <trkpt lat="57.37278187721037" lon="-2.0900857084449913">
        <ele>35.872349689264134</ele>
      </trkpt>
      <trkpt lat="57.372785" lon="-2.090027">
        <ele>35.66</ele>
      </trkpt>
      <trkpt lat="57.372787309029036" lon="-2.089973315074856">
        <ele>35.46373252723849</ele>
      </trkpt>
      <trkpt lat="57.372789" lon="-2.089934">
        <ele>35.32</ele>
      </trkpt>
      <trkpt lat="57.37279132797901" lon="-2.089883250057452">
        <ele>35.13376167199055</ele>
      </trkpt>
      <trkpt lat="57.372794" lon="-2.089825">
        <ele>34.92</ele>
      </trkpt>
      <trkpt lat="57.3727959716797" lon="-2.089781623046776">
        <ele>34.76226562030571</ele>
      </trkpt>
      <trkpt lat="57.372798" lon="-2.089737">
        <ele>34.6</ele>
      </trkpt>
      <trkpt lat="57.372801" lon="-2.089682">
        <ele>34.4</ele>
      </trkpt>
      <trkpt lat="57.37280292988125" lon="-2.0896356828499263">
        <ele>34.22631068705287</ele>
      </trkpt>
      <trkpt lat="57.372803" lon="-2.089634">
        <ele>34.22</ele>
      </trkpt>
      <trkpt lat="57.37276620849783" lon="-2.089619033965223">
        <ele>34.20129245678302</ele>
      </trkpt>
      <trkpt lat="57.372744" lon="-2.08961">
        <ele>34.19</ele>
      </trkpt>
      <trkpt lat="57.37269" lon="-2.089588">
        <ele>34.15</ele>
      </trkpt>
      <trkpt lat="57.3726583542241" lon="-2.089575247224638">
        <ele>34.131106999880174</ele>
      </trkpt>
      <trkpt lat="57.372623" lon="-2.089561">
        <ele>34.11</ele>
      </trkpt>
      <trkpt lat="57.372585708016175" lon="-2.089545952357406">
        <ele>34.08383018710983</ele>
      </trkpt>
      <trkpt lat="57.372566" lon="-2.089538">
        <ele>34.07</ele>
      </trkpt>
      <trkpt lat="57.372506" lon="-2.089513">
        <ele>34.04</ele>
      </trkpt>
      <trkpt lat="57.37247114786289" lon="-2.0894988009811777">
        <ele>34.01418360244391</ele>
      </trkpt>
      <trkpt lat="57.372452" lon="-2.089491">
        <ele>34</ele>
      </trkpt>
      <trkpt lat="57.372448" lon="-2.089489">
        <ele>34</ele>
      </trkpt>
      <trkpt lat="57.372426" lon="-2.089664">
        <ele>34.47</ele>
      </trkpt>
      <trkpt lat="57.372448" lon="-2.089489">
        <ele>34</ele>
      </trkpt>
      <trkpt lat="57.372351" lon="-2.089442">
        <ele>34</ele>
      </trkpt>
      <trkpt lat="57.372803" lon="-2.089634">
        <ele>34.22</ele>
      </trkpt>
      <trkpt lat="57.372813" lon="-2.089563">
        <ele>34.14</ele>
      </trkpt>
      <trkpt lat="57.37282087325545" lon="-2.0895045129595284">
        <ele>34.07251494799731</ele>
      </trkpt>
      <trkpt lat="57.372827" lon="-2.089459">
        <ele>34.02</ele>
      </trkpt>
      <trkpt lat="57.372845" lon="-2.089367">
        <ele>33.61</ele>
      </trkpt>
      <trkpt lat="57.37285498668823" lon="-2.08932081156694">
        <ele>33.381138357076956</ele>
      </trkpt>
      <trkpt lat="57.372869" lon="-2.089256">
        <ele>33.06</ele>
      </trkpt>
      <trkpt lat="57.37289" lon="-2.089203">
        <ele>32.91</ele>
      </trkpt>
      <trkpt lat="57.372954" lon="-2.089039">
        <ele>32.47</ele>
      </trkpt>
      <trkpt lat="57.372983369956586" lon="-2.0889867314331974">
        <ele>32.23603589377525</ele>
      </trkpt>
      <trkpt lat="57.373013" lon="-2.088934">
        <ele>32</ele>
      </trkpt>
      <trkpt lat="57.37302704734839" lon="-2.0889081832516143">
        <ele>31.886102563000726</ele>
      </trkpt>
      <trkpt lat="57.37305" lon="-2.088866">
        <ele>31.7</ele>
      </trkpt>
      <trkpt lat="57.37307339186442" lon="-2.0888238946440256">
        <ele>31.51286505788832</ele>
      </trkpt>
      <trkpt lat="57.373095" lon="-2.088785">
        <ele>31.34</ele>
      </trkpt>
      <trkpt lat="57.373132" lon="-2.08872">
        <ele>31.04</ele>
      </trkpt>
      <trkpt lat="57.372954" lon="-2.089039">
        <ele>32.47</ele>
      </trkpt>
      <trkpt lat="57.372933" lon="-2.089092">
        <ele>32.61</ele>
      </trkpt>
      <trkpt lat="57.372865" lon="-2.089265">
        <ele>33.08</ele>
      </trkpt>
      <trkpt lat="57.37283" lon="-2.089443">
        <ele>34</ele>
      </trkpt>
      <trkpt lat="57.372803" lon="-2.089634">
        <ele>34.22</ele>
      </trkpt>
      <trkpt lat="57.372777" lon="-2.090296">
        <ele>36.46</ele>
      </trkpt>
      <trkpt lat="57.372776" lon="-2.090382">
        <ele>36.65</ele>
      </trkpt>
      <trkpt lat="57.372775" lon="-2.090534">
        <ele>37</ele>
      </trkpt>
      <trkpt lat="57.372785" lon="-2.090662">
        <ele>37.2</ele>
      </trkpt>
      <trkpt lat="57.372808" lon="-2.090745">
        <ele>37.59</ele>
      </trkpt>
      <trkpt lat="57.372832" lon="-2.09083">
        <ele>38</ele>
      </trkpt>
      <trkpt lat="57.372938" lon="-2.091014">
        <ele>38</ele>
      </trkpt>
      <trkpt lat="57.372913" lon="-2.091078">
        <ele>38.18</ele>
      </trkpt>
      <trkpt lat="57.372881" lon="-2.091162">
        <ele>38.42</ele>
      </trkpt>
      <trkpt lat="57.372859" lon="-2.09122">
        <ele>38.58</ele>
      </trkpt>
      <trkpt lat="57.37284" lon="-2.09127">
        <ele>38.72</ele>
      </trkpt>
      <trkpt lat="57.372826" lon="-2.091306">
        <ele>38.83</ele>
      </trkpt>
      <trkpt lat="57.372773" lon="-2.091444">
        <ele>39.22</ele>
      </trkpt>
      <trkpt lat="57.372724" lon="-2.091571">
        <ele>39.58</ele>
      </trkpt>
      <trkpt lat="57.372669" lon="-2.091667">
        <ele>39.81</ele>
      </trkpt>
      <trkpt lat="57.372631" lon="-2.091723">
        <ele>39.94</ele>
      </trkpt>
      <trkpt lat="57.372603" lon="-2.091746">
        <ele>39.87</ele>
      </trkpt>
      <trkpt lat="57.372558" lon="-2.091781">
        <ele>39.77</ele>
      </trkpt>
      <trkpt lat="57.372543" lon="-2.091794">
        <ele>39.73</ele>
      </trkpt>
      <trkpt lat="57.372538" lon="-2.091798">
        <ele>39.72</ele>
      </trkpt>
      <trkpt lat="57.37255169119116" lon="-2.091907932211362">
        <ele>39.78845597378484</ele>
      </trkpt>
      <trkpt lat="57.372572" lon="-2.092071">
        <ele>39.89</ele>
      </trkpt>
      <trkpt lat="57.372572" lon="-2.092071">
        <ele>39.89</ele>
      </trkpt>
      <trkpt lat="57.372585" lon="-2.092176">
        <ele>39.96</ele>
      </trkpt>
      <trkpt lat="57.372617" lon="-2.092344">
        <ele>40</ele>
      </trkpt>
      <trkpt lat="57.372654" lon="-2.092432">
        <ele>40.5</ele>
      </trkpt>
      <trkpt lat="57.372654" lon="-2.092432">
        <ele>40.5</ele>
      </trkpt>
      <trkpt lat="57.37268861137392" lon="-2.0924903744067516">
        <ele>40.654976332077005</ele>
      </trkpt>
      <trkpt lat="57.372721" lon="-2.092545">
        <ele>40.8</ele>
      </trkpt>
      <trkpt lat="57.37274864896079" lon="-2.092592128910424">
        <ele>40.925677107314115</ele>
      </trkpt>
      <trkpt lat="57.372765" lon="-2.09262">
        <ele>41</ele>
      </trkpt>
      <trkpt lat="57.372806" lon="-2.09266">
        <ele>41</ele>
      </trkpt>
      <trkpt lat="57.37283907050934" lon="-2.0926811990444514">
        <ele>41.10599522920002</ele>
      </trkpt>
      <trkpt lat="57.372884" lon="-2.09271">
        <ele>41.25</ele>
      </trkpt>
      <trkpt lat="57.37293491225904" lon="-2.0927377188965894">
        <ele>41.47061979850511</ele>
      </trkpt>
      <trkpt lat="57.372974" lon="-2.092759">
        <ele>41.64</ele>
      </trkpt>
      <trkpt lat="57.373028" lon="-2.092788">
        <ele>41.87</ele>
      </trkpt>
      <trkpt lat="57.373059" lon="-2.092805">
        <ele>42</ele>
      </trkpt>
      <trkpt lat="57.373033" lon="-2.092991">
        <ele>42.18</ele>
      </trkpt>
      <trkpt lat="57.373059" lon="-2.092805">
        <ele>42</ele>
      </trkpt>
      <trkpt lat="57.373155" lon="-2.092851">
        <ele>42.46</ele>
      </trkpt>
      <trkpt lat="57.372825" lon="-2.092678">
        <ele>41</ele>
      </trkpt>
      <trkpt lat="57.372765" lon="-2.09262">
        <ele>41</ele>
      </trkpt>
      <trkpt lat="57.372647" lon="-2.09242">
        <ele>40.47</ele>
      </trkpt>
      <trkpt lat="57.372617" lon="-2.092344">
        <ele>40</ele>
      </trkpt>
      <trkpt lat="57.372593" lon="-2.092246">
        <ele>40</ele>
      </trkpt>
      <trkpt lat="57.372538" lon="-2.091798">
        <ele>39.72</ele>
      </trkpt>
      <trkpt lat="57.372491" lon="-2.091807">
        <ele>39.43</ele>
      </trkpt>
      <trkpt lat="57.372442" lon="-2.091816">
        <ele>39.13</ele>
      </trkpt>
      <trkpt lat="57.3724" lon="-2.091814">
        <ele>39</ele>
      </trkpt>
      <trkpt lat="57.37236" lon="-2.091802">
        <ele>39</ele>
      </trkpt>
      <trkpt lat="57.372318" lon="-2.091775">
        <ele>39</ele>
      </trkpt>
      <trkpt lat="57.37228" lon="-2.09174">
        <ele>38.92</ele>
      </trkpt>
      <trkpt lat="57.372195" lon="-2.091624">
        <ele>38.36</ele>
      </trkpt>
      <trkpt lat="57.372169" lon="-2.091585">
        <ele>38.16</ele>
      </trkpt>
      <trkpt lat="57.372116" lon="-2.091503">
        <ele>37.74</ele>
      </trkpt>
      <trkpt lat="57.372069" lon="-2.091432">
        <ele>37.38</ele>
      </trkpt>
      <trkpt lat="57.372016" lon="-2.091352">
        <ele>36.96</ele>
      </trkpt>
      <trkpt lat="57.371975" lon="-2.091289">
        <ele>36.64</ele>
      </trkpt>
      <trkpt lat="57.37192" lon="-2.091206">
        <ele>36.21</ele>
      </trkpt>
      <trkpt lat="57.371866" lon="-2.091126">
        <ele>35.81</ele>
      </trkpt>
      <trkpt lat="57.371842" lon="-2.09109">
        <ele>35.63</ele>
      </trkpt>
      <trkpt lat="57.371799" lon="-2.091027">
        <ele>35.32</ele>
      </trkpt>
      <trkpt lat="57.371764" lon="-2.090976">
        <ele>35.07</ele>
      </trkpt>
      <trkpt lat="57.371739" lon="-2.09094">
        <ele>34.89</ele>
      </trkpt>
      <trkpt lat="57.371698" lon="-2.090879">
        <ele>34.59</ele>
      </trkpt>
      <trkpt lat="57.371664" lon="-2.09083">
        <ele>34.35</ele>
      </trkpt>
      <trkpt lat="57.371637" lon="-2.09079">
        <ele>34.15</ele>
      </trkpt>
      <trkpt lat="57.371609" lon="-2.090749">
        <ele>33.94</ele>
      </trkpt>
      <trkpt lat="57.371614" lon="-2.090756">
        <ele>33.98</ele>
      </trkpt>
      <trkpt lat="57.371644696752575" lon="-2.0906796966435888">
        <ele>34.05893450960776</ele>
      </trkpt>
      <trkpt lat="57.371649" lon="-2.090669">
        <ele>34.07</ele>
      </trkpt>
      <trkpt lat="57.371661" lon="-2.090585">
        <ele>34.22</ele>
      </trkpt>
      <trkpt lat="57.371671960946365" lon="-2.090505663626303">
        <ele>34.35570697242847</ele>
      </trkpt>
      <trkpt lat="57.371682" lon="-2.090433">
        <ele>34.48</ele>
      </trkpt>
      <trkpt lat="57.37169216038378" lon="-2.0903636703224318">
        <ele>34.59953396301549</ele>
      </trkpt>
      <trkpt lat="57.371716" lon="-2.090201">
        <ele>34.88</ele>
      </trkpt>
      <trkpt lat="57.371649" lon="-2.090669">
        <ele>34.07</ele>
      </trkpt>
      <trkpt lat="57.371614" lon="-2.090756">
        <ele>33.98</ele>
      </trkpt>
      <trkpt lat="57.371577" lon="-2.090702">
        <ele>33.67</ele>
      </trkpt>
      <trkpt lat="57.371529" lon="-2.090633">
        <ele>33.27</ele>
      </trkpt>
      <trkpt lat="57.371465" lon="-2.090541">
        <ele>32.73</ele>
      </trkpt>
      <trkpt lat="57.371447" lon="-2.090515">
        <ele>32.58</ele>
      </trkpt>
      <trkpt lat="57.371397" lon="-2.090442">
        <ele>32.16</ele>
      </trkpt>
      <trkpt lat="57.371338" lon="-2.090356">
        <ele>31.67</ele>
      </trkpt>
      <trkpt lat="57.371297" lon="-2.090297">
        <ele>31.32</ele>
      </trkpt>
      <trkpt lat="57.371268" lon="-2.090255">
        <ele>31.08</ele>
      </trkpt>
      <trkpt lat="57.371259" lon="-2.090241">
        <ele>31</ele>
      </trkpt>
      <trkpt lat="57.37124" lon="-2.090292">
        <ele>30.95</ele>
      </trkpt>
      <trkpt lat="57.371221" lon="-2.090342">
        <ele>30.9</ele>
      </trkpt>
      <trkpt lat="57.371189" lon="-2.090392">
        <ele>30.56</ele>
      </trkpt>
      <trkpt lat="57.37113" lon="-2.09044">
        <ele>30.06</ele>
      </trkpt>
      <trkpt lat="57.371104" lon="-2.090447">
        <ele>29.91</ele>
      </trkpt>
      <trkpt lat="57.371061" lon="-2.090457">
        <ele>29.65</ele>
      </trkpt>
      <trkpt lat="57.37098" lon="-2.090478">
        <ele>29.18</ele>
      </trkpt>
      <trkpt lat="57.370891" lon="-2.0905">
        <ele>28.65</ele>
      </trkpt>
      <trkpt lat="57.370817" lon="-2.090519">
        <ele>28.21</ele>
      </trkpt>
      <trkpt lat="57.370731" lon="-2.09054">
        <ele>27.7</ele>
      </trkpt>
      <trkpt lat="57.370683" lon="-2.090538">
        <ele>27.44</ele>
      </trkpt>
      <trkpt lat="57.370645" lon="-2.090536">
        <ele>27.23</ele>
      </trkpt>
      <trkpt lat="57.370606" lon="-2.09051">
        <ele>27.03</ele>
      </trkpt>
      <trkpt lat="57.370582" lon="-2.090472">
        <ele>27</ele>
      </trkpt>
      <trkpt lat="57.370565" lon="-2.090418">
        <ele>27</ele>
      </trkpt>
      <trkpt lat="57.37054" lon="-2.090317">
        <ele>27</ele>
      </trkpt>
      <trkpt lat="57.370525" lon="-2.090218">
        <ele>27</ele>
      </trkpt>
      <trkpt lat="57.370521" lon="-2.090111">
        <ele>27</ele>
      </trkpt>
      <trkpt lat="57.370521" lon="-2.090001">
        <ele>27</ele>
      </trkpt>
      <trkpt lat="57.370529" lon="-2.089879">
        <ele>27</ele>
      </trkpt>
      <trkpt lat="57.370542" lon="-2.089817">
        <ele>27</ele>
      </trkpt>
      <trkpt lat="57.370569" lon="-2.089752">
        <ele>27.1</ele>
      </trkpt>
      <trkpt lat="57.37063" lon="-2.089618">
        <ele>27.39</ele>
      </trkpt>
      <trkpt lat="57.370662" lon="-2.089547">
        <ele>27.54</ele>
      </trkpt>
      <trkpt lat="57.37071" lon="-2.08944">
        <ele>27.77</ele>
      </trkpt>
      <trkpt lat="57.370728" lon="-2.089401">
        <ele>27.86</ele>
      </trkpt>
      <trkpt lat="57.370758" lon="-2.089335">
        <ele>28</ele>
      </trkpt>
      <trkpt lat="57.37077" lon="-2.089353">
        <ele>28.07</ele>
      </trkpt>
      <trkpt lat="57.370818" lon="-2.089422">
        <ele>28.36</ele>
      </trkpt>
      <trkpt lat="57.370876" lon="-2.089485">
        <ele>28.56</ele>
      </trkpt>
      <trkpt lat="57.370911" lon="-2.089518">
        <ele>28.65</ele>
      </trkpt>
      <trkpt lat="57.370952" lon="-2.089544">
        <ele>28.85</ele>
      </trkpt>
      <trkpt lat="57.370999" lon="-2.089569">
        <ele>29.12</ele>
      </trkpt>
      <trkpt lat="57.37108" lon="-2.089612">
        <ele>29.58</ele>
      </trkpt>
      <trkpt lat="57.371118" lon="-2.089632">
        <ele>29.79</ele>
      </trkpt>
      <trkpt lat="57.371162" lon="-2.089655">
        <ele>30.04</ele>
      </trkpt>
      <trkpt lat="57.371226" lon="-2.089689">
        <ele>30.41</ele>
      </trkpt>
      <trkpt lat="57.371273" lon="-2.089714">
        <ele>30.67</ele>
      </trkpt>
      <trkpt lat="57.371306" lon="-2.089731">
        <ele>30.86</ele>
      </trkpt>
      <trkpt lat="57.37133" lon="-2.089744">
        <ele>31</ele>
      </trkpt>
      <trkpt lat="57.371321" lon="-2.089807">
        <ele>31</ele>
      </trkpt>
      <trkpt lat="57.37130860740678" lon="-2.089891977782073">
        <ele>31</ele>
      </trkpt>
      <trkpt lat="57.3713" lon="-2.089951">
        <ele>31</ele>
      </trkpt>
      <trkpt lat="57.37128325850855" lon="-2.0900676672685496">
        <ele>31</ele>
      </trkpt>
      <trkpt lat="57.371268" lon="-2.090174">
        <ele>31</ele>
      </trkpt>
      <trkpt lat="57.371346" lon="-2.089638">
        <ele>31.15</ele>
      </trkpt>
      <trkpt lat="57.371362" lon="-2.089534">
        <ele>31.29</ele>
      </trkpt>
      <trkpt lat="57.371378" lon="-2.08943">
        <ele>31.43</ele>
      </trkpt>
      <trkpt lat="57.371396" lon="-2.089312">
        <ele>31.59</ele>
      </trkpt>
      <trkpt lat="57.371401" lon="-2.08928">
        <ele>31.64</ele>
      </trkpt>
      <trkpt lat="57.37143" lon="-2.089292">
        <ele>31.78</ele>
      </trkpt>
      <trkpt lat="57.371468" lon="-2.089309">
        <ele>31.96</ele>
      </trkpt>
      <trkpt lat="57.37151235779933" lon="-2.089314142933256">
        <ele>31.985714666310834</ele>
      </trkpt>
      <trkpt lat="57.371537" lon="-2.089317">
        <ele>32</ele>
      </trkpt>
      <trkpt lat="57.371572684414126" lon="-2.08930919403441">
        <ele>32.17284638181539</ele>
      </trkpt>
      <trkpt lat="57.371601" lon="-2.089303">
        <ele>32.31</ele>
      </trkpt>
      <trkpt lat="57.371644" lon="-2.089294">
        <ele>32.52</ele>
      </trkpt>
      <trkpt lat="57.37167154788164" lon="-2.089284817372788">
        <ele>32.66015589076143</ele>
      </trkpt>
      <trkpt lat="57.371701" lon="-2.089275">
        <ele>32.81</ele>
      </trkpt>
      <trkpt lat="57.371748" lon="-2.089233">
        <ele>33</ele>
      </trkpt>
      <trkpt lat="57.371807" lon="-2.089132">
        <ele>33</ele>
      </trkpt>
      <trkpt lat="57.371774" lon="-2.089199">
        <ele>33</ele>
      </trkpt>
      <trkpt lat="57.371733" lon="-2.089253">
        <ele>33</ele>
      </trkpt>
      <trkpt lat="57.371687" lon="-2.089285">
        <ele>32.72</ele>
      </trkpt>
      <trkpt lat="57.371537" lon="-2.089317">
        <ele>32</ele>
      </trkpt>
      <trkpt lat="57.371476" lon="-2.089312">
        <ele>32</ele>
      </trkpt>
      <trkpt lat="57.371401" lon="-2.08928">
        <ele>31.64</ele>
      </trkpt>
      <trkpt lat="57.371405" lon="-2.089254">
        <ele>31.58</ele>
      </trkpt>
      <trkpt lat="57.371433" lon="-2.08908">
        <ele>31.2</ele>
      </trkpt>
      <trkpt lat="57.371445" lon="-2.089003">
        <ele>31.04</ele>
      </trkpt>
      <trkpt lat="57.371468" lon="-2.088863">
        <ele>30.74</ele>
      </trkpt>
      <trkpt lat="57.37148" lon="-2.088786">
        <ele>30.57</ele>
      </trkpt>
      <trkpt lat="57.371498" lon="-2.088674">
        <ele>30.33</ele>
      </trkpt>
      <trkpt lat="57.371513" lon="-2.088581">
        <ele>30.13</ele>
      </trkpt>
      <trkpt lat="57.371521" lon="-2.088528">
        <ele>30.01</ele>
      </trkpt>
      <trkpt lat="57.371531" lon="-2.088465">
        <ele>29.88</ele>
      </trkpt>
      <trkpt lat="57.371548" lon="-2.088362">
        <ele>29.65</ele>
      </trkpt>
      <trkpt lat="57.371557" lon="-2.088304">
        <ele>29.53</ele>
      </trkpt>
      <trkpt lat="57.371577" lon="-2.088181">
        <ele>29.26</ele>
      </trkpt>
      <trkpt lat="57.371592" lon="-2.088085">
        <ele>29.05</ele>
      </trkpt>
      <trkpt lat="57.371599" lon="-2.08804">
        <ele>28.96</ele>
      </trkpt>
      <trkpt lat="57.37162130423726" lon="-2.088053056138887">
        <ele>29.01984063792277</ele>
      </trkpt>
      <trkpt lat="57.37164" lon="-2.088064">
        <ele>29.07</ele>
      </trkpt>
      <trkpt lat="57.371694" lon="-2.088078">
        <ele>29.03</ele>
      </trkpt>
      <trkpt lat="57.371726" lon="-2.088087">
        <ele>29</ele>
      </trkpt>
      <trkpt lat="57.37176648001242" lon="-2.088077891997205">
        <ele>29</ele>
      </trkpt>
      <trkpt lat="57.371806" lon="-2.088069">
        <ele>29</ele>
      </trkpt>
      <trkpt lat="57.371897" lon="-2.088046">
        <ele>28.92</ele>
      </trkpt>
      <trkpt lat="57.371937" lon="-2.08801">
        <ele>28.46</ele>
      </trkpt>
      <trkpt lat="57.372002" lon="-2.087926">
        <ele>28.01</ele>
      </trkpt>
      <trkpt lat="57.371937" lon="-2.08801">
        <ele>28.46</ele>
      </trkpt>
      <trkpt lat="57.37189" lon="-2.088052">
        <ele>29</ele>
      </trkpt>
      <trkpt lat="57.371726" lon="-2.088087">
        <ele>29</ele>
      </trkpt>
      <trkpt lat="57.371641" lon="-2.088065">
        <ele>29.08</ele>
      </trkpt>
      <trkpt lat="57.371599" lon="-2.08804">
        <ele>28.96</ele>
      </trkpt>
      <trkpt lat="57.371621" lon="-2.087898">
        <ele>28.46</ele>
      </trkpt>
      <trkpt lat="57.371656" lon="-2.087676">
        <ele>27.67</ele>
      </trkpt>
      <trkpt lat="57.371668" lon="-2.087601">
        <ele>27.4</ele>
      </trkpt>
      <trkpt lat="57.371644" lon="-2.087588">
        <ele>27.28</ele>
      </trkpt>
      <trkpt lat="57.37160201211338" lon="-2.0875651458338624">
        <ele>27.072718036344597</ele>
      </trkpt>
      <trkpt lat="57.371565" lon="-2.087545">
        <ele>26.89</ele>
      </trkpt>
      <trkpt lat="57.371518" lon="-2.08752">
        <ele>26.66</ele>
      </trkpt>
      <trkpt lat="57.371444" lon="-2.087479">
        <ele>26.29</ele>
      </trkpt>
      <trkpt lat="57.371394" lon="-2.087452">
        <ele>26.04</ele>
      </trkpt>
      <trkpt lat="57.371668" lon="-2.087601">
        <ele>27.4</ele>
      </trkpt>
      <trkpt lat="57.371674" lon="-2.087563">
        <ele>27.32</ele>
      </trkpt>
      <trkpt lat="57.371695" lon="-2.087431">
        <ele>27.02</ele>
      </trkpt>
      <trkpt lat="57.37171" lon="-2.087337">
        <ele>26.81</ele>
      </trkpt>
      <trkpt lat="57.371725" lon="-2.08725">
        <ele>26.61</ele>
      </trkpt>
      <trkpt lat="57.371754" lon="-2.087067">
        <ele>26.19</ele>
      </trkpt>
      <trkpt lat="57.371785" lon="-2.086879">
        <ele>25.77</ele>
      </trkpt>
      <trkpt lat="57.371805" lon="-2.086756">
        <ele>25.49</ele>
      </trkpt>
      <trkpt lat="57.371816" lon="-2.086687">
        <ele>25.33</ele>
      </trkpt>
      <trkpt lat="57.371824" lon="-2.086635">
        <ele>25.21</ele>
      </trkpt>
      <trkpt lat="57.371589" lon="-2.086521">
        <ele>24.92</ele>
      </trkpt>
      <trkpt lat="57.371491" lon="-2.086474">
        <ele>24.8</ele>
      </trkpt>
      <trkpt lat="57.371084" lon="-2.086277">
        <ele>24.29</ele>
      </trkpt>
      <trkpt lat="57.371011" lon="-2.086262">
        <ele>24.38</ele>
      </trkpt>
      <trkpt lat="57.370869" lon="-2.086269">
        <ele>24.88</ele>
      </trkpt>
      <trkpt lat="57.370834" lon="-2.086271">
        <ele>25</ele>
      </trkpt>
      <trkpt lat="57.370643" lon="-2.086401">
        <ele>24.97</ele>
      </trkpt>
      <trkpt lat="57.370606" lon="-2.086432">
        <ele>24.96</ele>
      </trkpt>
      <trkpt lat="57.370552" lon="-2.086493">
        <ele>24.92</ele>
      </trkpt>
      <trkpt lat="57.370525" lon="-2.086529">
        <ele>24.89</ele>
      </trkpt>
      <trkpt lat="57.370481" lon="-2.086589">
        <ele>24.84</ele>
      </trkpt>
      <trkpt lat="57.370436" lon="-2.086651">
        <ele>24.79</ele>
      </trkpt>
      <trkpt lat="57.370387" lon="-2.086717">
        <ele>24.74</ele>
      </trkpt>
      <trkpt lat="57.370349" lon="-2.086768">
        <ele>24.7</ele>
      </trkpt>
      <trkpt lat="57.370345" lon="-2.086774">
        <ele>24.7</ele>
      </trkpt>
      <trkpt lat="57.3703673824987" lon="-2.0868238010596203">
        <ele>24.828699385789413</ele>
      </trkpt>
      <trkpt lat="57.370385" lon="-2.086863">
        <ele>24.93</ele>
      </trkpt>
      <trkpt lat="57.370411736255846" lon="-2.0869480699049854">
        <ele>24.972534959959717</ele>
      </trkpt>
      <trkpt lat="57.370429" lon="-2.087003">
        <ele>25</ele>
      </trkpt>
      <trkpt lat="57.370467" lon="-2.087193">
        <ele>25</ele>
      </trkpt>
      <trkpt lat="57.370482" lon="-2.087322">
        <ele>25.07</ele>
      </trkpt>
      <trkpt lat="57.370486330617084" lon="-2.0874053643788053">
        <ele>25.151199074289906</ele>
      </trkpt>
      <trkpt lat="57.37049" lon="-2.087476">
        <ele>25.22</ele>
      </trkpt>
      <trkpt lat="57.370497" lon="-2.087617">
        <ele>25.36</ele>
      </trkpt>
      <trkpt lat="57.37049939471959" lon="-2.0876624996720343">
        <ele>25.40390319445303</ele>
      </trkpt>
      <trkpt lat="57.370503" lon="-2.087731">
        <ele>25.47</ele>
      </trkpt>
      <trkpt lat="57.370507" lon="-2.087809">
        <ele>25.55</ele>
      </trkpt>
      <trkpt lat="57.370513" lon="-2.087929">
        <ele>25.67</ele>
      </trkpt>
      <trkpt lat="57.370521318949145" lon="-2.0880870600336445">
        <ele>25.82944653309406</ele>
      </trkpt>
      <trkpt lat="57.370525" lon="-2.088157">
        <ele>25.9</ele>
      </trkpt>
      <trkpt lat="57.37053" lon="-2.088256">
        <ele>25.99</ele>
      </trkpt>
      <trkpt lat="57.370531" lon="-2.088263">
        <ele>26</ele>
      </trkpt>
      <trkpt lat="57.37057739334246" lon="-2.0882551588716978">
        <ele>26.006534273604785</ele>
      </trkpt>
      <trkpt lat="57.370602" lon="-2.088251">
        <ele>26.01</ele>
      </trkpt>
      <trkpt lat="57.370652" lon="-2.088244">
        <ele>26.01</ele>
      </trkpt>
      <trkpt lat="57.370691704455766" lon="-2.0882377308754054">
        <ele>26.015224270514388</ele>
      </trkpt>
      <trkpt lat="57.370728" lon="-2.088232">
        <ele>26.02</ele>
      </trkpt>
      <trkpt lat="57.37075743557697" lon="-2.0882269249005225">
        <ele>26.050450596973608</ele>
      </trkpt>
      <trkpt lat="57.370786" lon="-2.088222">
        <ele>26.08</ele>
      </trkpt>
      <trkpt lat="57.370862" lon="-2.088211">
        <ele>26.73</ele>
      </trkpt>
      <trkpt lat="57.370531" lon="-2.088263">
        <ele>26</ele>
      </trkpt>
      <trkpt lat="57.37053463215419" lon="-2.0883423885128165">
        <ele>26</ele>
      </trkpt>
      <trkpt lat="57.370538" lon="-2.088416">
        <ele>26</ele>
      </trkpt>
      <trkpt lat="57.370543" lon="-2.088515">
        <ele>26</ele>
      </trkpt>
      <trkpt lat="57.370545" lon="-2.088559">
        <ele>26</ele>
      </trkpt>
      <trkpt lat="57.3705543177294" lon="-2.0886621605755744">
        <ele>26.09983282126887</ele>
      </trkpt>
      <trkpt lat="57.370559" lon="-2.088714">
        <ele>26.15</ele>
      </trkpt>
      <trkpt lat="57.370567" lon="-2.08878">
        <ele>26.26</ele>
      </trkpt>
      <trkpt lat="57.370576659030995" lon="-2.0888363443474662">
        <ele>26.458546768724062</ele>
      </trkpt>
      <trkpt lat="57.370585" lon="-2.088885">
        <ele>26.63</ele>
      </trkpt>
      <trkpt lat="57.370597386511704" lon="-2.088942803721301">
        <ele>26.865933580244352</ele>
      </trkpt>
      <trkpt lat="57.370606" lon="-2.088983">
        <ele>27.03</ele>
      </trkpt>
      <trkpt lat="57.370626" lon="-2.089039">
        <ele>27.14</ele>
      </trkpt>
      <trkpt lat="57.370648" lon="-2.089101">
        <ele>27.27</ele>
      </trkpt>
      <trkpt lat="57.370686" lon="-2.089196">
        <ele>27.5</ele>
      </trkpt>
      <trkpt lat="57.370732" lon="-2.089285">
        <ele>27.82</ele>
      </trkpt>
      <trkpt lat="57.370672" lon="-2.089169">
        <ele>27.4</ele>
      </trkpt>
      <trkpt lat="57.370601" lon="-2.08897">
        <ele>27</ele>
      </trkpt>
      <trkpt lat="57.370571" lon="-2.088815">
        <ele>26.32</ele>
      </trkpt>
      <trkpt lat="57.370548" lon="-2.088628">
        <ele>26</ele>
      </trkpt>
      <trkpt lat="57.370478" lon="-2.08725">
        <ele>25</ele>
      </trkpt>
      <trkpt lat="57.370446" lon="-2.087077">
        <ele>25</ele>
      </trkpt>
      <trkpt lat="57.370397" lon="-2.086889">
        <ele>25</ele>
      </trkpt>
      <trkpt lat="57.370345" lon="-2.086774">
        <ele>24.7</ele>
      </trkpt>
      <trkpt lat="57.370324" lon="-2.086809">
        <ele>24.71</ele>
      </trkpt>
      <trkpt lat="57.370278" lon="-2.086887">
        <ele>24.74</ele>
      </trkpt>
      <trkpt lat="57.370229" lon="-2.08697">
        <ele>24.76</ele>
      </trkpt>
      <trkpt lat="57.370175" lon="-2.08704">
        <ele>25.12</ele>
      </trkpt>
      <trkpt lat="57.370125" lon="-2.0871">
        <ele>25.44</ele>
      </trkpt>
      <trkpt lat="57.370078" lon="-2.087151">
        <ele>25.71</ele>
      </trkpt>
      <trkpt lat="57.370038" lon="-2.087185">
        <ele>25.73</ele>
      </trkpt>
      <trkpt lat="57.369982" lon="-2.087221">
        <ele>25.53</ele>
      </trkpt>
      <trkpt lat="57.369929" lon="-2.087253">
        <ele>25.48</ele>
      </trkpt>
      <trkpt lat="57.369888" lon="-2.087269">
        <ele>25.72</ele>
      </trkpt>
      <trkpt lat="57.369842" lon="-2.087287">
        <ele>25.98</ele>
      </trkpt>
      <trkpt lat="57.369796" lon="-2.087296">
        <ele>26</ele>
      </trkpt>
      <trkpt lat="57.369726" lon="-2.087308">
        <ele>26</ele>
      </trkpt>
      <trkpt lat="57.369679" lon="-2.087317">
        <ele>26</ele>
      </trkpt>
      <trkpt lat="57.36962" lon="-2.087327">
        <ele>26</ele>
      </trkpt>
      <trkpt lat="57.369568" lon="-2.087336">
        <ele>26</ele>
      </trkpt>
      <trkpt lat="57.369514" lon="-2.087346">
        <ele>26</ele>
      </trkpt>
      <trkpt lat="57.369478" lon="-2.087352">
        <ele>26</ele>
      </trkpt>
      <trkpt lat="57.369472" lon="-2.087353">
        <ele>26</ele>
      </trkpt>
      <trkpt lat="57.369468" lon="-2.087263">
        <ele>25.9</ele>
      </trkpt>
      <trkpt lat="57.36946462720446" lon="-2.08718036650927">
        <ele>25.81568011450075</ele>
      </trkpt>
      <trkpt lat="57.369462" lon="-2.087116">
        <ele>25.75</ele>
      </trkpt>
      <trkpt lat="57.369462" lon="-2.087116">
        <ele>25.75</ele>
      </trkpt>
      <trkpt lat="57.369458" lon="-2.087024">
        <ele>25.65</ele>
      </trkpt>
      <trkpt lat="57.36945" lon="-2.086824">
        <ele>25.44</ele>
      </trkpt>
      <trkpt lat="57.36945" lon="-2.086824">
        <ele>25.44</ele>
      </trkpt>
      <trkpt lat="57.36945" lon="-2.086824">
        <ele>25.44</ele>
      </trkpt>
      <trkpt lat="57.369446" lon="-2.086729">
        <ele>25.33</ele>
      </trkpt>
      <trkpt lat="57.369438" lon="-2.086555">
        <ele>25.15</ele>
      </trkpt>
      <trkpt lat="57.369438173385376" lon="-2.0865553655544535">
        <ele>25.150712327810716</ele>
      </trkpt>
      <trkpt lat="57.369436" lon="-2.086509">
        <ele>25.1</ele>
      </trkpt>
      <trkpt lat="57.36943" lon="-2.086349">
        <ele>24.93</ele>
      </trkpt>
      <trkpt lat="57.369421" lon="-2.08615">
        <ele>24.72</ele>
      </trkpt>
      <trkpt lat="57.369432" lon="-2.086405">
        <ele>24.99</ele>
      </trkpt>
      <trkpt lat="57.369472" lon="-2.087353">
        <ele>26</ele>
      </trkpt>
      <trkpt lat="57.369416" lon="-2.087361">
        <ele>26.04</ele>
      </trkpt>
      <trkpt lat="57.369307" lon="-2.087375">
        <ele>26.12</ele>
      </trkpt>
      <trkpt lat="57.369237" lon="-2.087384">
        <ele>26.17</ele>
      </trkpt>
      <trkpt lat="57.369142" lon="-2.087397">
        <ele>26.24</ele>
      </trkpt>
      <trkpt lat="57.369053" lon="-2.087409">
        <ele>26.31</ele>
      </trkpt>
      <trkpt lat="57.369029" lon="-2.087412">
        <ele>26.32</ele>
      </trkpt>
      <trkpt lat="57.369021" lon="-2.087413">
        <ele>26.33</ele>
      </trkpt>
      <trkpt lat="57.369028368103876" lon="-2.087603649687943">
        <ele>26.61090899337427</ele>
      </trkpt>
      <trkpt lat="57.369037" lon="-2.087827">
        <ele>26.94</ele>
      </trkpt>
      <trkpt lat="57.3690530748214" lon="-2.087923448928434">
        <ele>26.970140296106763</ele>
      </trkpt>
      <trkpt lat="57.369069" lon="-2.088019">
        <ele>27</ele>
      </trkpt>
      <trkpt lat="57.369074" lon="-2.088094">
        <ele>27.02</ele>
      </trkpt>
      <trkpt lat="57.36908460706971" lon="-2.0882879578460773">
        <ele>27.080611835397526</ele>
      </trkpt>
      <trkpt lat="57.369095" lon="-2.088478">
        <ele>27.14</ele>
      </trkpt>
      <trkpt lat="57.369101" lon="-2.088597">
        <ele>27.25</ele>
      </trkpt>
      <trkpt lat="57.369111" lon="-2.088781">
        <ele>27.47</ele>
      </trkpt>
      <trkpt lat="57.369113" lon="-2.088823">
        <ele>27.53</ele>
      </trkpt>
      <trkpt lat="57.36911586958218" lon="-2.0888223043437137">
        <ele>27.526521718518094</ele>
      </trkpt>
      <trkpt lat="57.369179" lon="-2.088807">
        <ele>27.45</ele>
      </trkpt>
      <trkpt lat="57.369219418452325" lon="-2.0887976098545114">
        <ele>27.40509060798272</ele>
      </trkpt>
      <trkpt lat="57.369278" lon="-2.088784">
        <ele>27.34</ele>
      </trkpt>
      <trkpt lat="57.369364" lon="-2.088763">
        <ele>27.25</ele>
      </trkpt>
      <trkpt lat="57.36941617720088" lon="-2.0887511415452544">
        <ele>27.19070772583474</ele>
      </trkpt>
      <trkpt lat="57.369452" lon="-2.088743">
        <ele>27.15</ele>
      </trkpt>
      <trkpt lat="57.369553" lon="-2.088719">
        <ele>27.04</ele>
      </trkpt>
      <trkpt lat="57.369591" lon="-2.08871">
        <ele>27</ele>
      </trkpt>
      <trkpt lat="57.369591" lon="-2.088717">
        <ele>27.02</ele>
      </trkpt>
      <trkpt lat="57.369591" lon="-2.08871">
        <ele>27</ele>
      </trkpt>
      <trkpt lat="57.369321" lon="-2.088774">
        <ele>27.3</ele>
      </trkpt>
      <trkpt lat="57.369113" lon="-2.088823">
        <ele>27.53</ele>
      </trkpt>
      <trkpt lat="57.369069" lon="-2.088019">
        <ele>27</ele>
      </trkpt>
      <trkpt lat="57.369038" lon="-2.087856">
        <ele>26.98</ele>
      </trkpt>
      <trkpt lat="57.369021" lon="-2.087413">
        <ele>26.33</ele>
      </trkpt>
      <trkpt lat="57.368957" lon="-2.087424">
        <ele>26.14</ele>
      </trkpt>
      <trkpt lat="57.368833" lon="-2.087445">
        <ele>25.77</ele>
      </trkpt>
      <trkpt lat="57.36877" lon="-2.087456">
        <ele>25.58</ele>
      </trkpt>
      <trkpt lat="57.368706" lon="-2.087467">
        <ele>25.38</ele>
      </trkpt>
      <trkpt lat="57.368621" lon="-2.087481">
        <ele>25.13</ele>
      </trkpt>
      <trkpt lat="57.368537" lon="-2.087495">
        <ele>24.88</ele>
      </trkpt>
      <trkpt lat="57.368464" lon="-2.087508">
        <ele>24.66</ele>
      </trkpt>
      <trkpt lat="57.36836" lon="-2.087525">
        <ele>24.35</ele>
      </trkpt>
      <trkpt lat="57.368282" lon="-2.087539">
        <ele>24.11</ele>
      </trkpt>
      <trkpt lat="57.368166" lon="-2.087559">
        <ele>23.93</ele>
      </trkpt>
      <trkpt lat="57.368067" lon="-2.087577">
        <ele>23.76</ele>
      </trkpt>
      <trkpt lat="57.367965" lon="-2.087596">
        <ele>23.33</ele>
      </trkpt>
      <trkpt lat="57.367902" lon="-2.087608">
        <ele>23.06</ele>
      </trkpt>
      <trkpt lat="57.367827" lon="-2.087622">
        <ele>22.74</ele>
      </trkpt>
      <trkpt lat="57.367754" lon="-2.087636">
        <ele>22.43</ele>
      </trkpt>
      <trkpt lat="57.36764" lon="-2.087657">
        <ele>21.95</ele>
      </trkpt>
      <trkpt lat="57.36748" lon="-2.087684">
        <ele>21.32</ele>
      </trkpt>
      <trkpt lat="57.367335" lon="-2.087708">
        <ele>20.76</ele>
      </trkpt>
      <trkpt lat="57.36719" lon="-2.087733">
        <ele>20.2</ele>
      </trkpt>
      <trkpt lat="57.367087" lon="-2.087751">
        <ele>19.8</ele>
      </trkpt>
      <trkpt lat="57.366989" lon="-2.087767">
        <ele>19.41</ele>
      </trkpt>
      <trkpt lat="57.366912" lon="-2.08778">
        <ele>19.1</ele>
      </trkpt>
      <trkpt lat="57.366794" lon="-2.0878">
        <ele>18.5</ele>
      </trkpt>
      <trkpt lat="57.366678" lon="-2.087819">
        <ele>17.92</ele>
      </trkpt>
      <trkpt lat="57.366488" lon="-2.08785">
        <ele>16.96</ele>
      </trkpt>
      <trkpt lat="57.366419" lon="-2.087861">
        <ele>16.62</ele>
      </trkpt>
      <trkpt lat="57.366366" lon="-2.08787">
        <ele>16.35</ele>
      </trkpt>
      <trkpt lat="57.366357" lon="-2.087776">
        <ele>16.42</ele>
      </trkpt>
      <trkpt lat="57.36633" lon="-2.087502">
        <ele>16.63</ele>
      </trkpt>
      <trkpt lat="57.366316" lon="-2.087348">
        <ele>16.75</ele>
      </trkpt>
      <trkpt lat="57.366304" lon="-2.087216">
        <ele>16.79</ele>
      </trkpt>
      <trkpt lat="57.366289" lon="-2.08705">
        <ele>16.81</ele>
      </trkpt>
      <trkpt lat="57.36628" lon="-2.086951">
        <ele>16.83</ele>
      </trkpt>
      <trkpt lat="57.366262" lon="-2.086751">
        <ele>16.85</ele>
      </trkpt>
      <trkpt lat="57.366253" lon="-2.086647">
        <ele>16.89</ele>
      </trkpt>
      <trkpt lat="57.366246" lon="-2.086553">
        <ele>16.95</ele>
      </trkpt>
      <trkpt lat="57.366222" lon="-2.086239">
        <ele>16.87</ele>
      </trkpt>
      <trkpt lat="57.366212" lon="-2.086091">
        <ele>16.71</ele>
      </trkpt>
      <trkpt lat="57.366205" lon="-2.085992">
        <ele>16.62</ele>
      </trkpt>
      <trkpt lat="57.36617" lon="-2.086009">
        <ele>16.39</ele>
      </trkpt>
      <trkpt lat="57.366086" lon="-2.086051">
        <ele>15.86</ele>
      </trkpt>
      <trkpt lat="57.366019" lon="-2.086084">
        <ele>15.44</ele>
      </trkpt>
      <trkpt lat="57.365954" lon="-2.08611">
        <ele>15</ele>
      </trkpt>
      <trkpt lat="57.365881" lon="-2.086132">
        <ele>14.45</ele>
      </trkpt>
      <trkpt lat="57.365783" lon="-2.08616">
        <ele>13.71</ele>
      </trkpt>
      <trkpt lat="57.365709" lon="-2.086182">
        <ele>13.16</ele>
      </trkpt>
      <trkpt lat="57.365646" lon="-2.0862">
        <ele>12.69</ele>
      </trkpt>
      <trkpt lat="57.365572" lon="-2.086222">
        <ele>12.13</ele>
      </trkpt>
      <trkpt lat="57.36546" lon="-2.086256">
        <ele>11.35</ele>
      </trkpt>
      <trkpt lat="57.365316" lon="-2.086304">
        <ele>10.71</ele>
      </trkpt>
      <trkpt lat="57.365258" lon="-2.086316">
        <ele>10.48</ele>
      </trkpt>
      <trkpt lat="57.365204" lon="-2.0863">
        <ele>10.33</ele>
      </trkpt>
      <trkpt lat="57.365146" lon="-2.086283">
        <ele>10.18</ele>
      </trkpt>
      <trkpt lat="57.365043" lon="-2.086252">
        <ele>9.9</ele>
      </trkpt>
      <trkpt lat="57.364965" lon="-2.086234">
        <ele>9.7</ele>
      </trkpt>
      <trkpt lat="57.364898" lon="-2.086233">
        <ele>9.55</ele>
      </trkpt>
      <trkpt lat="57.364823" lon="-2.086279">
        <ele>9.37</ele>
      </trkpt>
      <trkpt lat="57.364739" lon="-2.086331">
        <ele>9.17</ele>
      </trkpt>
      <trkpt lat="57.364633" lon="-2.086395">
        <ele>8.92</ele>
      </trkpt>
      <trkpt lat="57.364522" lon="-2.086463">
        <ele>8.65</ele>
      </trkpt>
      <trkpt lat="57.364445" lon="-2.08651">
        <ele>8.46</ele>
      </trkpt>
      <trkpt lat="57.364336" lon="-2.086577">
        <ele>8.24</ele>
      </trkpt>
      <trkpt lat="57.364261" lon="-2.086622">
        <ele>8.17</ele>
      </trkpt>
      <trkpt lat="57.36417" lon="-2.086677">
        <ele>8.09</ele>
      </trkpt>
      <trkpt lat="57.364141" lon="-2.086695">
        <ele>8.06</ele>
      </trkpt>
      <trkpt lat="57.36403" lon="-2.086751">
        <ele>8</ele>
      </trkpt>
      <trkpt lat="57.36399" lon="-2.08675">
        <ele>8</ele>
      </trkpt>
      <trkpt lat="57.363922" lon="-2.086695">
        <ele>8</ele>
      </trkpt>
      <trkpt lat="57.363895" lon="-2.086657">
        <ele>8</ele>
      </trkpt>
      <trkpt lat="57.36385" lon="-2.08653">
        <ele>8</ele>
      </trkpt>
      <trkpt lat="57.363816" lon="-2.086398">
        <ele>7.93</ele>
      </trkpt>
      <trkpt lat="57.363785" lon="-2.086248">
        <ele>7.81</ele>
      </trkpt>
      <trkpt lat="57.363759" lon="-2.086123">
        <ele>7.7</ele>
      </trkpt>
      <trkpt lat="57.363718" lon="-2.085926">
        <ele>7.54</ele>
      </trkpt>
      <trkpt lat="57.363685" lon="-2.085766">
        <ele>7.41</ele>
      </trkpt>
      <trkpt lat="57.363655" lon="-2.085623">
        <ele>7.29</ele>
      </trkpt>
      <trkpt lat="57.363638" lon="-2.085539">
        <ele>7.22</ele>
      </trkpt>
      <trkpt lat="57.363606" lon="-2.085387">
        <ele>7.09</ele>
      </trkpt>
      <trkpt lat="57.363588" lon="-2.085296">
        <ele>7.02</ele>
      </trkpt>
      <trkpt lat="57.363574" lon="-2.085186">
        <ele>7</ele>
      </trkpt>
      <trkpt lat="57.363579" lon="-2.085048">
        <ele>7</ele>
      </trkpt>
      <trkpt lat="57.363599" lon="-2.084875">
        <ele>7</ele>
      </trkpt>
      <trkpt lat="57.363616" lon="-2.084802">
        <ele>7</ele>
      </trkpt>
      <trkpt lat="57.363647" lon="-2.08473">
        <ele>7</ele>
      </trkpt>
      <trkpt lat="57.363647" lon="-2.08473">
        <ele>7</ele>
      </trkpt>
      <trkpt lat="57.363657" lon="-2.084706">
        <ele>7</ele>
      </trkpt>
      <trkpt lat="57.363733" lon="-2.084616">
        <ele>7</ele>
      </trkpt>
      <trkpt lat="57.363774" lon="-2.084574">
        <ele>7</ele>
      </trkpt>
      <trkpt lat="57.363828" lon="-2.084544">
        <ele>7.02</ele>
      </trkpt>
      <trkpt lat="57.363828" lon="-2.084544">
        <ele>7.02</ele>
      </trkpt>
      <trkpt lat="57.363889" lon="-2.084509">
        <ele>7.04</ele>
      </trkpt>
      <trkpt lat="57.36395" lon="-2.084475">
        <ele>7.07</ele>
      </trkpt>
      <trkpt lat="57.363981" lon="-2.084457">
        <ele>7.08</ele>
      </trkpt>
      <trkpt lat="57.364057" lon="-2.084366">
        <ele>7.66</ele>
      </trkpt>
      <trkpt lat="57.364081" lon="-2.084307">
        <ele>7.93</ele>
      </trkpt>
      <trkpt lat="57.364082" lon="-2.084284">
        <ele>7.94</ele>
      </trkpt>
      <trkpt lat="57.36409" lon="-2.084183">
        <ele>8</ele>
      </trkpt>
      <trkpt lat="57.364079" lon="-2.084094">
        <ele>8.06</ele>
      </trkpt>
      <trkpt lat="57.364029" lon="-2.083882">
        <ele>8.49</ele>
      </trkpt>
      <trkpt lat="57.364007" lon="-2.083791">
        <ele>8.68</ele>
      </trkpt>
      <trkpt lat="57.36408" lon="-2.083698">
        <ele>8.84</ele>
      </trkpt>
      <trkpt lat="57.36416" lon="-2.083596">
        <ele>9</ele>
      </trkpt>
      <trkpt lat="57.364249" lon="-2.083567">
        <ele>9.62</ele>
      </trkpt>
      <trkpt lat="57.364299" lon="-2.083562">
        <ele>9.79</ele>
      </trkpt>
      <trkpt lat="57.364393" lon="-2.083564">
        <ele>9.95</ele>
      </trkpt>
      <trkpt lat="57.364554" lon="-2.083575">
        <ele>10.01</ele>
      </trkpt>
      <trkpt lat="57.364582" lon="-2.083578">
        <ele>10</ele>
      </trkpt>
      <trkpt lat="57.36457959811313" lon="-2.083731720759571">
        <ele>9.849882073998225</ele>
      </trkpt>
      <trkpt lat="57.364578" lon="-2.083834">
        <ele>9.75</ele>
      </trkpt>
      <trkpt lat="57.364572" lon="-2.08419">
        <ele>9.41</ele>
      </trkpt>
      <trkpt lat="57.3645688388334" lon="-2.084379669996038">
        <ele>9.224845965924665</ele>
      </trkpt>
      <trkpt lat="57.364565" lon="-2.08461">
        <ele>9</ele>
      </trkpt>
      <trkpt lat="57.364567" lon="-2.08461">
        <ele>9</ele>
      </trkpt>
      <trkpt lat="57.364565" lon="-2.08461">
        <ele>9</ele>
      </trkpt>
      <trkpt lat="57.364574" lon="-2.084053">
        <ele>9.54</ele>
      </trkpt>
      <trkpt lat="57.364582" lon="-2.083578">
        <ele>10</ele>
      </trkpt>
      <trkpt lat="57.36468" lon="-2.083583">
        <ele>10.18</ele>
      </trkpt>
      <trkpt lat="57.3648" lon="-2.083589">
        <ele>10.4</ele>
      </trkpt>
      <trkpt lat="57.36496" lon="-2.083598">
        <ele>10.69</ele>
      </trkpt>
      <trkpt lat="57.365032" lon="-2.083601">
        <ele>10.82</ele>
      </trkpt>
      <trkpt lat="57.365084" lon="-2.083604">
        <ele>10.92</ele>
      </trkpt>
      <trkpt lat="57.365151" lon="-2.083607">
        <ele>10.99</ele>
      </trkpt>
      <trkpt lat="57.365219" lon="-2.08361">
        <ele>11</ele>
      </trkpt>
      <trkpt lat="57.36526" lon="-2.083611">
        <ele>11</ele>
      </trkpt>
      <trkpt lat="57.365259" lon="-2.083626">
        <ele>11</ele>
      </trkpt>
      <trkpt lat="57.36525539487426" lon="-2.083987714282812">
        <ele>11</ele>
      </trkpt>
      <trkpt lat="57.365253" lon="-2.084228">
        <ele>11</ele>
      </trkpt>
      <trkpt lat="57.365251603381594" lon="-2.0843722008508534">
        <ele>11</ele>
      </trkpt>
      <trkpt lat="57.365249" lon="-2.084641">
        <ele>11</ele>
      </trkpt>
      <trkpt lat="57.365242" lon="-2.08464">
        <ele>11</ele>
      </trkpt>
      <trkpt lat="57.365249" lon="-2.084641">
        <ele>11</ele>
      </trkpt>
      <trkpt lat="57.36526" lon="-2.083611">
        <ele>11</ele>
      </trkpt>
      <trkpt lat="57.365293" lon="-2.083615">
        <ele>11.14</ele>
      </trkpt>
      <trkpt lat="57.365401" lon="-2.083629">
        <ele>11.59</ele>
      </trkpt>
      <trkpt lat="57.365487" lon="-2.08364">
        <ele>11.95</ele>
      </trkpt>
      <trkpt lat="57.365568" lon="-2.083652">
        <ele>12.33</ele>
      </trkpt>
      <trkpt lat="57.365622" lon="-2.083676">
        <ele>12.71</ele>
      </trkpt>
      <trkpt lat="57.365683" lon="-2.083731">
        <ele>13.01</ele>
      </trkpt>
      <trkpt lat="57.365713" lon="-2.083773">
        <ele>13.17</ele>
      </trkpt>
      <trkpt lat="57.365784" lon="-2.083871">
        <ele>13.55</ele>
      </trkpt>
      <trkpt lat="57.365839" lon="-2.083948">
        <ele>13.85</ele>
      </trkpt>
      <trkpt lat="57.365873" lon="-2.083994">
        <ele>14.03</ele>
      </trkpt>
      <trkpt lat="57.365899" lon="-2.084051">
        <ele>14.31</ele>
      </trkpt>
      <trkpt lat="57.365914" lon="-2.084084">
        <ele>14.47</ele>
      </trkpt>
      <trkpt lat="57.365939" lon="-2.084205">
        <ele>14.87</ele>
      </trkpt>
      <trkpt lat="57.365955" lon="-2.084372">
        <ele>15.01</ele>
      </trkpt>
      <trkpt lat="57.36597" lon="-2.084531">
        <ele>15.15</ele>
      </trkpt>
      <trkpt lat="57.365988" lon="-2.084716">
        <ele>15.3</ele>
      </trkpt>
      <trkpt lat="57.365998" lon="-2.084822">
        <ele>15.39</ele>
      </trkpt>
      <trkpt lat="57.366001" lon="-2.084852">
        <ele>15.42</ele>
      </trkpt>
      <trkpt lat="57.366014" lon="-2.084878">
        <ele>15.55</ele>
      </trkpt>
      <trkpt lat="57.366031" lon="-2.084886">
        <ele>15.74</ele>
      </trkpt>
      <trkpt lat="57.366076" lon="-2.084868">
        <ele>15.87</ele>
      </trkpt>
      <trkpt lat="57.366125" lon="-2.084848">
        <ele>16</ele>
      </trkpt>
      <trkpt lat="57.366125" lon="-2.084858">
        <ele>16.02</ele>
      </trkpt>
    </trkseg>
  </trk>
</gpx>
